{
"type": "FeatureCollection",
"name": "geo_35_介護老人福祉施設",
"crs": { "type": "name", "properties": { "name": "urn:ogc:def:crs:OGC:1.3:CRS84" } },
"features": [
{ "type": "Feature", "properties": { "内容": "特別養護老人ホーム　白滝荘【介護老人福祉施設】山口県下関市豊北町大字田耕12426番地1", "url": "https://www.kaigokensaku.mhlw.go.jp/35/index.php?action_kouhyou_detail_004_kani=true&JigyosyoCd=3577800083-00&ServiceCd=510&Type=search", "url2": "http://care-net.biz/35/shirataki/index.php" }, "geometry": { "type": "Point", "coordinates": [ 130.9885365, 34.2714973 ] } },
{ "type": "Feature", "properties": { "内容": "特別養護老人ホーム　員光園【介護老人福祉施設】山口県下関市大字員光１５４４番地", "url": "https://www.kaigokensaku.mhlw.go.jp/35/index.php?action_kouhyou_detail_004_kani=true&JigyosyoCd=3570100663-00&ServiceCd=510&Type=search", "url2": "http://care-net.biz/35/yamabatokai/index.php" }, "geometry": { "type": "Point", "coordinates": [ 130.984031499999986, 34.0510493 ] } },
{ "type": "Feature", "properties": { "内容": "特別養護老人ホーム　員光園（ユニット型）【介護老人福祉施設】山口県下関市大字員光１５４４番地", "url": "https://www.kaigokensaku.mhlw.go.jp/35/index.php?action_kouhyou_detail_004_kani=true&JigyosyoCd=3570104988-00&ServiceCd=510&Type=search", "url2": "http://care-net.biz/35/yamabatokai/index.php" }, "geometry": { "type": "Point", "coordinates": [ 130.984031499999986, 34.0510493 ] } },
{ "type": "Feature", "properties": { "内容": "特別養護老人ホーム　はまゆう苑【介護老人福祉施設】下関市横野町3-15-10", "url": "https://www.kaigokensaku.mhlw.go.jp/35/index.php?action_kouhyou_detail_004_kani=true&JigyosyoCd=3570100093-00&ServiceCd=510&Type=search", "url2": "http://www.syoutoukai.or.jp/" }, "geometry": { "type": "Point", "coordinates": [ 130.910112600000048, 34.0351028 ] } },
{ "type": "Feature", "properties": { "内容": "特別養護老人ホーム　貴船園【介護老人福祉施設】下関市貴船町3丁目4-1", "url": "https://www.kaigokensaku.mhlw.go.jp/35/index.php?action_kouhyou_detail_004_kani=true&JigyosyoCd=3570102198-00&ServiceCd=510&Type=search", "url2": "http://www.kifuneen.saiseikai.or.jp" }, "geometry": { "type": "Point", "coordinates": [ 130.942592200000036, 33.9692601 ] } },
{ "type": "Feature", "properties": { "内容": "特別養護老人ホーム　きくがわ苑（ユニット型）【介護老人福祉施設】山口県下関市菊川町大字下岡枝1064", "url": "https://www.kaigokensaku.mhlw.go.jp/35/index.php?action_kouhyou_detail_004_kani=true&JigyosyoCd=3570105001-00&ServiceCd=510&Type=search", "url2": "https://www.kikusuika.jp/" }, "geometry": { "type": "Point", "coordinates": [ 131.04154410000001, 34.1262668 ] } },
{ "type": "Feature", "properties": { "内容": "特別養護老人ホーム　きくがわ苑【介護老人福祉施設】山口県下関市菊川町大字下岡枝1064番地", "url": "https://www.kaigokensaku.mhlw.go.jp/35/index.php?action_kouhyou_detail_004_kani=true&JigyosyoCd=3577800208-00&ServiceCd=510&Type=search", "url2": "https://www.kikusuikai.jp/" }, "geometry": { "type": "Point", "coordinates": [ 131.0415524, 34.1263641 ] } },
{ "type": "Feature", "properties": { "内容": "特別養護老人ホームフェニックス【介護老人福祉施設】下関市大字小野64番地1", "url": "https://www.kaigokensaku.mhlw.go.jp/35/index.php?action_kouhyou_detail_004_kani=true&JigyosyoCd=3570100630-00&ServiceCd=510&Type=search", "url2": "http://www.akatsukikai.com" }, "geometry": { "type": "Point", "coordinates": [ 130.961961699999961, 34.0353505 ] } },
{ "type": "Feature", "properties": { "内容": "ユニット型　特別養護老人ホーム　フェニックス【介護老人福祉施設】山口県下関市大字小野６４－１", "url": "https://www.kaigokensaku.mhlw.go.jp/35/index.php?action_kouhyou_detail_004_kani=true&JigyosyoCd=3570104970-00&ServiceCd=510&Type=search", "url2": "http://www.akatsukikai.com" }, "geometry": { "type": "Point", "coordinates": [ 130.961961699999961, 34.0353505 ] } },
{ "type": "Feature", "properties": { "内容": "特別養護老人ホーム　みどり園【介護老人福祉施設】山口県下関市長府才川二丁目21-1", "url": "https://www.kaigokensaku.mhlw.go.jp/35/index.php?action_kouhyou_detail_004_kani=true&JigyosyoCd=3570100440-00&ServiceCd=510&Type=search", "url2": "http://wwwcare-net.biz/35/houaikai/" }, "geometry": { "type": "Point", "coordinates": [ 130.9995583, 34.0252383 ] } },
{ "type": "Feature", "properties": { "内容": "特別養護老人ホーム　慈公園【介護老人福祉施設】山口県下関市稗田中町8番38号", "url": "https://www.kaigokensaku.mhlw.go.jp/35/index.php?action_kouhyou_detail_004_kani=true&JigyosyoCd=3570100465-00&ServiceCd=510&Type=search", "url2": "http://hieda-fukushikai.com/" }, "geometry": { "type": "Point", "coordinates": [ 130.926020699999981, 33.9959854 ] } },
{ "type": "Feature", "properties": { "内容": "特別養護老人ホーム　アイユウの苑【介護老人福祉施設】山口県下関市彦島迫町三丁目17番2号", "url": "https://www.kaigokensaku.mhlw.go.jp/35/index.php?action_kouhyou_detail_004_kani=true&JigyosyoCd=3570100580-00&ServiceCd=510&Type=search", "url2": "https://www.shoubikai.or.jp" }, "geometry": { "type": "Point", "coordinates": [ 130.9002994, 33.9383705 ] } },
{ "type": "Feature", "properties": { "内容": "特別養護老人ホーム　寿海荘【介護老人福祉施設】下関市武久町２丁目５３－８", "url": "https://www.kaigokensaku.mhlw.go.jp/35/index.php?action_kouhyou_detail_004_kani=true&JigyosyoCd=3570100606-00&ServiceCd=510&Type=search", "url2": "http://shoujuen.jp" }, "geometry": { "type": "Point", "coordinates": [ 130.91664430000003, 33.9817949 ] } },
{ "type": "Feature", "properties": { "内容": "特別養護老人ホーム豊寿苑【介護老人福祉施設】山口県下関市豊浦町大字厚母郷10442番地", "url": "https://www.kaigokensaku.mhlw.go.jp/35/index.php?action_kouhyou_detail_004_kani=true&JigyosyoCd=3570102883-00&ServiceCd=510&Type=search", "url2": "http://care-net.biz/35/houjyu/" }, "geometry": { "type": "Point", "coordinates": [ 130.905848833204686, 34.118546186965744 ] } },
{ "type": "Feature", "properties": { "内容": "特別養護老人ホーム　ほたるホームとよた（ユニット型）【介護老人福祉施設】山口県下関市豊田町大字荒木10051番地2", "url": "https://www.kaigokensaku.mhlw.go.jp/35/index.php?action_kouhyou_detail_004_kani=true&JigyosyoCd=3570104996-00&ServiceCd=510&Type=search", "url2": "http://houzyukai.jp/" }, "geometry": { "type": "Point", "coordinates": [ 131.042815900000051, 34.2528649 ] } },
{ "type": "Feature", "properties": { "内容": "特別養護老人ホーム　ほたるホームとよた【介護老人福祉施設】下関市豊田町大字荒木10051番地2", "url": "https://www.kaigokensaku.mhlw.go.jp/35/index.php?action_kouhyou_detail_004_kani=true&JigyosyoCd=3577800117-00&ServiceCd=510&Type=search", "url2": "http://houzyukai.jp/" }, "geometry": { "type": "Point", "coordinates": [ 131.042815900000051, 34.2528649 ] } },
{ "type": "Feature", "properties": { "内容": "特別養護老人ホーム梨花の里【介護老人福祉施設】下関市豊北町大字滝部11042番地1", "url": "https://www.kaigokensaku.mhlw.go.jp/35/index.php?action_kouhyou_detail_004_kani=true&JigyosyoCd=3570103477-00&ServiceCd=510&Type=search", "url2": "http://houhokufukushikai.jp/" }, "geometry": { "type": "Point", "coordinates": [ 130.949577099999942, 34.2925838 ] } },
{ "type": "Feature", "properties": { "内容": "特別養護老人ホーム　センチュリー21【介護老人福祉施設】山口県宇部市大字山中126－1", "url": "https://www.kaigokensaku.mhlw.go.jp/35/index.php?action_kouhyou_detail_004_kani=true&JigyosyoCd=3570200240-00&ServiceCd=510&Type=search", "url2": "http://www.ube-century21.jp/" }, "geometry": { "type": "Point", "coordinates": [ 131.332999, 34.0598685 ] } },
{ "type": "Feature", "properties": { "内容": "特別養護老人ホーム　センチュリー21　靖和園【介護老人福祉施設】山口県宇部市大字山中126番の1", "url": "https://www.kaigokensaku.mhlw.go.jp/35/index.php?action_kouhyou_detail_004_kani=true&JigyosyoCd=3570203194-00&ServiceCd=510&Type=search", "url2": "http://www.ube-century21.jp/" }, "geometry": { "type": "Point", "coordinates": [ 131.332999, 34.0598685 ] } },
{ "type": "Feature", "properties": { "内容": "特別養護老人ホーム神原苑【介護老人福祉施設】宇部市神原町2丁目１－２２", "url": "https://www.kaigokensaku.mhlw.go.jp/35/index.php?action_kouhyou_detail_004_kani=true&JigyosyoCd=3570200356-00&ServiceCd=510&Type=search", "url2": "http://www.kamiharaen.com/" }, "geometry": { "type": "Point", "coordinates": [ 131.261287700000025, 33.9488954 ] } },
{ "type": "Feature", "properties": { "内容": "特別養護老人ホーム　宇部あかり園【介護老人福祉施設】宇部市大字西岐波229-105", "url": "https://www.kaigokensaku.mhlw.go.jp/35/index.php?action_kouhyou_detail_004_kani=true&JigyosyoCd=3570200422-00&ServiceCd=510&Type=search", "url2": "http://www.hakuaikai-yamaguchi.jp" }, "geometry": { "type": "Point", "coordinates": [ 131.301498700000025, 33.9665968 ] } },
{ "type": "Feature", "properties": { "内容": "特別養護老人ホーム楠園【介護老人福祉施設】宇部市大字船木字向ヒ833番3", "url": "https://www.kaigokensaku.mhlw.go.jp/35/index.php?action_kouhyou_detail_004_kani=true&JigyosyoCd=3577700085-00&ServiceCd=510&Type=search", "url2": "http://www.furoukai.jp" }, "geometry": { "type": "Point", "coordinates": [ 131.191794861935449, 34.049886870274946 ] } },
{ "type": "Feature", "properties": { "内容": "特別養護老人ホームむべの里【介護老人福祉施設】宇部市大字東須恵字大浴320-1", "url": "https://www.kaigokensaku.mhlw.go.jp/35/index.php?action_kouhyou_detail_004_kani=true&JigyosyoCd=3570200380-00&ServiceCd=510&Type=search", "url2": "http://www.mubekouei.com" }, "geometry": { "type": "Point", "coordinates": [ 131.209417700000017, 33.9918928 ] } },
{ "type": "Feature", "properties": { "内容": "特別養護老人ホーム　アスワン山荘【介護老人福祉施設】山口県宇部市二俣瀬山王坂40-221", "url": "https://www.kaigokensaku.mhlw.go.jp/35/index.php?action_kouhyou_detail_004_kani=true&JigyosyoCd=3570200364-00&ServiceCd=510&Type=search", "url2": "http://www.asuwansansou.jp/" }, "geometry": { "type": "Point", "coordinates": [ 131.280876676579254, 34.063403114404395 ] } },
{ "type": "Feature", "properties": { "内容": "特別養護老人ホーム日の山園【介護老人福祉施設】山口県宇部市東岐波２２３番地", "url": "https://www.kaigokensaku.mhlw.go.jp/35/index.php?action_kouhyou_detail_004_kani=true&JigyosyoCd=3570204341-00&ServiceCd=510&Type=search", "url2": "http://www.mubenosato.com" }, "geometry": { "type": "Point", "coordinates": [ 131.358121, 33.9889872 ] } },
{ "type": "Feature", "properties": { "内容": "特別養護老人ホーム　小郡・山手一番館【介護老人福祉施設】山口市小郡尾崎町２番１号", "url": "https://www.kaigokensaku.mhlw.go.jp/35/index.php?action_kouhyou_detail_004_kani=true&JigyosyoCd=3577600145-00&ServiceCd=510&Type=search", "url2": "http：//yamate-ichiban.info/" }, "geometry": { "type": "Point", "coordinates": [ 131.395829974205071, 34.109446702486686 ] } },
{ "type": "Feature", "properties": { "内容": "特別養護老人ホーム白松苑【介護老人福祉施設】山口県山口市阿知須4167番地1", "url": "https://www.kaigokensaku.mhlw.go.jp/35/index.php?action_kouhyou_detail_004_kani=true&JigyosyoCd=3577600178-00&ServiceCd=510&Type=search", "url2": "https://www.hakusyoen.jp/" }, "geometry": { "type": "Point", "coordinates": [ 131.358172055195951, 34.008595080970501 ] } },
{ "type": "Feature", "properties": { "内容": "特別養護老人ホーム阿東園【介護老人福祉施設】山口県山口市阿東地福下２８８番地１", "url": "https://www.kaigokensaku.mhlw.go.jp/35/index.php?action_kouhyou_detail_004_kani=true&JigyosyoCd=3578100285-00&ServiceCd=510&Type=search", "url2": "https://c-able.ne.jp" }, "geometry": { "type": "Point", "coordinates": [ 131.6312193, 34.3439371 ] } },
{ "type": "Feature", "properties": { "内容": "特別養護老人ホームよしき悠々苑【介護老人福祉施設】山口県山口市吉敷佐畑四丁目8番1号", "url": "https://www.kaigokensaku.mhlw.go.jp/35/index.php?action_kouhyou_detail_004_kani=true&JigyosyoCd=3570300420-00&ServiceCd=510&Type=search", "url2": "https://care-net.biz/35/yoshiki-yuuyuuen/" }, "geometry": { "type": "Point", "coordinates": [ 131.428243800000018, 34.1687066 ] } },
{ "type": "Feature", "properties": { "内容": "特別養護老人ホーム　山口あかり園【介護老人福祉施設】山口県山口市黒川３３６３番地", "url": "https://www.kaigokensaku.mhlw.go.jp/35/index.php?action_kouhyou_detail_004_kani=true&JigyosyoCd=3570300370-00&ServiceCd=510&Type=search", "url2": "http://www.hakuaikai-yamaguchi.jp" }, "geometry": { "type": "Point", "coordinates": [ 131.438716399999947, 34.1310547 ] } },
{ "type": "Feature", "properties": { "内容": "賀宝の里白松苑【介護老人福祉施設】山口市佐山158番地", "url": "https://www.kaigokensaku.mhlw.go.jp/35/index.php?action_kouhyou_detail_004_kani=true&JigyosyoCd=3570301386-00&ServiceCd=510&Type=search", "url2": "https://hakusyoen.jp/sayama/kagaho" }, "geometry": { "type": "Point", "coordinates": [ 131.350200699999959, 34.0496921 ] } },
{ "type": "Feature", "properties": { "内容": "特別養護老人ホーム　秋穂あかり園【介護老人福祉施設】山口市秋穂東3980番地", "url": "https://www.kaigokensaku.mhlw.go.jp/35/index.php?action_kouhyou_detail_004_kani=true&JigyosyoCd=3577600194-00&ServiceCd=510&Type=search", "url2": "http://www.hakuaikai-yamaguchi.jp/" }, "geometry": { "type": "Point", "coordinates": [ 131.444992400000046, 34.0142506 ] } },
{ "type": "Feature", "properties": { "内容": "特別養護老人ホーム　梅光苑【介護老人福祉施設】山口市鋳銭司12361-3", "url": "https://www.kaigokensaku.mhlw.go.jp/35/index.php?action_kouhyou_detail_004_kani=true&JigyosyoCd=3570300339-00&ServiceCd=510&Type=search", "url2": "http//www.aikawaiin.or.jp/baikouen/" }, "geometry": { "type": "Point", "coordinates": [ 131.439088827647396, 34.066721013333193 ] } },
{ "type": "Feature", "properties": { "内容": "済生会山口地域ケアセンター特別養護老人ホームおとどいの里【介護老人福祉施設】山口県山口市朝倉町4番55号", "url": "https://www.kaigokensaku.mhlw.go.jp/35/index.php?action_kouhyou_detail_004_kani=true&JigyosyoCd=3570303101-00&ServiceCd=510&Type=search", "url2": "http://saiseikai-care-y.jp/" }, "geometry": { "type": "Point", "coordinates": [ 131.452923596958925, 34.176114274238614 ] } },
{ "type": "Feature", "properties": { "内容": "特別養護老人ホーム　温泉ホーム日吉台【介護老人福祉施設】山口県山口市陶3968", "url": "https://www.kaigokensaku.mhlw.go.jp/35/index.php?action_kouhyou_detail_004_kani=true&JigyosyoCd=3570300321-00&ServiceCd=510&Type=search", "url2": "http://www.hiyoshidai.or.jp" }, "geometry": { "type": "Point", "coordinates": [ 131.420666100000062, 34.0983351 ] } },
{ "type": "Feature", "properties": { "内容": "特別養護老人ホームとくぢ苑【介護老人福祉施設】山口県山口市徳地八坂1330番地", "url": "https://www.kaigokensaku.mhlw.go.jp/35/index.php?action_kouhyou_detail_004_kani=true&JigyosyoCd=3577500063-00&ServiceCd=510&Type=search", "url2": "www.tokudien.jp" }, "geometry": { "type": "Point", "coordinates": [ 131.659968299999946, 34.2341075 ] } },
{ "type": "Feature", "properties": { "内容": "特別養護老人ホームむつみ園【介護老人福祉施設】山口県萩市大字吉部上3301-1", "url": "https://www.kaigokensaku.mhlw.go.jp/35/index.php?action_kouhyou_detail_004_kani=true&JigyosyoCd=3578100269-00&ServiceCd=510&Type=search", "url2": "http://siunkai.jp/" }, "geometry": { "type": "Point", "coordinates": [ 131.57447, 34.4374346 ] } },
{ "type": "Feature", "properties": { "内容": "特別養護老人ホーム阿北苑【介護老人福祉施設】山口県萩市大字上小川東分1406番地", "url": "https://www.kaigokensaku.mhlw.go.jp/35/index.php?action_kouhyou_detail_004_kani=true&JigyosyoCd=3578100301-00&ServiceCd=510&Type=search", "url2": "http://www.ahoku.or.jp/" }, "geometry": { "type": "Point", "coordinates": [ 131.671739500000058, 34.5894553 ] } },
{ "type": "Feature", "properties": { "内容": "特別養護老人ホームすさ苑【介護老人福祉施設】萩市大字須佐1378-1", "url": "https://www.kaigokensaku.mhlw.go.jp/35/index.php?action_kouhyou_detail_004_kani=true&JigyosyoCd=3578100277-00&ServiceCd=510&Type=search", "url2": "https://susaen.or.jp" }, "geometry": { "type": "Point", "coordinates": [ 131.607869, 34.6128762 ] } },
{ "type": "Feature", "properties": { "内容": "特別養護老人ホームオアシスはぎ園【介護老人福祉施設】山口県萩市大井1723番地6", "url": "https://www.kaigokensaku.mhlw.go.jp/35/index.php?action_kouhyou_detail_004_kani=true&JigyosyoCd=3570400436-00&ServiceCd=510&Type=search", "url2": "https://jigyodan-yg.jp/hagien/" }, "geometry": { "type": "Point", "coordinates": [ 131.4460884, 34.473904 ] } },
{ "type": "Feature", "properties": { "内容": "萩市特別養護老人ホームかがやき【介護老人福祉施設】山口県萩市大字椿字門田3460-2", "url": "https://www.kaigokensaku.mhlw.go.jp/35/index.php?action_kouhyou_detail_004_kani=true&JigyosyoCd=3570400360-00&ServiceCd=510&Type=search", "url2": "http://hagi-kagayaki.or.jp" }, "geometry": { "type": "Point", "coordinates": [ 131.394090626814204, 34.39757252200593 ] } },
{ "type": "Feature", "properties": { "内容": "特別養護老人ホームちはるえん【介護老人福祉施設】萩市大字明木４７８１番地の１", "url": "https://www.kaigokensaku.mhlw.go.jp/35/index.php?action_kouhyou_detail_004_kani=true&JigyosyoCd=3578100327-00&ServiceCd=510&Type=search", "url2": null }, "geometry": { "type": "Point", "coordinates": [ 131.420324, 34.3596736 ] } },
{ "type": "Feature", "properties": { "内容": "特別養護老人ホームかわかみ苑【介護老人福祉施設】山口県萩市川上４９２１番地の１", "url": "https://www.kaigokensaku.mhlw.go.jp/35/index.php?action_kouhyou_detail_004_kani=true&JigyosyoCd=3578100244-00&ServiceCd=510&Type=search", "url2": "https://kawakamien.jp/" }, "geometry": { "type": "Point", "coordinates": [ 131.477498535581958, 34.358830599017715 ] } },
{ "type": "Feature", "properties": { "内容": "特別養護老人ホーム　岸津苑【介護老人福祉施設】防府市岸津二丁目２４番２０号", "url": "https://www.kaigokensaku.mhlw.go.jp/35/index.php?action_kouhyou_detail_004_kani=true&JigyosyoCd=3570600233-00&ServiceCd=510&Type=search", "url2": "http://www.shuyou.jp/" }, "geometry": { "type": "Point", "coordinates": [ 131.593606899999941, 34.0496799 ] } },
{ "type": "Feature", "properties": { "内容": "特別養護老人ホーム　サンハート香月【介護老人福祉施設】山口県防府市岸津２丁目２５番１号", "url": "https://www.kaigokensaku.mhlw.go.jp/35/index.php?action_kouhyou_detail_004_kani=true&JigyosyoCd=3570602155-00&ServiceCd=510&Type=search", "url2": "http://www.shuyou.jp/" }, "geometry": { "type": "Point", "coordinates": [ 131.593045800000027, 34.0501465 ] } },
{ "type": "Feature", "properties": { "内容": "特別養護老人ホーム　ライフケア高砂【介護老人福祉施設】防府市大字上右田３３４", "url": "https://www.kaigokensaku.mhlw.go.jp/35/index.php?action_kouhyou_detail_004_kani=true&JigyosyoCd=3570600274-00&ServiceCd=510&Type=search", "url2": "life-care-takasago.jp" }, "geometry": { "type": "Point", "coordinates": [ 131.580842676010064, 34.095163588584136 ] } },
{ "type": "Feature", "properties": { "内容": "特別養護老人ホーム　まめ舎【介護老人福祉施設】山口県防府市大字新田６７２番地", "url": "https://www.kaigokensaku.mhlw.go.jp/35/index.php?action_kouhyou_detail_004_kani=true&JigyosyoCd=3570600688-00&ServiceCd=510&Type=search", "url2": "http://www.c-able.ne.jp/~keiten/" }, "geometry": { "type": "Point", "coordinates": [ 131.563179265680333, 34.032478031384819 ] } },
{ "type": "Feature", "properties": { "内容": "特別養護老人ホーム防府あかり園【介護老人福祉施設】防府市大字台道１６５５番地", "url": "https://www.kaigokensaku.mhlw.go.jp/35/index.php?action_kouhyou_detail_004_kani=true&JigyosyoCd=3570600258-00&ServiceCd=510&Type=search", "url2": "http://www.hakuaikai-yamaguchi.jp/" }, "geometry": { "type": "Point", "coordinates": [ 131.492829, 34.0698294 ] } },
{ "type": "Feature", "properties": { "内容": "特別養護老人ホーム　ほしのさと【介護老人福祉施設】山口県下松市生野屋南1丁目13番1号", "url": "https://www.kaigokensaku.mhlw.go.jp/35/index.php?action_kouhyou_detail_004_kani=true&JigyosyoCd=3570700132-00&ServiceCd=510&Type=search", "url2": "https://www.hoshinosato.jp/" }, "geometry": { "type": "Point", "coordinates": [ 131.87411910000003, 34.031442500000011 ] } },
{ "type": "Feature", "properties": { "内容": "特別養護老人ホーム　松寿苑【介護老人福祉施設】山口県下松市大字来巻９４４番地の１", "url": "https://www.kaigokensaku.mhlw.go.jp/35/index.php?action_kouhyou_detail_004_kani=true&JigyosyoCd=3570700173-00&ServiceCd=510&Type=search", "url2": "http://www.syojuen.com" }, "geometry": { "type": "Point", "coordinates": [ 131.930286600000045, 34.0238309 ] } },
{ "type": "Feature", "properties": { "内容": "特別養護老人ホーム　美和苑【介護老人福祉施設】山口県岩国市美和町生見１２５３８", "url": "https://www.kaigokensaku.mhlw.go.jp/35/index.php?action_kouhyou_detail_004_kani=true&JigyosyoCd=3577200425-00&ServiceCd=510&Type=search", "url2": "http://miwafukushikai.jp" }, "geometry": { "type": "Point", "coordinates": [ 132.068314399999963, 34.227100399999983 ] } },
{ "type": "Feature", "properties": { "内容": "特別養護老人ホーム　灘海園【介護老人福祉施設】山口県岩国市愛宕町一丁目5番１", "url": "https://www.kaigokensaku.mhlw.go.jp/35/index.php?action_kouhyou_detail_004_kani=true&JigyosyoCd=3570800908-00&ServiceCd=510&Type=search", "url2": "https://jigyodan-yg.jp/nadami/" }, "geometry": { "type": "Point", "coordinates": [ 132.199594371163926, 34.146128001807895 ] } },
{ "type": "Feature", "properties": { "内容": "特別養護老人ホーム光葉苑【介護老人福祉施設】山口県岩国市下317番地２", "url": "https://www.kaigokensaku.mhlw.go.jp/35/index.php?action_kouhyou_detail_004_kani=true&JigyosyoCd=3570800239-00&ServiceCd=510&Type=search", "url2": "https://kouyouen-iwakuni.jimdo.com" }, "geometry": { "type": "Point", "coordinates": [ 132.093511600000056, 34.15983 ] } },
{ "type": "Feature", "properties": { "内容": "特別養護老人ホーム　かなえ【介護老人福祉施設】山口県岩国市錦見３丁目７番５５号", "url": "https://www.kaigokensaku.mhlw.go.jp/35/index.php?action_kouhyou_detail_004_kani=true&JigyosyoCd=3570800585-00&ServiceCd=510&Type=search", "url2": "www.kanaekai.jp/" }, "geometry": { "type": "Point", "coordinates": [ 132.198668600000019, 34.166917099999985 ] } },
{ "type": "Feature", "properties": { "内容": "特別養護老人ホーム　錦苑【介護老人福祉施設】山口県岩国市錦町広瀬758番地", "url": "https://www.kaigokensaku.mhlw.go.jp/35/index.php?action_kouhyou_detail_004_kani=true&JigyosyoCd=3577200391-00&ServiceCd=510&Type=search", "url2": "http://nishiki-f.com/" }, "geometry": { "type": "Point", "coordinates": [ 131.950292200000035, 34.2569949 ] } },
{ "type": "Feature", "properties": { "内容": "特別養護老人ホーム玖珂苑【介護老人福祉施設】山口県岩国市玖珂町3813番地6", "url": "https://www.kaigokensaku.mhlw.go.jp/35/index.php?action_kouhyou_detail_004_kani=true&JigyosyoCd=3577200284-00&ServiceCd=510&Type=search", "url2": "http://www.takamori-fukushikai.or.jp/" }, "geometry": { "type": "Point", "coordinates": [ 132.098622400000068, 34.0818525 ] } },
{ "type": "Feature", "properties": { "内容": "特別養護老人ホーム高森苑【介護老人福祉施設】山口県岩国市周東町西長野621番地1", "url": "https://www.kaigokensaku.mhlw.go.jp/35/index.php?action_kouhyou_detail_004_kani=true&JigyosyoCd=3577200250-00&ServiceCd=510&Type=search", "url2": "http://www.takamori-fukushikai.or.jp/" }, "geometry": { "type": "Point", "coordinates": [ 132.027920900000026, 34.0875034 ] } },
{ "type": "Feature", "properties": { "内容": "特別養護老人ホーム美川苑【介護老人福祉施設】山口県岩国市美川町小川437-1", "url": "https://www.kaigokensaku.mhlw.go.jp/35/index.php?action_kouhyou_detail_004_kani=true&JigyosyoCd=3577200466-00&ServiceCd=510&Type=search", "url2": "http://mikawa-en.com/" }, "geometry": { "type": "Point", "coordinates": [ 132.000744, 34.2422228 ] } },
{ "type": "Feature", "properties": { "内容": "特別養護老人ホーム　ヴィラ本郷【介護老人福祉施設】山口県岩国市本郷町本郷2086", "url": "https://www.kaigokensaku.mhlw.go.jp/35/index.php?action_kouhyou_detail_004_kani=true&JigyosyoCd=3577200458-00&ServiceCd=510&Type=search", "url2": "http://hongo.tokuyou.jp/" }, "geometry": { "type": "Point", "coordinates": [ 132.0401041, 34.2935263 ] } },
{ "type": "Feature", "properties": { "内容": "介護老人福祉施設　ヴィータ【介護老人福祉施設】山口県岩国市麻里布町3丁目5-30", "url": "https://www.kaigokensaku.mhlw.go.jp/35/index.php?action_kouhyou_detail_004_kani=true&JigyosyoCd=3570801922-00&ServiceCd=510&Type=search", "url2": "http://www.nishiki-f.com/" }, "geometry": { "type": "Point", "coordinates": [ 132.222181, 34.1701806 ] } },
{ "type": "Feature", "properties": { "内容": "特別養護老人ホーム　緑風荘【介護老人福祉施設】山口県岩国市由宇町3018番地1", "url": "https://www.kaigokensaku.mhlw.go.jp/35/index.php?action_kouhyou_detail_004_kani=true&JigyosyoCd=3577200383-00&ServiceCd=510&Type=search", "url2": "http://ryokufuukai.net/" }, "geometry": { "type": "Point", "coordinates": [ 132.1632257, 34.0282774 ] } },
{ "type": "Feature", "properties": { "内容": "特別養護老人ホーム　光寿苑【介護老人福祉施設】光市室積沖田5番1号", "url": "https://www.kaigokensaku.mhlw.go.jp/35/index.php?action_kouhyou_detail_004_kani=true&JigyosyoCd=3571000094-00&ServiceCd=510&Type=search", "url2": "https://koujyuen-top.jimdofree.com/" }, "geometry": { "type": "Point", "coordinates": [ 131.974363824389684, 33.934773978669391 ] } },
{ "type": "Feature", "properties": { "内容": "特別養護老人ホーム　やまと苑【介護老人福祉施設】山口県光市大字岩田２６７番地", "url": "https://www.kaigokensaku.mhlw.go.jp/35/index.php?action_kouhyou_detail_004_kani=true&JigyosyoCd=3577300241-00&ServiceCd=510&Type=search", "url2": "http://www.yamatofukushikai.jp/" }, "geometry": { "type": "Point", "coordinates": [ 131.988627100000031, 33.974638 ] } },
{ "type": "Feature", "properties": { "内容": "特別養護老人ホーム　光富士白苑【介護老人福祉施設】光市虹ヶ浜2丁目5番7号", "url": "https://www.kaigokensaku.mhlw.go.jp/35/index.php?action_kouhyou_detail_004_kani=true&JigyosyoCd=3571000102-00&ServiceCd=510&Type=search", "url2": "http://www.h-fuji.com" }, "geometry": { "type": "Point", "coordinates": [ 131.9186836, 33.9684448 ] } },
{ "type": "Feature", "properties": { "内容": "特別養護老人ホームひかり苑【介護老人福祉施設】光市大字三井1056番地1", "url": "https://www.kaigokensaku.mhlw.go.jp/35/index.php?action_kouhyou_detail_004_kani=true&JigyosyoCd=3571000698-00&ServiceCd=510&Type=search", "url2": "http://hikari-en.jp/" }, "geometry": { "type": "Point", "coordinates": [ 131.950935332540894, 33.99353839956175 ] } },
{ "type": "Feature", "properties": { "内容": "特別養護老人ホーム　明和苑【介護老人福祉施設】長門市三隅中1811番地", "url": "https://www.kaigokensaku.mhlw.go.jp/35/index.php?action_kouhyou_detail_004_kani=true&JigyosyoCd=3578000139-00&ServiceCd=510&Type=search", "url2": "http://meiwaen.jp/" }, "geometry": { "type": "Point", "coordinates": [ 131.265298199999961, 34.3619474 ] } },
{ "type": "Feature", "properties": { "内容": "特別養護老人ホーム恵光苑【介護老人福祉施設】山口県長門市東深川堤山10062番地27", "url": "https://www.kaigokensaku.mhlw.go.jp/35/index.php?action_kouhyou_detail_004_kani=true&JigyosyoCd=3571100100-00&ServiceCd=510&Type=search", "url2": "http://www.keikouen.jp/" }, "geometry": { "type": "Point", "coordinates": [ 131.188238700000056, 34.372697699999982 ] } },
{ "type": "Feature", "properties": { "内容": "特別養護老人ホーム　養寿苑【介護老人福祉施設】山口県長門市油谷向津具上10344番地", "url": "https://www.kaigokensaku.mhlw.go.jp/35/index.php?action_kouhyou_detail_004_kani=true&JigyosyoCd=3578000154-00&ServiceCd=510&Type=search", "url2": "https:.//www.youjyuen.com" }, "geometry": { "type": "Point", "coordinates": [ 131.0028231, 34.3999046 ] } },
{ "type": "Feature", "properties": { "内容": "特別養護老人ホーム　吉祥苑【介護老人福祉施設】長門市深川湯本１０６００番地1", "url": "https://www.kaigokensaku.mhlw.go.jp/35/index.php?action_kouhyou_detail_004_kani=true&JigyosyoCd=3571100159-00&ServiceCd=510&Type=search", "url2": "https://www.fukushoukai.or.jp" }, "geometry": { "type": "Point", "coordinates": [ 131.178624600000035, 34.339081899999982 ] } },
{ "type": "Feature", "properties": { "内容": "特別養護老人ホーム　へき楽園【介護老人福祉施設】山口県長門市日置上3114番地", "url": "https://www.kaigokensaku.mhlw.go.jp/35/index.php?action_kouhyou_detail_004_kani=true&JigyosyoCd=3578000121-00&ServiceCd=510&Type=search", "url2": "https://hekirakuen.or.jp" }, "geometry": { "type": "Point", "coordinates": [ 131.133383699999968, 34.3968969 ] } },
{ "type": "Feature", "properties": { "内容": "特別養護老人ホーム伊保庄園【介護老人福祉施設】山口県柳井市伊保庄1番地２", "url": "https://www.kaigokensaku.mhlw.go.jp/35/index.php?action_kouhyou_detail_004_kani=true&JigyosyoCd=3571200488-00&ServiceCd=510&Type=search", "url2": "https://jigyodan-yg.jp/ihonosyou/" }, "geometry": { "type": "Point", "coordinates": [ 132.129884400000037, 33.9108729 ] } },
{ "type": "Feature", "properties": { "内容": "特別養護老人ホーム大畠苑【介護老人福祉施設】山口県柳井市遠崎１０４１２番地４", "url": "https://www.kaigokensaku.mhlw.go.jp/35/index.php?action_kouhyou_detail_004_kani=true&JigyosyoCd=3577200292-00&ServiceCd=510&Type=search", "url2": "https://senjukai-oobatakeen.jp/" }, "geometry": { "type": "Point", "coordinates": [ 132.15781552361932, 33.958665814500499 ] } },
{ "type": "Feature", "properties": { "内容": "特別養護老人ホーム　四季の里【介護老人福祉施設】柳井市日積３２１０－５", "url": "https://www.kaigokensaku.mhlw.go.jp/35/index.php?action_kouhyou_detail_004_kani=true&JigyosyoCd=3571200470-00&ServiceCd=510&Type=search", "url2": "http://www.saisyokai.or.jp" }, "geometry": { "type": "Point", "coordinates": [ 132.17415589999996, 34.0058471 ] } },
{ "type": "Feature", "properties": { "内容": "特別養護老人ホーム松風苑【介護老人福祉施設】柳井市余田3762番地の1", "url": "https://www.kaigokensaku.mhlw.go.jp/35/index.php?action_kouhyou_detail_004_kani=true&JigyosyoCd=3571200116-00&ServiceCd=510&Type=search", "url2": "http://shoueikai.or.jp/shoueikai.or.jp/wp-sf/" }, "geometry": { "type": "Point", "coordinates": [ 132.065235499999972, 33.9601415 ] } },
{ "type": "Feature", "properties": { "内容": "特別養護老人ホーム幸嶺園【介護老人福祉施設】山口県美祢市伊佐町伊佐字下田5656-1", "url": "https://www.kaigokensaku.mhlw.go.jp/35/index.php?action_kouhyou_detail_004_kani=true&JigyosyoCd=3571300064-00&ServiceCd=510&Type=search", "url2": "http://www.shubikai.com/shisetu01/index.html" }, "geometry": { "type": "Point", "coordinates": [ 131.199784215474182, 34.164033626437501 ] } },
{ "type": "Feature", "properties": { "内容": "特別養護老人ホームみのり園【介護老人福祉施設】山口県美祢市於福町上4017-1", "url": "https://www.kaigokensaku.mhlw.go.jp/35/index.php?action_kouhyou_detail_004_kani=true&JigyosyoCd=3571300072-00&ServiceCd=510&Type=search", "url2": "http://wwwf-doho.com" }, "geometry": { "type": "Point", "coordinates": [ 131.206672799999978, 34.2521472 ] } },
{ "type": "Feature", "properties": { "内容": "特別養護老人ホーム　青景園【介護老人福祉施設】美祢市秋芳町青景1873番地", "url": "https://www.kaigokensaku.mhlw.go.jp/35/index.php?action_kouhyou_detail_004_kani=true&JigyosyoCd=3577900073-00&ServiceCd=510&Type=search", "url2": "https://aokage52.jp" }, "geometry": { "type": "Point", "coordinates": [ 131.278329, 34.2719531 ] } },
{ "type": "Feature", "properties": { "内容": "特別養護老人ホーム　みとう悠々苑【介護老人福祉施設】山口県美祢市美東町大田5378番地1", "url": "https://www.kaigokensaku.mhlw.go.jp/35/index.php?action_kouhyou_detail_004_kani=true&JigyosyoCd=3577900065-00&ServiceCd=510&Type=search", "url2": "https：/mitou-uu.wixsite.com/mitou-uu" }, "geometry": { "type": "Point", "coordinates": [ 131.3467544, 34.2158783 ] } },
{ "type": "Feature", "properties": { "内容": "特別養護老人ホーム　くりや苑【介護老人福祉施設】周南市大字栗屋792番地の1", "url": "https://www.kaigokensaku.mhlw.go.jp/35/index.php?action_kouhyou_detail_004_kani=true&JigyosyoCd=3571501224-00&ServiceCd=510&Type=search", "url2": "https://www.kuriyaen.jp" }, "geometry": { "type": "Point", "coordinates": [ 131.83799193508753, 34.019712206412862 ] } },
{ "type": "Feature", "properties": { "内容": "特別養護老人ホームやまなみ荘【介護老人福祉施設】山口県周南市大字鹿野上2755番地の１", "url": "https://www.kaigokensaku.mhlw.go.jp/35/index.php?action_kouhyou_detail_004_kani=true&JigyosyoCd=3577400058-00&ServiceCd=510&Type=search", "url2": "http://www.kanofukushikai.or.jp/" }, "geometry": { "type": "Point", "coordinates": [ 131.809668099999953, 34.2296147 ] } },
{ "type": "Feature", "properties": { "内容": "特別養護老人ホーム友愛園【介護老人福祉施設】周南市大字須々万本郷28番地の１", "url": "https://www.kaigokensaku.mhlw.go.jp/35/index.php?action_kouhyou_detail_004_kani=true&JigyosyoCd=3570500284-00&ServiceCd=510&Type=search", "url2": "http://ryokuzankai.jp" }, "geometry": { "type": "Point", "coordinates": [ 131.858113199999906, 34.1232886 ] } },
{ "type": "Feature", "properties": { "内容": "特別養護老人ホームつづみ園【介護老人福祉施設】山口県周南市瀬戸見町12番30号", "url": "https://www.kaigokensaku.mhlw.go.jp/35/index.php?action_kouhyou_detail_004_kani=true&JigyosyoCd=3571501364-00&ServiceCd=510&Type=search", "url2": "https://www.shunan-jigyodan.jp/" }, "geometry": { "type": "Point", "coordinates": [ 131.832914036245711, 34.050777039021803 ] } },
{ "type": "Feature", "properties": { "内容": "特別養護老人ホーム天王園【介護老人福祉施設】山口県周南市大字大河内10518番10", "url": "https://www.kaigokensaku.mhlw.go.jp/35/index.php?action_kouhyou_detail_004_kani=true&JigyosyoCd=3577300217-00&ServiceCd=510&Type=search", "url2": "http://www.tennoen.com" }, "geometry": { "type": "Point", "coordinates": [ 131.940889670361315, 34.025992218902822 ] } },
{ "type": "Feature", "properties": { "内容": "特別養護老人ホームやすらぎ苑【介護老人福祉施設】山口県周南市大字湯野１５８番地", "url": "https://www.kaigokensaku.mhlw.go.jp/35/index.php?action_kouhyou_detail_004_kani=true&JigyosyoCd=3570500276-00&ServiceCd=510&Type=search", "url2": "http://www.yasuragi-en.jp/" }, "geometry": { "type": "Point", "coordinates": [ 131.67826690000004, 34.0918682 ] } },
{ "type": "Feature", "properties": { "内容": "特別養護老人ホーム福寿荘【介護老人福祉施設】山口県周南市大字米光３６１番地", "url": "https://www.kaigokensaku.mhlw.go.jp/35/index.php?action_kouhyou_detail_004_kani=true&JigyosyoCd=3571400062-00&ServiceCd=510&Type=search", "url2": "http://www.shinnanyofukushi.com" }, "geometry": { "type": "Point", "coordinates": [ 131.722045200000025, 34.1369534 ] } },
{ "type": "Feature", "properties": { "内容": "特別養護老人ホーム　フクシア【介護老人福祉施設】山陽小野田市厚狭字埴生田503番1", "url": "https://www.kaigokensaku.mhlw.go.jp/35/index.php?action_kouhyou_detail_004_kani=true&JigyosyoCd=3571600422-00&ServiceCd=510&Type=search", "url2": "http://asashion.wixsite.com/kenjinkai" }, "geometry": { "type": "Point", "coordinates": [ 131.173971495475854, 34.053272109785119 ] } },
{ "type": "Feature", "properties": { "内容": "特別養護老人ホーム　長寿園【介護老人福祉施設】山口県山陽小野田市大字小野田１１３２４番地10", "url": "https://www.kaigokensaku.mhlw.go.jp/35/index.php?action_kouhyou_detail_004_kani=true&JigyosyoCd=3570900096-00&ServiceCd=510&Type=search", "url2": "http://care-net.biz/35/choujukai01/" }, "geometry": { "type": "Point", "coordinates": [ 131.183707315344236, 33.991344914941379 ] } },
{ "type": "Feature", "properties": { "内容": "特別養護老人ホーム　サンライフ山陽【介護老人福祉施設】山陽小野田市大字埴生2156番地", "url": "https://www.kaigokensaku.mhlw.go.jp/35/index.php?action_kouhyou_detail_004_kani=true&JigyosyoCd=3577700093-00&ServiceCd=510&Type=search", "url2": "http://care-net.biz/35/sanraifu/" }, "geometry": { "type": "Point", "coordinates": [ 131.076557500000035, 34.0448622 ] } },
{ "type": "Feature", "properties": { "内容": "特別養護老人ホーム　高千帆苑【介護老人福祉施設】山陽小野田市大字有帆字佛石１０６６２番地８", "url": "https://www.kaigokensaku.mhlw.go.jp/35/index.php?action_kouhyou_detail_004_kani=true&JigyosyoCd=3570900153-00&ServiceCd=510&Type=search", "url2": "http://otakaro.wixsite.com/my-site" }, "geometry": { "type": "Point", "coordinates": [ 131.197822692529229, 34.028620033324081 ] } },
{ "type": "Feature", "properties": { "内容": "特別養護老人ホーム　やまびこ苑【介護老人福祉施設】山口県大島郡周防大島町大字久賀5375-1", "url": "https://www.kaigokensaku.mhlw.go.jp/35/index.php?action_kouhyou_detail_004_kani=true&JigyosyoCd=3577100153-00&ServiceCd=510&Type=search", "url2": null }, "geometry": { "type": "Point", "coordinates": [ 132.258794800000032, 33.9461137 ] } },
{ "type": "Feature", "properties": { "内容": "特別養護老人ホームほのぼの苑【介護老人福祉施設】大島郡周防大島町大字小松133番地1", "url": "https://www.kaigokensaku.mhlw.go.jp/35/index.php?action_kouhyou_detail_004_kani=true&JigyosyoCd=3577100187-00&ServiceCd=510&Type=search", "url2": "http://satsukikai-oshima.com/" }, "geometry": { "type": "Point", "coordinates": [ 132.196356299999934, 33.9275143 ] } },
{ "type": "Feature", "properties": { "内容": "特別養護老人ホーム　白寿苑【介護老人福祉施設】山口県大島郡周防大島町大字西方　１６２３－３", "url": "https://www.kaigokensaku.mhlw.go.jp/35/index.php?action_kouhyou_detail_004_kani=true&JigyosyoCd=3577100260-00&ServiceCd=510&Type=search", "url2": "https://www.oshima-hakujukai.com/" }, "geometry": { "type": "Point", "coordinates": [ 132.337312800000063, 33.9001784 ] } },
{ "type": "Feature", "properties": { "内容": "特別養護老人ホーム　オレンジ苑【介護老人福祉施設】大島郡周防大島町大字東安下庄７７４番地９", "url": "https://www.kaigokensaku.mhlw.go.jp/35/index.php?action_kouhyou_detail_004_kani=true&JigyosyoCd=3577100179-00&ServiceCd=510&Type=search", "url2": null }, "geometry": { "type": "Point", "coordinates": [ 132.292620599999964, 33.8990826 ] } },
{ "type": "Feature", "properties": { "内容": "特別養護老人ホームわきあいあい苑【介護老人福祉施設】玖珂郡和木町瀬田４丁目１－１", "url": "https://www.kaigokensaku.mhlw.go.jp/35/index.php?action_kouhyou_detail_004_kani=true&JigyosyoCd=3577200300-00&ServiceCd=510&Type=search", "url2": "https://wakiaiaien.tkc.best-hp.jp/" }, "geometry": { "type": "Point", "coordinates": [ 132.2245524, 34.1919204 ] } },
{ "type": "Feature", "properties": { "内容": "特別養護老人ホーム　かみのせき苑【介護老人福祉施設】熊毛郡上関町大字長島１５６１－１", "url": "https://www.kaigokensaku.mhlw.go.jp/35/index.php?action_kouhyou_detail_004_kani=true&JigyosyoCd=3577300266-00&ServiceCd=510&Type=search", "url2": null }, "geometry": { "type": "Point", "coordinates": [ 132.073751099999981, 33.8152633 ] } },
{ "type": "Feature", "properties": { "内容": "特別養護老人ホームたぶせ苑【介護老人福祉施設】山口県熊毛郡田布施町大字宿井４０６番地", "url": "https://www.kaigokensaku.mhlw.go.jp/35/index.php?action_kouhyou_detail_004_kani=true&JigyosyoCd=3577300274-00&ServiceCd=510&Type=search", "url2": "http://care-net.biz/35/shifuku/sitemap.php" }, "geometry": { "type": "Point", "coordinates": [ 132.028290500000026, 33.9655012 ] } },
{ "type": "Feature", "properties": { "内容": "特別養護老人ホームつつじ苑【介護老人福祉施設】山口県熊毛郡平生町大字曽根10126-2", "url": "https://www.kaigokensaku.mhlw.go.jp/35/index.php?action_kouhyou_detail_004_kani=true&JigyosyoCd=3577300209-00&ServiceCd=510&Type=search", "url2": "http://www.uchiumikai.or.jp/" }, "geometry": { "type": "Point", "coordinates": [ 132.065200473541239, 33.920437000000405 ] } },
{ "type": "Feature", "properties": { "内容": "特別養護老人ホーム　恵寿苑【介護老人福祉施設】山口県阿武郡阿武町大字木与10039番地5", "url": "https://www.kaigokensaku.mhlw.go.jp/35/index.php?action_kouhyou_detail_004_kani=true&JigyosyoCd=3578100350-00&ServiceCd=510&Type=search", "url2": "http://abufukushi.com" }, "geometry": { "type": "Point", "coordinates": [ 131.5058371, 34.536138 ] } }
]
}
