{
"type": "FeatureCollection",
"name": "geo_35_地域密着型介護老人福祉施設入所者生活介護",
"crs": { "type": "name", "properties": { "name": "urn:ogc:def:crs:OGC:1.3:CRS84" } },
"features": [
{ "type": "Feature", "properties": { "内容": "特別養護老人ホーム富任荘【地域密着型介護老人福祉施設入所者生活介護】山口県下関市富任町６丁目１８番８号", "url": "https://www.kaigokensaku.mhlw.go.jp/35/index.php?action_kouhyou_detail_004_kani=true&JigyosyoCd=3590106054-00&ServiceCd=540&Type=search", "url2": "www.mizunoki.jp/syafuku/tomitou/" }, "geometry": { "type": "Point", "coordinates": [ 130.923703599999953, 34.0176608 ] } },
{ "type": "Feature", "properties": { "内容": "地域密着型介護老人福祉施設　アイユウの苑ゆめタウン【地域密着型介護老人福祉施設入所者生活介護】山口県下関市ゆめタウン2-24", "url": "https://www.kaigokensaku.mhlw.go.jp/35/index.php?action_kouhyou_detail_004_kani=true&JigyosyoCd=3590106021-00&ServiceCd=540&Type=search", "url2": "http://www.shoubikai.or.jp/index.html" }, "geometry": { "type": "Point", "coordinates": [ 131.012990400000035, 34.0276187 ] } },
{ "type": "Feature", "properties": { "内容": "特別養護老人ホームフェニックス一の宮【地域密着型介護老人福祉施設入所者生活介護】山口県下関市一の宮学園町１９－１", "url": "https://www.kaigokensaku.mhlw.go.jp/35/index.php?action_kouhyou_detail_004_kani=true&JigyosyoCd=3590106138-00&ServiceCd=540&Type=search", "url2": "httｐ：//www.akatsukikai.com" }, "geometry": { "type": "Point", "coordinates": [ 130.947453285983329, 33.997249335400923 ] } },
{ "type": "Feature", "properties": { "内容": "特別養護老人ホームはまゆう苑なぎさ【地域密着型介護老人福祉施設入所者生活介護】山口県下関市横野町３丁目１５番１０号", "url": "https://www.kaigokensaku.mhlw.go.jp/35/index.php?action_kouhyou_detail_004_kani=true&JigyosyoCd=3590106096-00&ServiceCd=540&Type=search", "url2": "http：//www.syoutoukai.or.jp" }, "geometry": { "type": "Point", "coordinates": [ 130.910112600000048, 34.0351028 ] } },
{ "type": "Feature", "properties": { "内容": "地域密着型介護老人福祉施設　王司さざなみ荘【地域密着型介護老人福祉施設入所者生活介護】山口県下関市王司本町一丁目18番27号", "url": "https://www.kaigokensaku.mhlw.go.jp/35/index.php?action_kouhyou_detail_004_kani=true&JigyosyoCd=3590106120-00&ServiceCd=540&Type=search", "url2": "http://www.kihoukai.or.jp" }, "geometry": { "type": "Point", "coordinates": [ 131.015208556395947, 34.040722674273958 ] } },
{ "type": "Feature", "properties": { "内容": "特別養護老人ホーム　フロイデ金比羅【地域密着型介護老人福祉施設入所者生活介護】山口県下関市金比羅町10番1号", "url": "https://www.kaigokensaku.mhlw.go.jp/35/index.php?action_kouhyou_detail_004_kani=true&JigyosyoCd=3590106112-00&ServiceCd=540&Type=search", "url2": "http://syoutoukai.or.jp" }, "geometry": { "type": "Point", "coordinates": [ 130.919389137434308, 33.969663175550835 ] } },
{ "type": "Feature", "properties": { "内容": "特別養護老人ホーム夢の里【地域密着型介護老人福祉施設入所者生活介護】山口県下関市新地町3-28", "url": "https://www.kaigokensaku.mhlw.go.jp/35/index.php?action_kouhyou_detail_004_kani=true&JigyosyoCd=3590106161-00&ServiceCd=540&Type=search", "url2": "https://yume-no-kai.com/" }, "geometry": { "type": "Point", "coordinates": [ 130.921541299999944, 33.9561751 ] } },
{ "type": "Feature", "properties": { "内容": "特別養護老人ホーム椋野喜楽園【地域密着型介護老人福祉施設入所者生活介護】山口県下関市新椋野三丁目3番38号", "url": "https://www.kaigokensaku.mhlw.go.jp/35/index.php?action_kouhyou_detail_004_kani=true&JigyosyoCd=3590106179-00&ServiceCd=540&Type=search", "url2": "http://houyuukai.or.jp/" }, "geometry": { "type": "Point", "coordinates": [ 130.9431389, 33.9839726 ] } },
{ "type": "Feature", "properties": { "内容": "特別養護老人ホーム夢ごこち【地域密着型介護老人福祉施設入所者生活介護】山口県下関市長府才川1-41-76", "url": "https://www.kaigokensaku.mhlw.go.jp/35/index.php?action_kouhyou_detail_004_kani=true&JigyosyoCd=3590106187-00&ServiceCd=540&Type=search", "url2": "www.yume-no-kai.com" }, "geometry": { "type": "Point", "coordinates": [ 131.006516, 34.0257827 ] } },
{ "type": "Feature", "properties": { "内容": "特別養護老人ホーム稗田喜楽園【地域密着型介護老人福祉施設入所者生活介護】山口県下関市稗田町8-18", "url": "https://www.kaigokensaku.mhlw.go.jp/35/index.php?action_kouhyou_detail_004_kani=true&JigyosyoCd=3590106153-00&ServiceCd=540&Type=search", "url2": "http://www.geocities.jp/syakaifukusihoujinhoyukai/about.html" }, "geometry": { "type": "Point", "coordinates": [ 130.926642899999933, 33.9954882 ] } },
{ "type": "Feature", "properties": { "内容": "地域密着型介護老人福祉施設　アイユウの苑しおはま【地域密着型介護老人福祉施設入所者生活介護】山口県下関市彦島塩浜町三丁目14番47号", "url": "https://www.kaigokensaku.mhlw.go.jp/35/index.php?action_kouhyou_detail_004_kani=true&JigyosyoCd=3590106104-00&ServiceCd=540&Type=search", "url2": "http://www.shoubikai.or.jp" }, "geometry": { "type": "Point", "coordinates": [ 130.912589099613882, 33.919746735276085 ] } },
{ "type": "Feature", "properties": { "内容": "特別養護老人ホームサテライト型新型特養フロイデハイム【地域密着型介護老人福祉施設入所者生活介護】山口県下関市彦島西山町3丁目12番14号", "url": "https://www.kaigokensaku.mhlw.go.jp/35/index.php?action_kouhyou_detail_004_kani=true&JigyosyoCd=3590100024-00&ServiceCd=540&Type=search", "url2": "http://www.syoutoukai.or.jp/" }, "geometry": { "type": "Point", "coordinates": [ 130.880065400000035, 33.9441307 ] } },
{ "type": "Feature", "properties": { "内容": "サテライト　望海苑【地域密着型介護老人福祉施設入所者生活介護】山口県下関市武久町２丁目４８-１７", "url": "https://www.kaigokensaku.mhlw.go.jp/35/index.php?action_kouhyou_detail_004_kani=true&JigyosyoCd=3590106013-00&ServiceCd=540&Type=search", "url2": "http://shoujuen.jp/publics/index/32/" }, "geometry": { "type": "Point", "coordinates": [ 130.91783377672121, 33.981270241250961 ] } },
{ "type": "Feature", "properties": { "内容": "特別養護老人ホーム　ＳＵＮ【地域密着型介護老人福祉施設入所者生活介護】山口県下関市豊浦町吉永１８１９番地１", "url": "https://www.kaigokensaku.mhlw.go.jp/35/index.php?action_kouhyou_detail_004_kani=true&JigyosyoCd=3590106039-00&ServiceCd=540&Type=search", "url2": "https://hibikikai3901.com/" }, "geometry": { "type": "Point", "coordinates": [ 130.923044399999981, 34.1398396 ] } },
{ "type": "Feature", "properties": { "内容": "特別養護老人ホーム虹の郷【地域密着型介護老人福祉施設入所者生活介護】山口県下関市豊浦町大字厚母郷１０４４２番地", "url": "https://www.kaigokensaku.mhlw.go.jp/35/index.php?action_kouhyou_detail_004_kani=true&JigyosyoCd=3590106088-00&ServiceCd=540&Type=search", "url2": "https://care-net.biz/35/houjyu/" }, "geometry": { "type": "Point", "coordinates": [ 130.905811282278478, 34.11858615674852 ] } },
{ "type": "Feature", "properties": { "内容": "特別養護老人ホームＳＵＮ２【地域密着型介護老人福祉施設入所者生活介護】山口県下関市豊浦町川棚１２１３９番地１特別養護老人ホームＳＵＮ２", "url": "https://www.kaigokensaku.mhlw.go.jp/35/index.php?action_kouhyou_detail_004_kani=true&JigyosyoCd=3590106146-00&ServiceCd=540&Type=search", "url2": "https://hibikikai3901.com/" }, "geometry": { "type": "Point", "coordinates": [ 130.925262196125914, 34.138674899826086 ] } },
{ "type": "Feature", "properties": { "内容": "特別養護老人ホーム　豊田喜楽園【地域密着型介護老人福祉施設入所者生活介護】下関市豊田町大字中村821-1", "url": "https://www.kaigokensaku.mhlw.go.jp/35/index.php?action_kouhyou_detail_004_kani=true&JigyosyoCd=3590106062-00&ServiceCd=540&Type=search", "url2": "houyuukai@festa.ocn.ne.jp" }, "geometry": { "type": "Point", "coordinates": [ 131.069220974224208, 34.18430158467816 ] } },
{ "type": "Feature", "properties": { "内容": "サテライト梨花の里アスピア【地域密着型介護老人福祉施設入所者生活介護】山口県下関市豊北町大字滝部2969番地1", "url": "https://www.kaigokensaku.mhlw.go.jp/35/index.php?action_kouhyou_detail_004_kani=true&JigyosyoCd=3590106070-00&ServiceCd=540&Type=search", "url2": "http://houhokuhukushikai.jp/" }, "geometry": { "type": "Point", "coordinates": [ 130.948878406607037, 34.291607736155029 ] } },
{ "type": "Feature", "properties": { "内容": "地域密着型特別養護老人ホーム　にじの丘【地域密着型介護老人福祉施設入所者生活介護】下関市菊川町大字田部223-9", "url": "https://www.kaigokensaku.mhlw.go.jp/35/index.php?action_kouhyou_detail_004_kani=true&JigyosyoCd=3590106047-00&ServiceCd=540&Type=search", "url2": "https://kikusuikai.jp" }, "geometry": { "type": "Point", "coordinates": [ 131.039975, 34.1152291 ] } },
{ "type": "Feature", "properties": { "内容": "特別養護老人ホームあすとぴあ【地域密着型介護老人福祉施設入所者生活介護】宇部市あすとぴあ七丁目1番2号", "url": "https://www.kaigokensaku.mhlw.go.jp/35/index.php?action_kouhyou_detail_004_kani=true&JigyosyoCd=3590200220-00&ServiceCd=540&Type=search", "url2": "http://www.asuwansansou.jp" }, "geometry": { "type": "Point", "coordinates": [ 131.296998499999972, 33.980565 ] } },
{ "type": "Feature", "properties": { "内容": "特別養護老人ホームむべの里　中山【地域密着型介護老人福祉施設入所者生活介護】宇部市中山1135-1", "url": "https://www.kaigokensaku.mhlw.go.jp/35/index.php?action_kouhyou_detail_004_kani=true&JigyosyoCd=3590200360-00&ServiceCd=540&Type=search", "url2": null }, "geometry": { "type": "Point", "coordinates": [ 131.240338, 33.9829053 ] } },
{ "type": "Feature", "properties": { "内容": "特別養護老人ホーム　むべの里　博愛園【地域密着型介護老人福祉施設入所者生活介護】山口県宇部市中村２丁目7-18", "url": "https://www.kaigokensaku.mhlw.go.jp/35/index.php?action_kouhyou_detail_004_kani=true&JigyosyoCd=3590200121-00&ServiceCd=540&Type=search", "url2": "http://www.mubenosato.com/" }, "geometry": { "type": "Point", "coordinates": [ 131.261567900000045, 33.963377 ] } },
{ "type": "Feature", "properties": { "内容": "特別養護老人ホームむべの里岬【地域密着型介護老人福祉施設入所者生活介護】山口県宇部市明神町１丁目３番地25号", "url": "https://www.kaigokensaku.mhlw.go.jp/35/index.php?action_kouhyou_detail_004_kani=true&JigyosyoCd=3590200295-00&ServiceCd=540&Type=search", "url2": "http://www.mubenosato.com/" }, "geometry": { "type": "Point", "coordinates": [ 131.260708677246157, 33.930726588553419 ] } },
{ "type": "Feature", "properties": { "内容": "特別養護老人ホームむべの里【地域密着型介護老人福祉施設入所者生活介護】山口県宇部市大字東須恵字大浴320-1", "url": "https://www.kaigokensaku.mhlw.go.jp/35/index.php?action_kouhyou_detail_004_kani=true&JigyosyoCd=3590200246-00&ServiceCd=540&Type=search", "url2": "http://www.mubenosato.com/" }, "geometry": { "type": "Point", "coordinates": [ 131.208381799999984, 33.9905318 ] } },
{ "type": "Feature", "properties": { "内容": "特別養護老人ホーム　山口あかり園【地域密着型介護老人福祉施設入所者生活介護】山口県山口市黒川３３６３番地", "url": "https://www.kaigokensaku.mhlw.go.jp/35/index.php?action_kouhyou_detail_004_kani=true&JigyosyoCd=3590300293-00&ServiceCd=540&Type=search", "url2": "http://www.hakuaikai-yamaguchi.jp" }, "geometry": { "type": "Point", "coordinates": [ 131.438716399999947, 34.1310547 ] } },
{ "type": "Feature", "properties": { "内容": "特別養護老人ホーム　小郡・山手一番館いこいの丘【地域密着型介護老人福祉施設入所者生活介護】山口県山口市小郡尾崎町2番1号", "url": "https://www.kaigokensaku.mhlw.go.jp/35/index.php?action_kouhyou_detail_004_kani=true&JigyosyoCd=3590300277-00&ServiceCd=540&Type=search", "url2": "http://yamate-ichiban.info/" }, "geometry": { "type": "Point", "coordinates": [ 131.396007, 34.1095533 ] } },
{ "type": "Feature", "properties": { "内容": "複合型高齢者福祉施設オ・サーバaioi【地域密着型介護老人福祉施設入所者生活介護】下小鯖11331-12", "url": "https://www.kaigokensaku.mhlw.go.jp/35/index.php?action_kouhyou_detail_004_kani=true&JigyosyoCd=3590300434-00&ServiceCd=540&Type=search", "url2": "https://hitotsunokai.jp/" }, "geometry": { "type": "Point", "coordinates": [ 131.531268899999986, 34.1373438 ] } },
{ "type": "Feature", "properties": { "内容": "特別養護老人ホーム山口喜楽園【地域密着型介護老人福祉施設入所者生活介護】山口県山口市大内長野636番地特別養護老人ホーム山口喜楽園", "url": "https://www.kaigokensaku.mhlw.go.jp/35/index.php?action_kouhyou_detail_004_kani=true&JigyosyoCd=3590300384-00&ServiceCd=540&Type=search", "url2": "http://houyuukai.or.jp/" }, "geometry": { "type": "Point", "coordinates": [ 131.528770399999985, 34.1637255 ] } },
{ "type": "Feature", "properties": { "内容": "済生会山口地域ケアセンター特別養護老人ホーム福寿園【地域密着型介護老人福祉施設入所者生活介護】山口市朝倉町５－４", "url": "https://www.kaigokensaku.mhlw.go.jp/35/index.php?action_kouhyou_detail_004_kani=true&JigyosyoCd=3590300095-00&ServiceCd=540&Type=search", "url2": null }, "geometry": { "type": "Point", "coordinates": [ 131.453243400000019, 34.1750429 ] } },
{ "type": "Feature", "properties": { "内容": "特別養護老人ホームとくぢ苑【地域密着型介護老人福祉施設入所者生活介護】山口県山口市徳地八坂1330番地", "url": "https://www.kaigokensaku.mhlw.go.jp/35/index.php?action_kouhyou_detail_004_kani=true&JigyosyoCd=3590300285-00&ServiceCd=540&Type=search", "url2": "https://sabafukushikai.jp/" }, "geometry": { "type": "Point", "coordinates": [ 131.6601488, 34.234027 ] } },
{ "type": "Feature", "properties": { "内容": "特別養護老人ホームハートホーム宮野【地域密着型介護老人福祉施設入所者生活介護】山口県山口市宮野下2996-1", "url": "https://www.kaigokensaku.mhlw.go.jp/35/index.php?action_kouhyou_detail_004_kani=true&JigyosyoCd=3590300244-00&ServiceCd=540&Type=search", "url2": "http://www.seirankai.or.jp" }, "geometry": { "type": "Point", "coordinates": [ 131.5044801, 34.1997371 ] } },
{ "type": "Feature", "properties": { "内容": "特別養護老人ホームハートホーム中央【地域密着型介護老人福祉施設入所者生活介護】山口県山口市神田町4-8ハートホーム中央", "url": "https://www.kaigokensaku.mhlw.go.jp/35/index.php?action_kouhyou_detail_004_kani=true&JigyosyoCd=3590300210-00&ServiceCd=540&Type=search", "url2": "http://www.seirankai.or.jp" }, "geometry": { "type": "Point", "coordinates": [ 131.4572124, 34.1727543 ] } },
{ "type": "Feature", "properties": { "内容": "済生会山口地域ケアセンター　地域密着型ユニット型特別養護老人ホームにほ苑【地域密着型介護老人福祉施設入所者生活介護】山口市仁保中郷988-1", "url": "https://www.kaigokensaku.mhlw.go.jp/35/index.php?action_kouhyou_detail_004_kani=true&JigyosyoCd=3590300079-00&ServiceCd=540&Type=search", "url2": null }, "geometry": { "type": "Point", "coordinates": [ 131.55953169999998, 34.2128332 ] } },
{ "type": "Feature", "properties": { "内容": "特別養護老人ホームかわかみ苑【地域密着型介護老人福祉施設入所者生活介護】山口県萩市川上４９２１番地の１", "url": "https://www.kaigokensaku.mhlw.go.jp/35/index.php?action_kouhyou_detail_004_kani=true&JigyosyoCd=3590400093-00&ServiceCd=540&Type=search", "url2": "https://kawakamien.jp/" }, "geometry": { "type": "Point", "coordinates": [ 131.477503899999988, 34.3587996 ] } },
{ "type": "Feature", "properties": { "内容": "特別養護老人ホーム　ヘスティア華城【地域密着型介護老人福祉施設入所者生活介護】防府市伊佐江1039番地の１", "url": "https://www.kaigokensaku.mhlw.go.jp/35/index.php?action_kouhyou_detail_004_kani=true&JigyosyoCd=3570600456-00&ServiceCd=540&Type=search", "url2": "http://kaseikai.com/" }, "geometry": { "type": "Point", "coordinates": [ 131.5441558, 34.0395198 ] } },
{ "type": "Feature", "properties": { "内容": "特別養護老人ホームフィラージュ開出【地域密着型介護老人福祉施設入所者生活介護】山口県防府市開出西町32-8", "url": "https://www.kaigokensaku.mhlw.go.jp/35/index.php?action_kouhyou_detail_004_kani=true&JigyosyoCd=3590600221-00&ServiceCd=540&Type=search", "url2": "http://hitotsunokai.jp/" }, "geometry": { "type": "Point", "coordinates": [ 131.542472299999986, 34.0511848 ] } },
{ "type": "Feature", "properties": { "内容": "特別養護老人ホーム　あかつき苑防府【地域密着型介護老人福祉施設入所者生活介護】山口県防府市大字江泊１７９０番地", "url": "https://www.kaigokensaku.mhlw.go.jp/35/index.php?action_kouhyou_detail_004_kani=true&JigyosyoCd=3590600205-00&ServiceCd=540&Type=search", "url2": "http://www.akatsukikai.com" }, "geometry": { "type": "Point", "coordinates": [ 131.60618850000003, 34.0544439 ] } },
{ "type": "Feature", "properties": { "内容": "特別養護老人ホーム自由の杜【地域密着型介護老人福祉施設入所者生活介護】山口県防府市大字大崎801-1", "url": "https://www.kaigokensaku.mhlw.go.jp/35/index.php?action_kouhyou_detail_004_kani=true&JigyosyoCd=3590600148-00&ServiceCd=540&Type=search", "url2": "http://hitotsunokai.jp/" }, "geometry": { "type": "Point", "coordinates": [ 131.539211099999989, 34.0637358 ] } },
{ "type": "Feature", "properties": { "内容": "特別養護老人ホームひごろもそう【地域密着型介護老人福祉施設入所者生活介護】山口県防府市大字浜方８番地1ひごろもそう", "url": "https://www.kaigokensaku.mhlw.go.jp/35/index.php?action_kouhyou_detail_004_kani=true&JigyosyoCd=3590600189-00&ServiceCd=540&Type=search", "url2": null }, "geometry": { "type": "Point", "coordinates": [ 131.573222190213073, 34.025613834553177 ] } },
{ "type": "Feature", "properties": { "内容": "社会福祉法人元気の会　地域密着型特別養護老人ホームほがらか【地域密着型介護老人福祉施設入所者生活介護】下松市山田256", "url": "https://www.kaigokensaku.mhlw.go.jp/35/index.php?action_kouhyou_detail_004_kani=true&JigyosyoCd=3590700146-00&ServiceCd=540&Type=search", "url2": "http://genkinokai.jpn.org/" }, "geometry": { "type": "Point", "coordinates": [ 131.905219273278846, 34.034786822937846 ] } },
{ "type": "Feature", "properties": { "内容": "地域密着型特別養護老人ホーム　ほしのさと【地域密着型介護老人福祉施設入所者生活介護】山口県下松市生野屋南1丁目13番1号", "url": "https://www.kaigokensaku.mhlw.go.jp/35/index.php?action_kouhyou_detail_004_kani=true&JigyosyoCd=3590700112-00&ServiceCd=540&Type=search", "url2": "www.hoshinosato.jp" }, "geometry": { "type": "Point", "coordinates": [ 131.87411910000003, 34.031442500000011 ] } },
{ "type": "Feature", "properties": { "内容": "地域密着型特別養護老人ホーム星てらす【地域密着型介護老人福祉施設入所者生活介護】山口県下松市古川町３－１－２下松中央医療介護支援センター", "url": "https://www.kaigokensaku.mhlw.go.jp/35/index.php?action_kouhyou_detail_004_kani=true&JigyosyoCd=3590700153-00&ServiceCd=540&Type=search", "url2": "http://ryokuzankai.jp" }, "geometry": { "type": "Point", "coordinates": [ 131.872253198147547, 34.007175023049832 ] } },
{ "type": "Feature", "properties": { "内容": "特別養護老人ホームかなえ【地域密着型介護老人福祉施設入所者生活介護】山口県岩国市錦見3丁目7-55", "url": "https://www.kaigokensaku.mhlw.go.jp/35/index.php?action_kouhyou_detail_004_kani=true&JigyosyoCd=3590800383-00&ServiceCd=540&Type=search", "url2": "www.kanaekai.jp/" }, "geometry": { "type": "Point", "coordinates": [ 132.198668600000019, 34.1669171 ] } },
{ "type": "Feature", "properties": { "内容": "特別養護老人ホーム　秀東館　光陽【地域密着型介護老人福祉施設入所者生活介護】山口県岩国市周東町用田３４１", "url": "https://www.kaigokensaku.mhlw.go.jp/35/index.php?action_kouhyou_detail_004_kani=true&JigyosyoCd=3590800243-00&ServiceCd=540&Type=search", "url2": "http://www.shutoukan.com/group/kouyou.html" }, "geometry": { "type": "Point", "coordinates": [ 132.049252499999966, 34.0835767 ] } },
{ "type": "Feature", "properties": { "内容": "シンシアゆうわ【地域密着型介護老人福祉施設入所者生活介護】岩国市藤生町３丁目２７番８号", "url": "https://www.kaigokensaku.mhlw.go.jp/35/index.php?action_kouhyou_detail_004_kani=true&JigyosyoCd=3590800300-00&ServiceCd=540&Type=search", "url2": "http://www.yuwaen.net" }, "geometry": { "type": "Point", "coordinates": [ 132.191473200000019, 34.1195723 ] } },
{ "type": "Feature", "properties": { "内容": "特別養護老人ホーム　樂寿苑【地域密着型介護老人福祉施設入所者生活介護】美和町生見2489-1", "url": "https://www.kaigokensaku.mhlw.go.jp/35/index.php?action_kouhyou_detail_004_kani=true&JigyosyoCd=3590800516-00&ServiceCd=540&Type=search", "url2": null }, "geometry": { "type": "Point", "coordinates": [ 132.0898884, 34.2483101 ] } },
{ "type": "Feature", "properties": { "内容": "地域密着型特別養護老人ホーム光富士白苑四季の風【地域密着型介護老人福祉施設入所者生活介護】山口県光市光ヶ丘4番2号", "url": "https://www.kaigokensaku.mhlw.go.jp/35/index.php?action_kouhyou_detail_004_kani=true&JigyosyoCd=3591000272-00&ServiceCd=540&Type=search", "url2": "info@h-fuji.com" }, "geometry": { "type": "Point", "coordinates": [ 131.9205773, 33.981728 ] } },
{ "type": "Feature", "properties": { "内容": "地域密着型特別養護老人ホームひいらぎ【地域密着型介護老人福祉施設入所者生活介護】山口県光市光井九丁目8番30号", "url": "https://www.kaigokensaku.mhlw.go.jp/35/index.php?action_kouhyou_detail_004_kani=true&JigyosyoCd=3591000207-00&ServiceCd=540&Type=search", "url2": "https://www.kohjinkai-s.or.jp/" }, "geometry": { "type": "Point", "coordinates": [ 131.945749138623057, 33.959790852981826 ] } },
{ "type": "Feature", "properties": { "内容": "地域密着型特別養護老人ホーム光ケ丘【地域密着型介護老人福祉施設入所者生活介護】山口県光市光ケ丘5番18号", "url": "https://www.kaigokensaku.mhlw.go.jp/35/index.php?action_kouhyou_detail_004_kani=true&JigyosyoCd=3591000223-00&ServiceCd=540&Type=search", "url2": "http://www.hikari-en.jp" }, "geometry": { "type": "Point", "coordinates": [ 131.919492, 33.981461 ] } },
{ "type": "Feature", "properties": { "内容": "特別養護老人ホーム　光富士白苑【地域密着型介護老人福祉施設入所者生活介護】山口県光市虹ヶ浜二丁目5番7号", "url": "https://www.kaigokensaku.mhlw.go.jp/35/index.php?action_kouhyou_detail_004_kani=true&JigyosyoCd=3591000116-00&ServiceCd=540&Type=search", "url2": "http://www.h-fuji.com" }, "geometry": { "type": "Point", "coordinates": [ 131.9186836, 33.968444799999986 ] } },
{ "type": "Feature", "properties": { "内容": "地域密着型特別養護老人ホーム　シャイディック和水【地域密着型介護老人福祉施設入所者生活介護】山口県長門市三隅中1811番地", "url": "https://www.kaigokensaku.mhlw.go.jp/35/index.php?action_kouhyou_detail_004_kani=true&JigyosyoCd=3591100106-00&ServiceCd=540&Type=search", "url2": "http://meiwaen.jp/" }, "geometry": { "type": "Point", "coordinates": [ 131.265298199999961, 34.3619474 ] } },
{ "type": "Feature", "properties": { "内容": "青景園サテライト秋芳の里【地域密着型介護老人福祉施設入所者生活介護】美祢市秋芳町秋吉5243番地3", "url": "https://www.kaigokensaku.mhlw.go.jp/35/index.php?action_kouhyou_detail_004_kani=true&JigyosyoCd=3591300037-00&ServiceCd=540&Type=search", "url2": "http//aokage52/jp" }, "geometry": { "type": "Point", "coordinates": [ 131.291449300000068, 34.2150943 ] } },
{ "type": "Feature", "properties": { "内容": "地域密着型特別養護老人ホームGraceful唯心【地域密着型介護老人福祉施設入所者生活介護】美祢市大嶺町東分1707-2", "url": "https://www.kaigokensaku.mhlw.go.jp/35/index.php?action_kouhyou_detail_004_kani=true&JigyosyoCd=3591300078-00&ServiceCd=540&Type=search", "url2": "f-doho.com" }, "geometry": { "type": "Point", "coordinates": [ 131.20678422740022, 34.179036286562294 ] } },
{ "type": "Feature", "properties": { "内容": "特別養護老人ホーム　みとう悠々苑　おおだ園【地域密着型介護老人福祉施設入所者生活介護】山口県美祢市美東町大田5378番地1", "url": "https://www.kaigokensaku.mhlw.go.jp/35/index.php?action_kouhyou_detail_004_kani=true&JigyosyoCd=3591300086-00&ServiceCd=540&Type=search", "url2": null }, "geometry": { "type": "Point", "coordinates": [ 131.3467544, 34.2158783 ] } },
{ "type": "Feature", "properties": { "内容": "地域密着型特別養護老人ホームくすのき苑【地域密着型介護老人福祉施設入所者生活介護】山口県周南市城ケ丘三丁目６番１号", "url": "https://www.kaigokensaku.mhlw.go.jp/35/index.php?action_kouhyou_detail_004_kani=true&JigyosyoCd=3591500289-00&ServiceCd=540&Type=search", "url2": "https://www.kohjinkai-s.or.jp/" }, "geometry": { "type": "Point", "coordinates": [ 131.8415245, 34.0431182 ] } },
{ "type": "Feature", "properties": { "内容": "地域密着型特別養護老人ホーム　なごみの里ななせ【地域密着型介護老人福祉施設入所者生活介護】山口県山陽小野田市大字郡１７７３番地２", "url": "https://www.kaigokensaku.mhlw.go.jp/35/index.php?action_kouhyou_detail_004_kani=true&JigyosyoCd=3591600253-00&ServiceCd=540&Type=search", "url2": "care-net.biz/35/sanraifu/" }, "geometry": { "type": "Point", "coordinates": [ 131.154025177621406, 34.051664869251098 ] } },
{ "type": "Feature", "properties": { "内容": "ユニット型特別養護老人ホームつつじ苑【地域密着型介護老人福祉施設入所者生活介護】山口県熊毛郡平生町大字曽根10126-2", "url": "https://www.kaigokensaku.mhlw.go.jp/35/index.php?action_kouhyou_detail_004_kani=true&JigyosyoCd=3597340060-00&ServiceCd=540&Type=search", "url2": "http:/www.uchiumikai.or.jp/" }, "geometry": { "type": "Point", "coordinates": [ 132.065694, 33.920437 ] } },
{ "type": "Feature", "properties": { "内容": "特別養護老人ホーム　恵寿苑（ユニット型）【地域密着型介護老人福祉施設入所者生活介護】山口県阿武郡阿武町大字木与10039番地5", "url": "https://www.kaigokensaku.mhlw.go.jp/35/index.php?action_kouhyou_detail_004_kani=true&JigyosyoCd=3597820020-00&ServiceCd=540&Type=search", "url2": "http://abufukushi.com" }, "geometry": { "type": "Point", "coordinates": [ 131.5058371, 34.536138 ] } }
]
}
