{
"type": "FeatureCollection",
"name": "geo_35_定期巡回・随時対応型訪問介護看護",
"crs": { "type": "name", "properties": { "name": "urn:ogc:def:crs:OGC:1.3:CRS84" } },
"features": [
{ "type": "Feature", "properties": { "内容": "菊川ヘルパーステーションちとせ【定期巡回・随時対応型訪問介護看護】山口県下関市菊川町下岡枝389-1", "url": "https://www.kaigokensaku.mhlw.go.jp/35/index.php?action_kouhyou_detail_004_kani=true&JigyosyoCd=3590107045-00&ServiceCd=760&Type=search", "url2": "http://r.goope.jp/kaien" }, "geometry": { "type": "Point", "coordinates": [ 131.02772, 34.1229253 ] } },
{ "type": "Feature", "properties": { "内容": "もりの灯台定期巡回型サービス24【定期巡回・随時対応型訪問介護看護】山口県下関市菊川町大字上田部343-2", "url": "https://www.kaigokensaku.mhlw.go.jp/35/index.php?action_kouhyou_detail_004_kani=true&JigyosyoCd=3590107078-00&ServiceCd=760&Type=search", "url2": "https://morinotoudai.jp" }, "geometry": { "type": "Point", "coordinates": [ 131.023115768220464, 34.108947995732898 ] } },
{ "type": "Feature", "properties": { "内容": "ＩＭＬ安心サポート２４【定期巡回・随時対応型訪問介護看護】山口県下関市一の宮本町一丁目７番１７号", "url": "https://www.kaigokensaku.mhlw.go.jp/35/index.php?action_kouhyou_detail_004_kani=true&JigyosyoCd=3590107029-00&ServiceCd=760&Type=search", "url2": "http://www.inmailife.com/" }, "geometry": { "type": "Point", "coordinates": [ 130.951279157220824, 34.002220453665487 ] } },
{ "type": "Feature", "properties": { "内容": "24時間ケアサポートよしみ・安岡【定期巡回・随時対応型訪問介護看護】山口県下関市横野町3丁目1番2号", "url": "https://www.kaigokensaku.mhlw.go.jp/35/index.php?action_kouhyou_detail_004_kani=true&JigyosyoCd=3590107060-00&ServiceCd=760&Type=search", "url2": "http://www.syoutoukai.or.jp/" }, "geometry": { "type": "Point", "coordinates": [ 130.90221213030236, 34.070538097825398 ] } },
{ "type": "Feature", "properties": { "内容": "24時間訪問サービスしものせき【定期巡回・随時対応型訪問介護看護】山口県下関市上新地町2-6-26在宅総合ケアセンターしものせき", "url": "https://www.kaigokensaku.mhlw.go.jp/35/index.php?action_kouhyou_detail_004_kani=true&JigyosyoCd=3590107011-00&ServiceCd=760&Type=search", "url2": "http://akn-yoshimizu.com/" }, "geometry": { "type": "Point", "coordinates": [ 130.921227097400703, 33.96095419916535 ] } },
{ "type": "Feature", "properties": { "内容": "ケアサポート２４【定期巡回・随時対応型訪問介護看護】山口県下関市幡生宮の下町８番１２号", "url": "https://www.kaigokensaku.mhlw.go.jp/35/index.php?action_kouhyou_detail_004_kani=true&JigyosyoCd=3590107052-00&ServiceCd=760&Type=search", "url2": "http://www.e-saving.jp/" }, "geometry": { "type": "Point", "coordinates": [ 130.933476745971717, 33.980427319094474 ] } },
{ "type": "Feature", "properties": { "内容": "定期巡回・随時対応型訪問介護看護にじの丘【定期巡回・随時対応型訪問介護看護】下関市菊川町大字田部223-1複合型ケアタウンにじの丘", "url": "https://www.kaigokensaku.mhlw.go.jp/35/index.php?action_kouhyou_detail_004_kani=true&JigyosyoCd=3590107037-00&ServiceCd=760&Type=search", "url2": "http://www.kikusuikai.jp/" }, "geometry": { "type": "Point", "coordinates": [ 131.039819500000021, 34.1152652 ] } },
{ "type": "Feature", "properties": { "内容": "定期巡回サービスすみれ【定期巡回・随時対応型訪問介護看護】山口県宇部市寿町三丁目2番5号", "url": "https://www.kaigokensaku.mhlw.go.jp/35/index.php?action_kouhyou_detail_004_kani=true&JigyosyoCd=3590200535-00&ServiceCd=760&Type=search", "url2": "www.jinsinkai.or.jp" }, "geometry": { "type": "Point", "coordinates": [ 131.2535045, 33.9514886 ] } },
{ "type": "Feature", "properties": { "内容": "シルバーサポートアスワン【定期巡回・随時対応型訪問介護看護】山口県宇部市あすとぴあ七丁目1番2号", "url": "https://www.kaigokensaku.mhlw.go.jp/35/index.php?action_kouhyou_detail_004_kani=true&JigyosyoCd=3590200394-00&ServiceCd=760&Type=search", "url2": "http://www.asuwansansou.jp" }, "geometry": { "type": "Point", "coordinates": [ 131.296820799999978, 33.9801151 ] } },
{ "type": "Feature", "properties": { "内容": "むべの里在宅福祉サービスセンター上宇部【定期巡回・随時対応型訪問介護看護】山口県宇部市中村２丁目７－15", "url": "https://www.kaigokensaku.mhlw.go.jp/35/index.php?action_kouhyou_detail_004_kani=true&JigyosyoCd=3590200345-00&ServiceCd=760&Type=search", "url2": "http://www.mubenosato.com" }, "geometry": { "type": "Point", "coordinates": [ 131.262325893714461, 33.963620709566165 ] } },
{ "type": "Feature", "properties": { "内容": "定期巡回・随時対応型訪問介護看護くるて【定期巡回・随時対応型訪問介護看護】山口県宇部市黒石北三丁目１番５７号ホスピサイドプレイス", "url": "https://www.kaigokensaku.mhlw.go.jp/35/index.php?action_kouhyou_detail_004_kani=true&JigyosyoCd=3590200550-00&ServiceCd=760&Type=search", "url2": null }, "geometry": { "type": "Point", "coordinates": [ 131.2125302062625, 33.98393329391287 ] } },
{ "type": "Feature", "properties": { "内容": "さんコープ定期巡回・随時対応型訪問介護看護　宮野【定期巡回・随時対応型訪問介護看護】桜畠二丁目９－１７福祉生活協同組合さんコープ", "url": "https://www.kaigokensaku.mhlw.go.jp/35/index.php?action_kouhyou_detail_004_kani=true&JigyosyoCd=3590300533-00&ServiceCd=760&Type=search", "url2": null }, "geometry": { "type": "Point", "coordinates": [ 131.501748, 34.1945754 ] } },
{ "type": "Feature", "properties": { "内容": "青藍会在宅医療支援センター山口定期巡回・随時対応型訪問介護看護【定期巡回・随時対応型訪問介護看護】山口県山口市黒川729-2", "url": "https://www.kaigokensaku.mhlw.go.jp/35/index.php?action_kouhyou_detail_004_kani=true&JigyosyoCd=3590300392-00&ServiceCd=760&Type=search", "url2": "http://www.seirankai.or.jp" }, "geometry": { "type": "Point", "coordinates": [ 131.4498436, 34.1440441 ] } },
{ "type": "Feature", "properties": { "内容": "青藍会在宅医療支援センター新山口定期巡回・随時対応型訪問介護看護【定期巡回・随時対応型訪問介護看護】山口県山口市小郡平成町1-18", "url": "https://www.kaigokensaku.mhlw.go.jp/35/index.php?action_kouhyou_detail_004_kani=true&JigyosyoCd=3590300368-00&ServiceCd=760&Type=search", "url2": "http://www.seirankai.or.jp" }, "geometry": { "type": "Point", "coordinates": [ 131.400454299999979, 34.0877947 ] } },
{ "type": "Feature", "properties": { "内容": "青藍会在宅医療支援センター中央　定期巡回・随時対応型訪問介護看護【定期巡回・随時対応型訪問介護看護】山口県山口市神田町4-8ハートホーム中央", "url": "https://www.kaigokensaku.mhlw.go.jp/35/index.php?action_kouhyou_detail_004_kani=true&JigyosyoCd=3590300566-00&ServiceCd=760&Type=search", "url2": "http://seirankai.or.jp" }, "geometry": { "type": "Point", "coordinates": [ 131.4572044, 34.1727735 ] } },
{ "type": "Feature", "properties": { "内容": "定期巡回グッドタイムサポート萩【定期巡回・随時対応型訪問介護看護】山口県萩市古萩町25番地グッドタイムホ－ム・グランド萩", "url": "https://www.kaigokensaku.mhlw.go.jp/35/index.php?action_kouhyou_detail_004_kani=true&JigyosyoCd=3590400143-00&ServiceCd=760&Type=search", "url2": "http://www.souseikai.or.jp" }, "geometry": { "type": "Point", "coordinates": [ 131.4042481, 34.4161049 ] } },
{ "type": "Feature", "properties": { "内容": "定期巡回・随時対応型訪問介護看護事業所　飛梅【定期巡回・随時対応型訪問介護看護】山口県防府市大字下右田363有料老人ホーム初梅", "url": "https://www.kaigokensaku.mhlw.go.jp/35/index.php?action_kouhyou_detail_004_kani=true&JigyosyoCd=3590600403-00&ServiceCd=760&Type=search", "url2": "https://www.anshin-cls.net/" }, "geometry": { "type": "Point", "coordinates": [ 131.556491700000038, 34.073245 ] } },
{ "type": "Feature", "properties": { "内容": "巡回サービス　ゆうの風三田尻【定期巡回・随時対応型訪問介護看護】山口県防府市警固町一丁目6番42号", "url": "https://www.kaigokensaku.mhlw.go.jp/35/index.php?action_kouhyou_detail_004_kani=true&JigyosyoCd=3590600296-00&ServiceCd=760&Type=search", "url2": "http://care-net.biz/35/younokaze/" }, "geometry": { "type": "Point", "coordinates": [ 131.579405400000041, 34.0504823 ] } },
{ "type": "Feature", "properties": { "内容": "定期巡回　プルメリア【定期巡回・随時対応型訪問介護看護】山口県防府市大字新田818-1", "url": "https://www.kaigokensaku.mhlw.go.jp/35/index.php?action_kouhyou_detail_004_kani=true&JigyosyoCd=3590600364-00&ServiceCd=760&Type=search", "url2": "https://jisshokai.com/" }, "geometry": { "type": "Point", "coordinates": [ 131.564346, 34.0298379 ] } },
{ "type": "Feature", "properties": { "内容": "防府ケア・サービス定期巡回【定期巡回・随時対応型訪問介護看護】防府市緑町2-4-28", "url": "https://www.kaigokensaku.mhlw.go.jp/35/index.php?action_kouhyou_detail_004_kani=true&JigyosyoCd=3590600494-00&ServiceCd=760&Type=search", "url2": "https://hofucare.jp" }, "geometry": { "type": "Point", "coordinates": [ 131.580146, 34.0541214 ] } },
{ "type": "Feature", "properties": { "内容": "シンシアあんしんコールセンター【定期巡回・随時対応型訪問介護看護】山口県岩国市藤生３丁目２７番８号シンシアゆうわ", "url": "https://www.kaigokensaku.mhlw.go.jp/35/index.php?action_kouhyou_detail_004_kani=true&JigyosyoCd=3590800524-00&ServiceCd=760&Type=search", "url2": "https://yuwaen.net/" }, "geometry": { "type": "Point", "coordinates": [ 132.1914209, 34.1195814 ] } },
{ "type": "Feature", "properties": { "内容": "定期巡回訪問サービス　ユー・アンド２４ゆうわ【定期巡回・随時対応型訪問介護看護】山口県柳井市伊保庄字近長浜１番４", "url": "https://www.kaigokensaku.mhlw.go.jp/35/index.php?action_kouhyou_detail_004_kani=true&JigyosyoCd=3591200062-00&ServiceCd=760&Type=search", "url2": "http://www.yuwaen.net" }, "geometry": { "type": "Point", "coordinates": [ 132.12773497408827, 33.909984553170204 ] } },
{ "type": "Feature", "properties": { "内容": "定期随時訪問ステーションこもれび【定期巡回・随時対応型訪問介護看護】山口県周南市城ケ丘4丁目3536－1", "url": "https://www.kaigokensaku.mhlw.go.jp/35/index.php?action_kouhyou_detail_004_kani=true&JigyosyoCd=3591500412-00&ServiceCd=760&Type=search", "url2": "http://komorebinomori.jp" }, "geometry": { "type": "Point", "coordinates": [ 131.846245560574374, 34.047443591027474 ] } },
{ "type": "Feature", "properties": { "内容": "定期巡回随時対応型訪問介護看護元気村【定期巡回・随時対応型訪問介護看護】山口県周南市大字湯野27番地", "url": "https://www.kaigokensaku.mhlw.go.jp/35/index.php?action_kouhyou_detail_004_kani=true&JigyosyoCd=3591500305-00&ServiceCd=760&Type=search", "url2": "http://www.genkimura-sa.jp" }, "geometry": { "type": "Point", "coordinates": [ 131.680274050983968, 34.084078911611357 ] } },
{ "type": "Feature", "properties": { "内容": "定期巡回・随時対応型訪問介護看護　そらり【定期巡回・随時対応型訪問介護看護】山口県山陽小野田市大字西高泊１３３４番地１介護事業所　そらり", "url": "https://www.kaigokensaku.mhlw.go.jp/35/index.php?action_kouhyou_detail_004_kani=true&JigyosyoCd=3591600220-00&ServiceCd=760&Type=search", "url2": "hayakawanaika.com" }, "geometry": { "type": "Point", "coordinates": [ 131.170621477246073, 34.002066340349018 ] } }
]
}
