{
"type": "FeatureCollection",
"name": "geo_35_介護老人保健施設",
"crs": { "type": "name", "properties": { "name": "urn:ogc:def:crs:OGC:1.3:CRS84" } },
"features": [
{ "type": "Feature", "properties": { "内容": "老人保健施設ライフ菊川【介護老人保健施設】下関市菊川町下岡枝1113", "url": "https://www.kaigokensaku.mhlw.go.jp/35/index.php?action_kouhyou_detail_004_kani=true&JigyosyoCd=3557880006-00&ServiceCd=520&Type=search", "url2": null }, "geometry": { "type": "Point", "coordinates": [ 131.041588499999989, 34.1255225 ] } },
{ "type": "Feature", "properties": { "内容": "介護老人保健施設　葵の園・下関【介護老人保健施設】山口県下関市吉見新町1丁目6番17号", "url": "https://www.kaigokensaku.mhlw.go.jp/35/index.php?action_kouhyou_detail_004_kani=true&JigyosyoCd=3550180149-00&ServiceCd=520&Type=search", "url2": null }, "geometry": { "type": "Point", "coordinates": [ 130.899619963160831, 34.069708659668834 ] } },
{ "type": "Feature", "properties": { "内容": "老人保健施設アイユウ【介護老人保健施設】山口県下関市長府金屋浜町1-5", "url": "https://www.kaigokensaku.mhlw.go.jp/35/index.php?action_kouhyou_detail_004_kani=true&JigyosyoCd=3550180032-00&ServiceCd=520&Type=search", "url2": "https://shoueikai-aiyuu.com" }, "geometry": { "type": "Point", "coordinates": [ 130.991981200000026, 34.002732 ] } },
{ "type": "Feature", "properties": { "内容": "介護老人保健施設　豊松苑【介護老人保健施設】山口県下関市富任町6-17-20", "url": "https://www.kaigokensaku.mhlw.go.jp/35/index.php?action_kouhyou_detail_004_kani=true&JigyosyoCd=3550180024-00&ServiceCd=520&Type=search", "url2": "http://www.mizunoki.jp/housyou/" }, "geometry": { "type": "Point", "coordinates": [ 130.923936899999944, 34.0182469 ] } },
{ "type": "Feature", "properties": { "内容": "介護老人保健施設　青海荘【介護老人保健施設】山口県下関市武久町2丁目53番8号", "url": "https://www.kaigokensaku.mhlw.go.jp/35/index.php?action_kouhyou_detail_004_kani=true&JigyosyoCd=3550180008-00&ServiceCd=520&Type=search", "url2": "http://seijukai-or.jp/seikaisou/" }, "geometry": { "type": "Point", "coordinates": [ 130.91664430000003, 33.9817949 ] } },
{ "type": "Feature", "properties": { "内容": "介護療養型老人保健施設　青海荘弐番館【介護老人保健施設】山口県下関市武久町2丁目53番8号", "url": "https://www.kaigokensaku.mhlw.go.jp/35/index.php?action_kouhyou_detail_004_kani=true&JigyosyoCd=3550180131-00&ServiceCd=520&Type=search", "url2": "http://seijukai-or.jp/" }, "geometry": { "type": "Point", "coordinates": [ 130.916683199999966, 33.9818421 ] } },
{ "type": "Feature", "properties": { "内容": "下関市豊浦地域ケアセンター　介護老人保健施設ひびき苑【介護老人保健施設】下関市豊浦町大字小串10007-3", "url": "https://www.kaigokensaku.mhlw.go.jp/35/index.php?action_kouhyou_detail_004_kani=true&JigyosyoCd=3550180081-00&ServiceCd=520&Type=search", "url2": null }, "geometry": { "type": "Point", "coordinates": [ 130.926761802320669, 34.170035590535392 ] } },
{ "type": "Feature", "properties": { "内容": "介護老人保健施設　ももとせ【介護老人保健施設】山口県下関市豊北町大字滝部3669番地１", "url": "https://www.kaigokensaku.mhlw.go.jp/35/index.php?action_kouhyou_detail_004_kani=true&JigyosyoCd=3550180115-00&ServiceCd=520&Type=search", "url2": "https://momotose-home.net/" }, "geometry": { "type": "Point", "coordinates": [ 130.944352699999968, 34.2837621 ] } },
{ "type": "Feature", "properties": { "内容": "社会医療法人　松涛会　老人保健施設　コスモス【介護老人保健施設】下関市横野町3丁目16番35号", "url": "https://www.kaigokensaku.mhlw.go.jp/35/index.php?action_kouhyou_detail_004_kani=true&JigyosyoCd=3550180016-00&ServiceCd=520&Type=search", "url2": "http://www.syoutoukai.or.jp/" }, "geometry": { "type": "Point", "coordinates": [ 130.909493204609845, 34.034659351832545 ] } },
{ "type": "Feature", "properties": { "内容": "介護老人保健施設　寿光園【介護老人保健施設】山口県宇部市大字妻崎開作470番地3", "url": "https://www.kaigokensaku.mhlw.go.jp/35/index.php?action_kouhyou_detail_004_kani=true&JigyosyoCd=3550280030-00&ServiceCd=520&Type=search", "url2": "https://roken-jukouen.jp/" }, "geometry": { "type": "Point", "coordinates": [ 131.204080102377361, 33.983749841069887 ] } },
{ "type": "Feature", "properties": { "内容": "介護老人保健施設　昭和町共生苑【介護老人保健施設】山口県宇部市昭和町二丁目12-12", "url": "https://www.kaigokensaku.mhlw.go.jp/35/index.php?action_kouhyou_detail_004_kani=true&JigyosyoCd=3550280022-00&ServiceCd=520&Type=search", "url2": null }, "geometry": { "type": "Point", "coordinates": [ 131.255146700000068, 33.9393242 ] } },
{ "type": "Feature", "properties": { "内容": "老人保健施設　宇部幸楽苑【介護老人保健施設】宇部市大字西岐波２２９番地の３", "url": "https://www.kaigokensaku.mhlw.go.jp/35/index.php?action_kouhyou_detail_004_kani=true&JigyosyoCd=3550280014-00&ServiceCd=520&Type=search", "url2": "http://www.ubereha.jp/facility/korakuen.html" }, "geometry": { "type": "Point", "coordinates": [ 131.303293, 33.966558 ] } },
{ "type": "Feature", "properties": { "内容": "介護老人保健施設　老健ふなき【介護老人保健施設】山口県宇部市大字船木８３３番地", "url": "https://www.kaigokensaku.mhlw.go.jp/35/index.php?action_kouhyou_detail_004_kani=true&JigyosyoCd=3557780008-00&ServiceCd=520&Type=search", "url2": "http://www.furoukai.jp/" }, "geometry": { "type": "Point", "coordinates": [ 131.191670400000021, 34.0490254 ] } },
{ "type": "Feature", "properties": { "内容": "介護老人保健施設　ぺあれんと【介護老人保健施設】山口県宇部市浜町２丁目1-3", "url": "https://www.kaigokensaku.mhlw.go.jp/35/index.php?action_kouhyou_detail_004_kani=true&JigyosyoCd=3550280048-00&ServiceCd=520&Type=search", "url2": "https://familand.jp" }, "geometry": { "type": "Point", "coordinates": [ 131.237383099999988, 33.9649627 ] } },
{ "type": "Feature", "properties": { "内容": "医療法人社団泉仁会介護老人保健施設豊生苑【介護老人保健施設】山口県宇部市大字木田字中山田４０－２０", "url": "https://www.kaigokensaku.mhlw.go.jp/35/index.php?action_kouhyou_detail_004_kani=true&JigyosyoCd=3550280006-00&ServiceCd=520&Type=search", "url2": "http://www.senjinkai.jp" }, "geometry": { "type": "Point", "coordinates": [ 131.281252185841339, 34.062446448011478 ] } },
{ "type": "Feature", "properties": { "内容": "老人保健施設　日吉台【介護老人保健施設】山口市陶3976", "url": "https://www.kaigokensaku.mhlw.go.jp/35/index.php?action_kouhyou_detail_004_kani=true&JigyosyoCd=3550380012-00&ServiceCd=520&Type=search", "url2": null }, "geometry": { "type": "Point", "coordinates": [ 131.4202272, 34.0986157 ] } },
{ "type": "Feature", "properties": { "内容": "老人保健施設　ニューライフあじす【介護老人保健施設】山口市阿知須4165-3", "url": "https://www.kaigokensaku.mhlw.go.jp/35/index.php?action_kouhyou_detail_004_kani=true&JigyosyoCd=3557680018-00&ServiceCd=520&Type=search", "url2": "http://www.kyoai.or.jp/newlife/" }, "geometry": { "type": "Point", "coordinates": [ 131.358159600000022, 34.0079468 ] } },
{ "type": "Feature", "properties": { "内容": "老人保健施設　悠々の里【介護老人保健施設】山口市吉敷佐畑四丁目４番４４号", "url": "https://www.kaigokensaku.mhlw.go.jp/35/index.php?action_kouhyou_detail_004_kani=true&JigyosyoCd=3550380038-00&ServiceCd=520&Type=search", "url2": null }, "geometry": { "type": "Point", "coordinates": [ 131.427752199999986, 34.1672539 ] } },
{ "type": "Feature", "properties": { "内容": "山口幸楽苑【介護老人保健施設】山口市黒川３３８０番地", "url": "https://www.kaigokensaku.mhlw.go.jp/35/index.php?action_kouhyou_detail_004_kani=true&JigyosyoCd=3550380004-00&ServiceCd=520&Type=search", "url2": "http://www.wadokai.or.jp/yamariha/22korken/index.html" }, "geometry": { "type": "Point", "coordinates": [ 131.438966299999947, 34.1319796 ] } },
{ "type": "Feature", "properties": { "内容": "山口県厚生農業協同組合連合会老人保健施設みのり苑【介護老人保健施設】山口市小郡下郷862番地3３", "url": "https://www.kaigokensaku.mhlw.go.jp/35/index.php?action_kouhyou_detail_004_kani=true&JigyosyoCd=3557680000-00&ServiceCd=520&Type=search", "url2": "http://www.ogoridaiichi.jp/" }, "geometry": { "type": "Point", "coordinates": [ 131.3971987, 34.1034567 ] } },
{ "type": "Feature", "properties": { "内容": "介護老人保健施設　アーユス【介護老人保健施設】山口市大内矢田北５丁目１０番１号介護老人保健施設アーユス", "url": "https://www.kaigokensaku.mhlw.go.jp/35/index.php?action_kouhyou_detail_004_kani=true&JigyosyoCd=3550380046-00&ServiceCd=520&Type=search", "url2": "http://www.suiseikai.org" }, "geometry": { "type": "Point", "coordinates": [ 131.510014350926213, 34.155033617514171 ] } },
{ "type": "Feature", "properties": { "内容": "あいあい山口【介護老人保健施設】山口市鋳銭司5964番地1", "url": "https://www.kaigokensaku.mhlw.go.jp/35/index.php?action_kouhyou_detail_004_kani=true&JigyosyoCd=3550380020-00&ServiceCd=520&Type=search", "url2": "http://www.aikawaiin.or.jp" }, "geometry": { "type": "Point", "coordinates": [ 131.443733400000042, 34.0839761 ] } },
{ "type": "Feature", "properties": { "内容": "老人保健施設　ハートホーム山口【介護老人保健施設】山口県山口市吉敷中東一丁目1-2", "url": "https://www.kaigokensaku.mhlw.go.jp/35/index.php?action_kouhyou_detail_004_kani=true&JigyosyoCd=3550380061-00&ServiceCd=520&Type=search", "url2": "http://www.seirankai.or.jp" }, "geometry": { "type": "Point", "coordinates": [ 131.446727799999962, 34.1672851 ] } },
{ "type": "Feature", "properties": { "内容": "医療法人社団康香会　老人保健施設　ひまわりの苑【介護老人保健施設】萩市大字今古萩町30-1", "url": "https://www.kaigokensaku.mhlw.go.jp/35/index.php?action_kouhyou_detail_004_kani=true&JigyosyoCd=3550480002-00&ServiceCd=520&Type=search", "url2": null }, "geometry": { "type": "Point", "coordinates": [ 131.401678899999979, 34.4168648 ] } },
{ "type": "Feature", "properties": { "内容": "医療法人　社団慈生会　介護老人保健施設　德寿園【介護老人保健施設】山口県萩市大字山田4147番地１", "url": "https://www.kaigokensaku.mhlw.go.jp/35/index.php?action_kouhyou_detail_004_kani=true&JigyosyoCd=3550480010-00&ServiceCd=520&Type=search", "url2": "http://hagi-jiseikai.or.jp" }, "geometry": { "type": "Point", "coordinates": [ 131.381684147360232, 34.400177810406845 ] } },
{ "type": "Feature", "properties": { "内容": "老人保健施設はくあい【介護老人保健施設】山口県防府市三田尻１丁目１番２４号", "url": "https://www.kaigokensaku.mhlw.go.jp/35/index.php?action_kouhyou_detail_004_kani=true&JigyosyoCd=3550680023-00&ServiceCd=520&Type=search", "url2": "http://hakuai.net/" }, "geometry": { "type": "Point", "coordinates": [ 131.572369900000012, 34.0484354 ] } },
{ "type": "Feature", "properties": { "内容": "介護老人保健施設　好日苑【介護老人保健施設】山口県防府市戎町二丁目５番１号", "url": "https://www.kaigokensaku.mhlw.go.jp/35/index.php?action_kouhyou_detail_004_kani=true&JigyosyoCd=3550680031-00&ServiceCd=520&Type=search", "url2": "https://syoujyukai.or.jp/" }, "geometry": { "type": "Point", "coordinates": [ 131.5703532, 34.0590505 ] } },
{ "type": "Feature", "properties": { "内容": "老人保健施設　尚歯堂【介護老人保健施設】防府市大字新田７７５－１", "url": "https://www.kaigokensaku.mhlw.go.jp/35/index.php?action_kouhyou_detail_004_kani=true&JigyosyoCd=3550680015-00&ServiceCd=520&Type=search", "url2": "http://www.sokuinkai.com/rouken" }, "geometry": { "type": "Point", "coordinates": [ 131.563457100000051, 34.031896 ] } },
{ "type": "Feature", "properties": { "内容": "防府幸楽苑【介護老人保健施設】防府市大字台道1634番地の1", "url": "https://www.kaigokensaku.mhlw.go.jp/35/index.php?action_kouhyou_detail_004_kani=true&JigyosyoCd=3550680007-00&ServiceCd=520&Type=search", "url2": null }, "geometry": { "type": "Point", "coordinates": [ 131.493048499999986, 34.0684185 ] } },
{ "type": "Feature", "properties": { "内容": "老人保健施設　成幸苑【介護老人保健施設】山口県下松市新川二丁目1番1号", "url": "https://www.kaigokensaku.mhlw.go.jp/35/index.php?action_kouhyou_detail_004_kani=true&JigyosyoCd=3550780005-00&ServiceCd=520&Type=search", "url2": "https://www.seikoukai.jp/seikouen/" }, "geometry": { "type": "Point", "coordinates": [ 131.863150430688449, 34.008580959393157 ] } },
{ "type": "Feature", "properties": { "内容": "介護老人保健施設ふくしの里【介護老人保健施設】山口県下松市生野屋南一丁目10番1号", "url": "https://www.kaigokensaku.mhlw.go.jp/35/index.php?action_kouhyou_detail_004_kani=true&JigyosyoCd=3550780013-00&ServiceCd=520&Type=search", "url2": "https://shunan-kinen.jp/hukusinosato.html" }, "geometry": { "type": "Point", "coordinates": [ 131.876613200000065, 34.0326424 ] } },
{ "type": "Feature", "properties": { "内容": "老人保健施設　桜の園【介護老人保健施設】岩国市下342-1", "url": "https://www.kaigokensaku.mhlw.go.jp/35/index.php?action_kouhyou_detail_004_kani=true&JigyosyoCd=3550880003-00&ServiceCd=520&Type=search", "url2": "http://www.i-shinseikai.or.jp" }, "geometry": { "type": "Point", "coordinates": [ 132.092868714016731, 34.160457961632375 ] } },
{ "type": "Feature", "properties": { "内容": "岩国市錦介護老人保健施設　あさぎりの郷【介護老人保健施設】山口県岩国市錦町広瀬705番地", "url": "https://www.kaigokensaku.mhlw.go.jp/35/index.php?action_kouhyou_detail_004_kani=true&JigyosyoCd=3550880037-00&ServiceCd=520&Type=search", "url2": "http://nishiki-f.com/" }, "geometry": { "type": "Point", "coordinates": [ 131.952589200000034, 34.2557006 ] } },
{ "type": "Feature", "properties": { "内容": "老人保健施設　くが【介護老人保健施設】山口県岩国市玖珂町3813番地6", "url": "https://www.kaigokensaku.mhlw.go.jp/35/index.php?action_kouhyou_detail_004_kani=true&JigyosyoCd=3557280017-00&ServiceCd=520&Type=search", "url2": "http://takamori-fukushikai.or.jp" }, "geometry": { "type": "Point", "coordinates": [ 132.098622400000068, 34.0818525 ] } },
{ "type": "Feature", "properties": { "内容": "老人保健施設ふれんず【介護老人保健施設】山口県岩国市今津町1丁目11-23", "url": "https://www.kaigokensaku.mhlw.go.jp/35/index.php?action_kouhyou_detail_004_kani=true&JigyosyoCd=3550880029-00&ServiceCd=520&Type=search", "url2": "https://marifukai.com/" }, "geometry": { "type": "Point", "coordinates": [ 132.220681099999979, 34.1667755 ] } },
{ "type": "Feature", "properties": { "内容": "老人保健施設　　なんわ荘【介護老人保健施設】山口県岩国市尾津町五丁目７番３０号", "url": "https://www.kaigokensaku.mhlw.go.jp/35/index.php?action_kouhyou_detail_004_kani=true&JigyosyoCd=3550880011-00&ServiceCd=520&Type=search", "url2": "http://www.nawakai.jp" }, "geometry": { "type": "Point", "coordinates": [ 132.210462799999959, 34.1321351 ] } },
{ "type": "Feature", "properties": { "内容": "医療法人南和会老人保健施設みどり荘【介護老人保健施設】岩国市由宇町千鳥ヶ丘一丁目１番１号", "url": "https://www.kaigokensaku.mhlw.go.jp/35/index.php?action_kouhyou_detail_004_kani=true&JigyosyoCd=3557280009-00&ServiceCd=520&Type=search", "url2": "http://www.nanwakai.jp/midori_sou" }, "geometry": { "type": "Point", "coordinates": [ 132.212751499999968, 34.0363384 ] } },
{ "type": "Feature", "properties": { "内容": "介護老人保健施設ナイスケアまほろば【介護老人保健施設】山口県光市岩田2477番地", "url": "https://www.kaigokensaku.mhlw.go.jp/35/index.php?action_kouhyou_detail_004_kani=true&JigyosyoCd=3551080025-00&ServiceCd=520&Type=search", "url2": "https://naisukeamahoroba.jimdofree.com/" }, "geometry": { "type": "Point", "coordinates": [ 131.9996222, 33.9819183 ] } },
{ "type": "Feature", "properties": { "内容": "介護老人保健施設しまた川苑【介護老人保健施設】山口県光市島田5-3-2", "url": "https://www.kaigokensaku.mhlw.go.jp/35/index.php?action_kouhyou_detail_004_kani=true&JigyosyoCd=3551080009-00&ServiceCd=520&Type=search", "url2": "http://www.aimeikai.jp/shimatagawa.html" }, "geometry": { "type": "Point", "coordinates": [ 131.9400647, 33.9792137 ] } },
{ "type": "Feature", "properties": { "内容": "医療法人社団成蹊会　老人保健施設サンライズ21【介護老人保健施設】山口県長門市東深川889－1", "url": "https://www.kaigokensaku.mhlw.go.jp/35/index.php?action_kouhyou_detail_004_kani=true&JigyosyoCd=3551180015-00&ServiceCd=520&Type=search", "url2": "https://www.rouken-sunrize21.com/" }, "geometry": { "type": "Point", "coordinates": [ 131.186841299999969, 34.3769221 ] } },
{ "type": "Feature", "properties": { "内容": "介護老人保健施設　福寿苑【介護老人保健施設】山口県長門市日置中2488番地3", "url": "https://www.kaigokensaku.mhlw.go.jp/35/index.php?action_kouhyou_detail_004_kani=true&JigyosyoCd=3558080002-00&ServiceCd=520&Type=search", "url2": "http://nagato-fukujyukai.or.jp" }, "geometry": { "type": "Point", "coordinates": [ 131.106217099999981, 34.3804702 ] } },
{ "type": "Feature", "properties": { "内容": "医療法人生山会　介護老人保健施設かつら苑【介護老人保健施設】山口県長門市俵山4910-1", "url": "https://www.kaigokensaku.mhlw.go.jp/35/index.php?action_kouhyou_detail_004_kani=true&JigyosyoCd=3551180007-00&ServiceCd=520&Type=search", "url2": "https://www.shouzankai-saiki.com/tawarayama/katsuraen" }, "geometry": { "type": "Point", "coordinates": [ 131.096243807365454, 34.288943209992532 ] } },
{ "type": "Feature", "properties": { "内容": "介護老人保健施設ケアセンターゆうわ【介護老人保健施設】柳井市伊保庄字近長浜１番４", "url": "https://www.kaigokensaku.mhlw.go.jp/35/index.php?action_kouhyou_detail_004_kani=true&JigyosyoCd=3551280013-00&ServiceCd=520&Type=search", "url2": "http://www.yuwaen.net" }, "geometry": { "type": "Point", "coordinates": [ 132.127635732354719, 33.910035751284127 ] } },
{ "type": "Feature", "properties": { "内容": "介護老人保健施設　まつかぜ【介護老人保健施設】柳井市余田３７１８番地", "url": "https://www.kaigokensaku.mhlw.go.jp/35/index.php?action_kouhyou_detail_004_kani=true&JigyosyoCd=3551280005-00&ServiceCd=520&Type=search", "url2": "http://www.shoueikai-sakamoto.com/matsukaze/" }, "geometry": { "type": "Point", "coordinates": [ 132.067224300000021, 33.9592166 ] } },
{ "type": "Feature", "properties": { "内容": "美祢市介護老人保健施設グリーンヒル美祢【介護老人保健施設】美祢市大嶺町東分１１３１３－１", "url": "https://www.kaigokensaku.mhlw.go.jp/35/index.php?action_kouhyou_detail_004_kani=true&JigyosyoCd=3551380011-00&ServiceCd=520&Type=search", "url2": "http://www.mine-city-hosp.jp/green/" }, "geometry": { "type": "Point", "coordinates": [ 131.1999535, 34.1717626 ] } },
{ "type": "Feature", "properties": { "内容": "介護老人保健施設　なごやか熊毛【介護老人保健施設】山口県周南市高水原2丁目7番21号", "url": "https://www.kaigokensaku.mhlw.go.jp/35/index.php?action_kouhyou_detail_004_kani=true&JigyosyoCd=3551580024-00&ServiceCd=520&Type=search", "url2": "http://www.kumage-rk.jp" }, "geometry": { "type": "Point", "coordinates": [ 131.973291, 34.0541482 ] } },
{ "type": "Feature", "properties": { "内容": "老人保健施設　春の里【介護老人保健施設】山口県周南市羽島1丁目2-23", "url": "https://www.kaigokensaku.mhlw.go.jp/35/index.php?action_kouhyou_detail_004_kani=true&JigyosyoCd=3551480001-00&ServiceCd=520&Type=search", "url2": "https://haresato.wixsite.com/website" }, "geometry": { "type": "Point", "coordinates": [ 131.726484081614672, 34.074252701683477 ] } },
{ "type": "Feature", "properties": { "内容": "周南市介護老人保健施設ゆめ風車【介護老人保健施設】周南市宮の前二丁目６－２７", "url": "https://www.kaigokensaku.mhlw.go.jp/35/index.php?action_kouhyou_detail_004_kani=true&JigyosyoCd=3551580016-00&ServiceCd=520&Type=search", "url2": "http://www.ccsnet.ne.jp/^yumerouken" }, "geometry": { "type": "Point", "coordinates": [ 131.764141900000027, 34.0726521 ] } },
{ "type": "Feature", "properties": { "内容": "介護老人保健施設　あおぞら【介護老人保健施設】山口県周南市大字栗屋字二葉屋開作1022-76", "url": "https://www.kaigokensaku.mhlw.go.jp/35/index.php?action_kouhyou_detail_004_kani=true&JigyosyoCd=3551580032-00&ServiceCd=520&Type=search", "url2": "http://www.shoueikai-sakamoto.com" }, "geometry": { "type": "Point", "coordinates": [ 131.80618579999998, 34.0551188 ] } },
{ "type": "Feature", "properties": { "内容": "老人保健施設温泉の里【介護老人保健施設】山口県周南市大字湯野4204番地の１", "url": "https://www.kaigokensaku.mhlw.go.jp/35/index.php?action_kouhyou_detail_004_kani=true&JigyosyoCd=3550580025-00&ServiceCd=520&Type=search", "url2": "http://www.chitoukai.com" }, "geometry": { "type": "Point", "coordinates": [ 131.674880900000062, 34.0943735 ] } },
{ "type": "Feature", "properties": { "内容": "小野田赤十字老人保健施設あんじゅ【介護老人保健施設】山口県山陽小野田市大字小野田3700番地", "url": "https://www.kaigokensaku.mhlw.go.jp/35/index.php?action_kouhyou_detail_004_kani=true&JigyosyoCd=3550980001-00&ServiceCd=520&Type=search", "url2": "http://www.onoda-redcross-hosp.jp/anjyu/index.html" }, "geometry": { "type": "Point", "coordinates": [ 131.183765, 33.9541264 ] } },
{ "type": "Feature", "properties": { "内容": "サテライト型介護老人保健施設　あさ紫苑【介護老人保健施設】山陽小野田市大字厚狭字埴生田503番1", "url": "https://www.kaigokensaku.mhlw.go.jp/35/index.php?action_kouhyou_detail_004_kani=true&JigyosyoCd=3551680014-00&ServiceCd=520&Type=search", "url2": "http://asashion.wixsite.com/kenjinkai" }, "geometry": { "type": "Point", "coordinates": [ 131.161978500000032, 34.0540994 ] } },
{ "type": "Feature", "properties": { "内容": "介護老人保健施設あさ紫苑【介護老人保健施設】山口県山陽小野田市桜１丁目３番１号", "url": "https://www.kaigokensaku.mhlw.go.jp/35/index.php?action_kouhyou_detail_004_kani=true&JigyosyoCd=3557780016-00&ServiceCd=520&Type=search", "url2": "http://asashion.wixsite.com/kenjinkai" }, "geometry": { "type": "Point", "coordinates": [ 131.155706799999962, 34.0532217 ] } },
{ "type": "Feature", "properties": { "内容": "サテライト型介護老人保健施設　しおん高泊【介護老人保健施設】山口県山陽小野田市大字西高泊1198‐12", "url": "https://www.kaigokensaku.mhlw.go.jp/35/index.php?action_kouhyou_detail_004_kani=true&JigyosyoCd=3551680022-00&ServiceCd=520&Type=search", "url2": "https://asashion.wixsite.com/kenjinkai" }, "geometry": { "type": "Point", "coordinates": [ 131.171287548691822, 34.004469199050845 ] } },
{ "type": "Feature", "properties": { "内容": "周防大島町立介護老人保健施設さざなみ苑【介護老人保健施設】山口県大島郡周防大島町大字西安下庄３９２０番地１７", "url": "https://www.kaigokensaku.mhlw.go.jp/35/index.php?action_kouhyou_detail_004_kani=true&JigyosyoCd=3557180027-00&ServiceCd=520&Type=search", "url2": "https://www.kouei.so.ecomas.jp/facilities/sznm/" }, "geometry": { "type": "Point", "coordinates": [ 132.280371899999977, 33.897774 ] } },
{ "type": "Feature", "properties": { "内容": "介護老人保健施設　そよかぜ【介護老人保健施設】熊毛郡田布施町大字宿井４１４番地の５", "url": "https://www.kaigokensaku.mhlw.go.jp/35/index.php?action_kouhyou_detail_004_kani=true&JigyosyoCd=3557380015-00&ServiceCd=520&Type=search", "url2": "http://www.shoueikai-sakamoto.com/soyokaze/" }, "geometry": { "type": "Point", "coordinates": [ 132.02717389999998, 33.9642208 ] } },
{ "type": "Feature", "properties": { "内容": "介護老人保健施設　なでしこ【介護老人保健施設】熊毛郡平生町平生村895番地", "url": "https://www.kaigokensaku.mhlw.go.jp/35/index.php?action_kouhyou_detail_004_kani=true&JigyosyoCd=3557380023-00&ServiceCd=520&Type=search", "url2": "Http://www.shoueikai-sakamoto.com/" }, "geometry": { "type": "Point", "coordinates": [ 132.068354341217059, 33.942699364463515 ] } }
]
}
