{
"type": "FeatureCollection",
"name": "geo_35_訪問リハビリテーション",
"crs": { "type": "name", "properties": { "name": "urn:ogc:def:crs:OGC:1.3:CRS84" } },
"features": [
{ "type": "Feature", "properties": { "内容": "アイユウ訪問リハビリテーション【訪問リハビリテーション】山口県下関市長府金屋浜町１－５", "url": "https://www.kaigokensaku.mhlw.go.jp/35/index.php?action_kouhyou_detail_004_kani=true&JigyosyoCd=3570104707-00&ServiceCd=140&Type=search", "url2": "http://shoueikai-aiyuu.com/service/index.html" }, "geometry": { "type": "Point", "coordinates": [ 130.992198712303207, 34.002566960558802 ] } },
{ "type": "Feature", "properties": { "内容": "社会医療法人　松涛会　安岡病院【訪問リハビリテーション】山口県下関市横野町3丁目16番35号", "url": "https://www.kaigokensaku.mhlw.go.jp/35/index.php?action_kouhyou_detail_004_kani=true&JigyosyoCd=3510113610-00&ServiceCd=140&Type=search", "url2": "http://www.syoutoukai.or.jp" }, "geometry": { "type": "Point", "coordinates": [ 130.909568199999967, 34.03475 ] } },
{ "type": "Feature", "properties": { "内容": "王司病院　訪問リハビリテーション【訪問リハビリテーション】下関市王司本町1-18-27", "url": "https://www.kaigokensaku.mhlw.go.jp/35/index.php?action_kouhyou_detail_004_kani=true&JigyosyoCd=3510113701-00&ServiceCd=140&Type=search", "url2": "https://www.kihoukai.biz/" }, "geometry": { "type": "Point", "coordinates": [ 131.015301200000067, 34.0411591 ] } },
{ "type": "Feature", "properties": { "内容": "脳神経筋センターよしみず病院訪問リハビリテーション【訪問リハビリテーション】山口県下関市後田1丁目1番1号", "url": "https://www.kaigokensaku.mhlw.go.jp/35/index.php?action_kouhyou_detail_004_kani=true&JigyosyoCd=3510117991-00&ServiceCd=140&Type=search", "url2": "http://www.akn-yoshimizu.com" }, "geometry": { "type": "Point", "coordinates": [ 130.9341169, 33.9687057 ] } },
{ "type": "Feature", "properties": { "内容": "一般社団法人巨樹の会　下関リハビリテーション病院【訪問リハビリテーション】山口県下関市今浦町9番6号", "url": "https://www.kaigokensaku.mhlw.go.jp/35/index.php?action_kouhyou_detail_004_kani=true&JigyosyoCd=3510115946-00&ServiceCd=140&Type=search", "url2": "http://www.shimoreha.jp/" }, "geometry": { "type": "Point", "coordinates": [ 130.920988599999987, 33.9533864 ] } },
{ "type": "Feature", "properties": { "内容": "医療法人茜会　吉水内科　訪問リハビリテーション【訪問リハビリテーション】山口県下関市上新地町一丁目5番2号", "url": "https://www.kaigokensaku.mhlw.go.jp/35/index.php?action_kouhyou_detail_004_kani=true&JigyosyoCd=3510113875-00&ServiceCd=140&Type=search", "url2": null }, "geometry": { "type": "Point", "coordinates": [ 130.920458100000019, 33.9591553 ] } },
{ "type": "Feature", "properties": { "内容": "勝山クリニック【訪問リハビリテーション】山口県下関市大字田倉221-11", "url": "https://www.kaigokensaku.mhlw.go.jp/35/index.php?action_kouhyou_detail_004_kani=true&JigyosyoCd=3510117942-00&ServiceCd=140&Type=search", "url2": "https://akn⁻yoshimizu.com/" }, "geometry": { "type": "Point", "coordinates": [ 130.9744813, 34.01306 ] } },
{ "type": "Feature", "properties": { "内容": "桃崎病院【訪問リハビリテーション】山口県下関市田中町1番10号", "url": "https://www.kaigokensaku.mhlw.go.jp/35/index.php?action_kouhyou_detail_004_kani=true&JigyosyoCd=3510115425-00&ServiceCd=140&Type=search", "url2": "http://www.momosaki.jp" }, "geometry": { "type": "Point", "coordinates": [ 130.9409951, 33.9613609 ] } },
{ "type": "Feature", "properties": { "内容": "社会医療法人　松涛会　彦島内科【訪問リハビリテーション】山口県下関市彦島江の浦町9丁目4-5", "url": "https://www.kaigokensaku.mhlw.go.jp/35/index.php?action_kouhyou_detail_004_kani=true&JigyosyoCd=3510116381-00&ServiceCd=140&Type=search", "url2": "http://www.syoutoukai.or.jp/facilities/0832664008-clinic/" }, "geometry": { "type": "Point", "coordinates": [ 130.917858600000045, 33.9299053 ] } },
{ "type": "Feature", "properties": { "内容": "けんぞう内科クリニック【訪問リハビリテーション】山口県下関市豊浦町大字吉永1840", "url": "https://www.kaigokensaku.mhlw.go.jp/35/index.php?action_kouhyou_detail_004_kani=true&JigyosyoCd=3510118171-00&ServiceCd=140&Type=search", "url2": "https://kenzo-clinic.com" }, "geometry": { "type": "Point", "coordinates": [ 130.9258649, 34.1317505 ] } },
{ "type": "Feature", "properties": { "内容": "下関市立豊田中央病院【訪問リハビリテーション】山口県下関市豊田町大字矢田３６５番地１", "url": "https://www.kaigokensaku.mhlw.go.jp/35/index.php?action_kouhyou_detail_004_kani=true&JigyosyoCd=3517810200-00&ServiceCd=140&Type=search", "url2": "http://www.city.shimonoseki.yamaguchi.jp/toyotabyoin/index.html" }, "geometry": { "type": "Point", "coordinates": [ 131.072167700000023, 34.201146 ] } },
{ "type": "Feature", "properties": { "内容": "医療法人　松永会　老人保健施設アイユウ【訪問リハビリテーション】山口県下関市長府金屋浜町1－5", "url": "https://www.kaigokensaku.mhlw.go.jp/35/index.php?action_kouhyou_detail_004_kani=true&JigyosyoCd=3550180032-00&ServiceCd=140&Type=search", "url2": "https://shoueikai-aiyuu.com/" }, "geometry": { "type": "Point", "coordinates": [ 130.992045100000013, 34.0023427 ] } },
{ "type": "Feature", "properties": { "内容": "医療法人社団青寿会　武久病院【訪問リハビリテーション】山口県下関市武久町2丁目53番8号", "url": "https://www.kaigokensaku.mhlw.go.jp/35/index.php?action_kouhyou_detail_004_kani=true&JigyosyoCd=3510113222-00&ServiceCd=140&Type=search", "url2": "http://seijukai-or.jp/" }, "geometry": { "type": "Point", "coordinates": [ 130.91664430000003, 33.9817949 ] } },
{ "type": "Feature", "properties": { "内容": "寿光園訪問リハビリテーション【訪問リハビリテーション】山口県宇部市大字妻崎開作470-3", "url": "https://www.kaigokensaku.mhlw.go.jp/35/index.php?action_kouhyou_detail_004_kani=true&JigyosyoCd=3550280030-00&ServiceCd=140&Type=search", "url2": "https://roken-jukouen.jp" }, "geometry": { "type": "Point", "coordinates": [ 131.20462950000001, 33.9838075 ] } },
{ "type": "Feature", "properties": { "内容": "尾中病院　訪問リハビリテーション【訪問リハビリテーション】山口県宇部市寿町1-3-28", "url": "https://www.kaigokensaku.mhlw.go.jp/35/index.php?action_kouhyou_detail_004_kani=true&JigyosyoCd=3510214855-00&ServiceCd=140&Type=search", "url2": "https：//onaka.or.jp" }, "geometry": { "type": "Point", "coordinates": [ 131.2486137, 33.9537729 ] } },
{ "type": "Feature", "properties": { "内容": "介護老人保健施設　昭和町共生苑【訪問リハビリテーション】山口県宇部市昭和町二丁目12-12", "url": "https://www.kaigokensaku.mhlw.go.jp/35/index.php?action_kouhyou_detail_004_kani=true&JigyosyoCd=3550280022-00&ServiceCd=140&Type=search", "url2": null }, "geometry": { "type": "Point", "coordinates": [ 131.255146700000068, 33.9393242 ] } },
{ "type": "Feature", "properties": { "内容": "宇部記念病院　訪問リハビリテーション【訪問リハビリテーション】宇部市上町１丁目４番11号", "url": "https://www.kaigokensaku.mhlw.go.jp/35/index.php?action_kouhyou_detail_004_kani=true&JigyosyoCd=3510210135-00&ServiceCd=140&Type=search", "url2": "hakuaikai-net.or.jp" }, "geometry": { "type": "Point", "coordinates": [ 131.239736, 33.9582662 ] } },
{ "type": "Feature", "properties": { "内容": "医療法人和同会宇部リハビリテーション病院【訪問リハビリテーション】山口県宇部市大字西岐波229-3", "url": "https://www.kaigokensaku.mhlw.go.jp/35/index.php?action_kouhyou_detail_004_kani=true&JigyosyoCd=3510211935-00&ServiceCd=140&Type=search", "url2": "http://www.ubereha.jp/" }, "geometry": { "type": "Point", "coordinates": [ 131.302595625656068, 33.967060741640722 ] } },
{ "type": "Feature", "properties": { "内容": "老人保健施設　老健ふなき【訪問リハビリテーション】山口県宇部市大字船木833介護老人保健施設　老健ふなき", "url": "https://www.kaigokensaku.mhlw.go.jp/35/index.php?action_kouhyou_detail_004_kani=true&JigyosyoCd=3557780008-00&ServiceCd=140&Type=search", "url2": "http://www.furoukai.jp" }, "geometry": { "type": "Point", "coordinates": [ 131.192764741278097, 34.04882094190998 ] } },
{ "type": "Feature", "properties": { "内容": "訪問リハビリテーション【訪問リハビリテーション】山口県宇部市大字東岐波字丸尾４３２２－１", "url": "https://www.kaigokensaku.mhlw.go.jp/35/index.php?action_kouhyou_detail_004_kani=true&JigyosyoCd=3510213329-00&ServiceCd=140&Type=search", "url2": "http://yfuruya31.wixsite.com/seasidehp" }, "geometry": { "type": "Point", "coordinates": [ 131.348189499999989, 33.967292 ] } },
{ "type": "Feature", "properties": { "内容": "介護老人保健施設　ぺあれんと【訪問リハビリテーション】山口県宇部市浜町2丁目1-3", "url": "https://www.kaigokensaku.mhlw.go.jp/35/index.php?action_kouhyou_detail_004_kani=true&JigyosyoCd=3550280048-00&ServiceCd=140&Type=search", "url2": "https://familand.jp" }, "geometry": { "type": "Point", "coordinates": [ 131.237383099999988, 33.9649627 ] } },
{ "type": "Feature", "properties": { "内容": "医療法人社団泉仁会【訪問リハビリテーション】宇部市大字木田字中山田４０番地２０", "url": "https://www.kaigokensaku.mhlw.go.jp/35/index.php?action_kouhyou_detail_004_kani=true&JigyosyoCd=3510212354-00&ServiceCd=140&Type=search", "url2": "http://www.senjinkai.jp" }, "geometry": { "type": "Point", "coordinates": [ 131.281257550259369, 34.061957603074639 ] } },
{ "type": "Feature", "properties": { "内容": "たいしょうどおりくりにっくほうもんりはびりてーしょん【訪問リハビリテーション】山口県山口市小郡明治2丁目1番5号", "url": "https://www.kaigokensaku.mhlw.go.jp/35/index.php?action_kouhyou_detail_004_kani=true&JigyosyoCd=3510313269-00&ServiceCd=140&Type=search", "url2": "http://www.taishoudouri‐clinic.com/" }, "geometry": { "type": "Point", "coordinates": [ 131.3971379, 34.097563200000018 ] } },
{ "type": "Feature", "properties": { "内容": "相川医院訪問リハビリテーション【訪問リハビリテーション】山口市鋳銭司5964番地1", "url": "https://www.kaigokensaku.mhlw.go.jp/35/index.php?action_kouhyou_detail_004_kani=true&JigyosyoCd=3510311271-00&ServiceCd=140&Type=search", "url2": "http://www.aikawaiin.or.jp" }, "geometry": { "type": "Point", "coordinates": [ 131.443733400000042, 34.0839761 ] } },
{ "type": "Feature", "properties": { "内容": "ハートクリニック南山口【訪問リハビリテーション】山口県山口市深溝803-1", "url": "https://www.kaigokensaku.mhlw.go.jp/35/index.php?action_kouhyou_detail_004_kani=true&JigyosyoCd=3510312261-00&ServiceCd=140&Type=search", "url2": "http://www.seirankai.or.jp" }, "geometry": { "type": "Point", "coordinates": [ 131.367142199999989, 34.051509 ] } },
{ "type": "Feature", "properties": { "内容": "阿知須共立病院【訪問リハビリテーション】山口県山口市阿知須4841番地1", "url": "https://www.kaigokensaku.mhlw.go.jp/35/index.php?action_kouhyou_detail_004_kani=true&JigyosyoCd=3510313053-00&ServiceCd=140&Type=search", "url2": "http://www.kyoai.or.jp" }, "geometry": { "type": "Point", "coordinates": [ 131.355623700000024, 34.011313 ] } },
{ "type": "Feature", "properties": { "内容": "山口リハビリテーション病院【訪問リハビリテーション】山口市黒川3380", "url": "https://www.kaigokensaku.mhlw.go.jp/35/index.php?action_kouhyou_detail_004_kani=true&JigyosyoCd=3510311255-00&ServiceCd=140&Type=search", "url2": "http://www.wadokai.or.jp/yamariha/" }, "geometry": { "type": "Point", "coordinates": [ 131.438966299999947, 34.1319796 ] } },
{ "type": "Feature", "properties": { "内容": "医療法人清仁会林病院【訪問リハビリテーション】山口市小郡下郷７５１－４", "url": "https://www.kaigokensaku.mhlw.go.jp/35/index.php?action_kouhyou_detail_004_kani=true&JigyosyoCd=3517610022-00&ServiceCd=140&Type=search", "url2": "http://www.c-abie.ne.jp/^hayasihp" }, "geometry": { "type": "Point", "coordinates": [ 131.392965799999956, 34.1005071 ] } },
{ "type": "Feature", "properties": { "内容": "大正通りクリニック訪問リハビリテーション【訪問リハビリテーション】山口県山口市小郡明治2丁目1番5号", "url": "https://www.kaigokensaku.mhlw.go.jp/35/index.php?action_kouhyou_detail_004_kani=true&JigyosyoCd=3510313442-00&ServiceCd=140&Type=search", "url2": "https://www.taishoudouri-clinic.net" }, "geometry": { "type": "Point", "coordinates": [ 131.3971379, 34.0975632 ] } },
{ "type": "Feature", "properties": { "内容": "介護老人保健施設アーユス　訪問リハビリテーション【訪問リハビリテーション】山口県山口市大内矢田北５丁目１０番１号介護老人保健施設アーユス", "url": "https://www.kaigokensaku.mhlw.go.jp/35/index.php?action_kouhyou_detail_004_kani=true&JigyosyoCd=3550380046-00&ServiceCd=140&Type=search", "url2": "http://www.suiseikai.org" }, "geometry": { "type": "Point", "coordinates": [ 131.510028799999986, 34.1550548 ] } },
{ "type": "Feature", "properties": { "内容": "医療法人雄樹会おか整形外科病院【訪問リハビリテーション】山口県山口市中河原町２－１４", "url": "https://www.kaigokensaku.mhlw.go.jp/35/index.php?action_kouhyou_detail_004_kani=true&JigyosyoCd=3510311420-00&ServiceCd=140&Type=search", "url2": "http://www.oka-hospital.com" }, "geometry": { "type": "Point", "coordinates": [ 131.47564890000001, 34.17829244078203 ] } },
{ "type": "Feature", "properties": { "内容": "萩市国民健康保険弥富診療センター【訪問リハビリテーション】山口県萩市大字弥富下3995番地", "url": "https://www.kaigokensaku.mhlw.go.jp/35/index.php?action_kouhyou_detail_004_kani=true&JigyosyoCd=3518110253-00&ServiceCd=140&Type=search", "url2": null }, "geometry": { "type": "Point", "coordinates": [ 131.641398500000037, 34.5477015 ] } },
{ "type": "Feature", "properties": { "内容": "かわかみ整形通所リハビリテーション【訪問リハビリテーション】山口県萩市大字椿東2863-7", "url": "https://www.kaigokensaku.mhlw.go.jp/35/index.php?action_kouhyou_detail_004_kani=true&JigyosyoCd=3510411485-00&ServiceCd=140&Type=search", "url2": "http://kawakami-clinic.jimdo.com/" }, "geometry": { "type": "Point", "coordinates": [ 131.414017100000024, 34.4174957 ] } },
{ "type": "Feature", "properties": { "内容": "都志見病院　医誠会【訪問リハビリテーション】山口県萩市大字江向４１３番地の１", "url": "https://www.kaigokensaku.mhlw.go.jp/35/index.php?action_kouhyou_detail_004_kani=true&JigyosyoCd=3510411170-00&ServiceCd=140&Type=search", "url2": "http://www.tsushimi.jp" }, "geometry": { "type": "Point", "coordinates": [ 131.401026499999944, 34.4065185 ] } },
{ "type": "Feature", "properties": { "内容": "医療法人河野医院【訪問リハビリテーション】山口県萩市大井1723-1", "url": "https://www.kaigokensaku.mhlw.go.jp/35/index.php?action_kouhyou_detail_004_kani=true&JigyosyoCd=3510411444-00&ServiceCd=140&Type=search", "url2": "http://kono-kizuna.byoinnavi.jp" }, "geometry": { "type": "Point", "coordinates": [ 131.446652699999987, 34.4731586 ] } },
{ "type": "Feature", "properties": { "内容": "訪問リハビリテーション事業所　防府幸楽苑【訪問リハビリテーション】山口県防府市大字台道1634－１", "url": "https://www.kaigokensaku.mhlw.go.jp/35/index.php?action_kouhyou_detail_004_kani=true&JigyosyoCd=3550680007-00&ServiceCd=140&Type=search", "url2": "http://wadokai.or.jp/" }, "geometry": { "type": "Point", "coordinates": [ 131.4936621, 34.0695885 ] } },
{ "type": "Feature", "properties": { "内容": "医療法人実昌会　中司内科【訪問リハビリテーション】山口県防府市大字田島587-1", "url": "https://www.kaigokensaku.mhlw.go.jp/35/index.php?action_kouhyou_detail_004_kani=true&JigyosyoCd=3510612215-00&ServiceCd=140&Type=search", "url2": "https://jisshokai.com/" }, "geometry": { "type": "Point", "coordinates": [ 131.55621220674584, 34.024747529187835 ] } },
{ "type": "Feature", "properties": { "内容": "下松中央病院　訪問リハビリテーション【訪問リハビリテーション】山口県下松市古川町３丁目１－１", "url": "https://www.kaigokensaku.mhlw.go.jp/35/index.php?action_kouhyou_detail_004_kani=true&JigyosyoCd=3510711256-00&ServiceCd=140&Type=search", "url2": "https://ryokuzankai.jp/grp/kudamatsu/index.html" }, "geometry": { "type": "Point", "coordinates": [ 131.872236152149554, 34.007551199364144 ] } },
{ "type": "Feature", "properties": { "内容": "いりょうほうじんしゃだんにさんかいみずほないかくりにっくほうもんりはびりてーしょん【訪問リハビリテーション】山口県下松市瑞穂町2丁目21番1号", "url": "https://www.kaigokensaku.mhlw.go.jp/35/index.php?action_kouhyou_detail_004_kani=true&JigyosyoCd=3510710837-00&ServiceCd=140&Type=search", "url2": "https://www.abe-medicare.jp/" }, "geometry": { "type": "Point", "coordinates": [ 131.8519858, 34.023724 ] } },
{ "type": "Feature", "properties": { "内容": "介護老人保健施設ふくしの里【訪問リハビリテーション】山口県下松市生野屋南一丁目10番1号", "url": "https://www.kaigokensaku.mhlw.go.jp/35/index.php?action_kouhyou_detail_004_kani=true&JigyosyoCd=3550780013-00&ServiceCd=140&Type=search", "url2": "https://shunan-kinen.jp/hukusinosato.html" }, "geometry": { "type": "Point", "coordinates": [ 131.876613200000065, 34.0326424 ] } },
{ "type": "Feature", "properties": { "内容": "周南記念病院　訪問リハビリテーションセンター【訪問リハビリテーション】山口県下松市生野屋南1丁目10-1", "url": "https://www.kaigokensaku.mhlw.go.jp/35/index.php?action_kouhyou_detail_004_kani=true&JigyosyoCd=3510710282-00&ServiceCd=140&Type=search", "url2": null }, "geometry": { "type": "Point", "coordinates": [ 131.876286241664133, 34.032517788022496 ] } },
{ "type": "Feature", "properties": { "内容": "いしいケア・クリニック【訪問リハビリテーション】山口県岩国市麻里布町3-5-5", "url": "https://www.kaigokensaku.mhlw.go.jp/35/index.php?action_kouhyou_detail_004_kani=true&JigyosyoCd=3510812716-00&ServiceCd=140&Type=search", "url2": "http://www.i-shinseikai.or.jp" }, "geometry": { "type": "Point", "coordinates": [ 132.222425973016357, 34.169931737451009 ] } },
{ "type": "Feature", "properties": { "内容": "訪問リハビリステーション　桜の園【訪問リハビリテーション】下342-1", "url": "https://www.kaigokensaku.mhlw.go.jp/35/index.php?action_kouhyou_detail_004_kani=true&JigyosyoCd=3550880003-00&ServiceCd=140&Type=search", "url2": "https://i-shinseikai.or.jp/" }, "geometry": { "type": "Point", "coordinates": [ 132.093458, 34.160703 ] } },
{ "type": "Feature", "properties": { "内容": "岩国第一病院【訪問リハビリテーション】山口県岩国市岩国１丁目２０番４９号", "url": "https://www.kaigokensaku.mhlw.go.jp/35/index.php?action_kouhyou_detail_004_kani=true&JigyosyoCd=3510811742-00&ServiceCd=140&Type=search", "url2": "https://www.iwakuni-daiichi-hosp.com/" }, "geometry": { "type": "Point", "coordinates": [ 132.180792200000042, 34.1671252 ] } },
{ "type": "Feature", "properties": { "内容": "岩国市錦介護老人保健施設　あさぎりの郷【訪問リハビリテーション】山口県岩国市錦町広瀬705番地", "url": "https://www.kaigokensaku.mhlw.go.jp/35/index.php?action_kouhyou_detail_004_kani=true&JigyosyoCd=3550880045-00&ServiceCd=140&Type=search", "url2": "ｈｔｔｐ.//nishiki-ｆ.com/" }, "geometry": { "type": "Point", "coordinates": [ 131.952467, 34.2556784 ] } },
{ "type": "Feature", "properties": { "内容": "山口平成病院　訪問リハビリテーション【訪問リハビリテーション】山口県岩国市玖珂町１１３４０番地", "url": "https://www.kaigokensaku.mhlw.go.jp/35/index.php?action_kouhyou_detail_004_kani=true&JigyosyoCd=3517210831-00&ServiceCd=140&Type=search", "url2": "http://yamaguchihp.jp/" }, "geometry": { "type": "Point", "coordinates": [ 132.059236599999963, 34.1022024 ] } },
{ "type": "Feature", "properties": { "内容": "老人保健施設くが【訪問リハビリテーション】山口県岩国市玖珂町３８１３番地６", "url": "https://www.kaigokensaku.mhlw.go.jp/35/index.php?action_kouhyou_detail_004_kani=true&JigyosyoCd=3557280017-00&ServiceCd=140&Type=search", "url2": "http://takamori-fukushikai.or.jp/" }, "geometry": { "type": "Point", "coordinates": [ 132.098637142327874, 34.081932881015149 ] } },
{ "type": "Feature", "properties": { "内容": "医療法人和会　沖井クリニック【訪問リハビリテーション】岩国市元町４－５－１０", "url": "https://www.kaigokensaku.mhlw.go.jp/35/index.php?action_kouhyou_detail_004_kani=true&JigyosyoCd=3510812039-00&ServiceCd=140&Type=search", "url2": "http://www.ngm.jp/index.html" }, "geometry": { "type": "Point", "coordinates": [ 132.231371800000034, 34.1716891 ] } },
{ "type": "Feature", "properties": { "内容": "岩国市医療センター医師会病院【訪問リハビリテーション】山口県岩国市室の木町3-6-12", "url": "https://www.kaigokensaku.mhlw.go.jp/35/index.php?action_kouhyou_detail_004_kani=true&JigyosyoCd=3510812013-00&ServiceCd=140&Type=search", "url2": "http://iwakuni-med.jp" }, "geometry": { "type": "Point", "coordinates": [ 132.205879200000027, 34.1712361 ] } },
{ "type": "Feature", "properties": { "内容": "光市立大和総合病院【訪問リハビリテーション】山口県光市大字岩田９７４番地", "url": "https://www.kaigokensaku.mhlw.go.jp/35/index.php?action_kouhyou_detail_004_kani=true&JigyosyoCd=3517310011-00&ServiceCd=140&Type=search", "url2": "https://h-yamato-hosp.jp/" }, "geometry": { "type": "Point", "coordinates": [ 131.999812, 33.9828041 ] } },
{ "type": "Feature", "properties": { "内容": "医療法人やよい河村循環器神経内科【訪問リハビリテーション】山口県光市三井6丁目18-1", "url": "https://www.kaigokensaku.mhlw.go.jp/35/index.php?action_kouhyou_detail_004_kani=true&JigyosyoCd=3511010666-00&ServiceCd=140&Type=search", "url2": "https://www.yayoi-km.jp/" }, "geometry": { "type": "Point", "coordinates": [ 131.9528094183853, 33.988244027128559 ] } },
{ "type": "Feature", "properties": { "内容": "介護老人保健施設しまた川苑【訪問リハビリテーション】山口県光市島田5丁目-3-2", "url": "https://www.kaigokensaku.mhlw.go.jp/35/index.php?action_kouhyou_detail_004_kani=true&JigyosyoCd=3551080009-00&ServiceCd=140&Type=search", "url2": "https://www.aimeikai.jp/shimatagawa/" }, "geometry": { "type": "Point", "coordinates": [ 131.939876700000013, 33.9790838 ] } },
{ "type": "Feature", "properties": { "内容": "介護老人保健施設ナイスケアまほろば【訪問リハビリテーション】山口県光市岩田2477番地", "url": "https://www.kaigokensaku.mhlw.go.jp/35/index.php?action_kouhyou_detail_004_kani=true&JigyosyoCd=3551080025-00&ServiceCd=140&Type=search", "url2": "https://naisukeamahoroba.jimdofree.com/" }, "geometry": { "type": "Point", "coordinates": [ 131.9996222, 33.9819183 ] } },
{ "type": "Feature", "properties": { "内容": "医療法人社団光仁会　市川医院【訪問リハビリテーション】山口県光市中央3丁目2番26号", "url": "https://www.kaigokensaku.mhlw.go.jp/35/index.php?action_kouhyou_detail_004_kani=true&JigyosyoCd=3511010468-00&ServiceCd=140&Type=search", "url2": "https://kohjinkai-i.or.jp/" }, "geometry": { "type": "Point", "coordinates": [ 131.946206399999937, 33.9591166 ] } },
{ "type": "Feature", "properties": { "内容": "介護老人保健施設　福寿苑【訪問リハビリテーション】山口県長門市日置中2488番地3", "url": "https://www.kaigokensaku.mhlw.go.jp/35/index.php?action_kouhyou_detail_004_kani=true&JigyosyoCd=3558080002-00&ServiceCd=140&Type=search", "url2": "http://nagato-fukujyukai.or.jp" }, "geometry": { "type": "Point", "coordinates": [ 131.1099341, 34.3465679 ] } },
{ "type": "Feature", "properties": { "内容": "医療法人　社団成蹊会　岡田病院【訪問リハビリテーション】山口県長門市東深川888", "url": "https://www.kaigokensaku.mhlw.go.jp/35/index.php?action_kouhyou_detail_004_kani=true&JigyosyoCd=3511110375-00&ServiceCd=140&Type=search", "url2": "http://seikeikai-okada.or.jp/" }, "geometry": { "type": "Point", "coordinates": [ 131.186446899999964, 34.376955499999958 ] } },
{ "type": "Feature", "properties": { "内容": "長門総合病院訪問リハビリテーション【訪問リハビリテーション】山口県長門市東深川85番地", "url": "https://www.kaigokensaku.mhlw.go.jp/35/index.php?action_kouhyou_detail_004_kani=true&JigyosyoCd=3511110011-00&ServiceCd=140&Type=search", "url2": "https://www.nagato-hp.jp" }, "geometry": { "type": "Point", "coordinates": [ 131.195501899999954, 34.3739949 ] } },
{ "type": "Feature", "properties": { "内容": "周南リハビリテーション病院【訪問リハビリテーション】山口県周南市大字湯野4278番地1", "url": "https://www.kaigokensaku.mhlw.go.jp/35/index.php?action_kouhyou_detail_004_kani=true&JigyosyoCd=3510511771-00&ServiceCd=140&Type=search", "url2": "http://www.shunan-rh.jp/" }, "geometry": { "type": "Point", "coordinates": [ 131.674162577909811, 34.090134935584295 ] } },
{ "type": "Feature", "properties": { "内容": "介護老人保健施設　あおぞら【訪問リハビリテーション】山口県周南市大字栗屋字二葉屋開作1022-76", "url": "https://www.kaigokensaku.mhlw.go.jp/35/index.php?action_kouhyou_detail_004_kani=true&JigyosyoCd=3551580032-00&ServiceCd=140&Type=search", "url2": "http://www.shoueikai-sakamoto.com" }, "geometry": { "type": "Point", "coordinates": [ 131.835286, 34.0136133 ] } },
{ "type": "Feature", "properties": { "内容": "周南病院【訪問リハビリテーション】山口県周南市御幸通2丁目8番地", "url": "https://www.kaigokensaku.mhlw.go.jp/35/index.php?action_kouhyou_detail_004_kani=true&JigyosyoCd=3510511037-00&ServiceCd=140&Type=search", "url2": "https://shunan-hospital.info/" }, "geometry": { "type": "Point", "coordinates": [ 131.805454605557287, 34.05242120422843 ] } },
{ "type": "Feature", "properties": { "内容": "地域医療支援病院オープンシステム徳山医師会病院訪問リハビリテーション事業所【訪問リハビリテーション】山口県周南市東山町6番28号", "url": "https://www.kaigokensaku.mhlw.go.jp/35/index.php?action_kouhyou_detail_004_kani=true&JigyosyoCd=3510510930-00&ServiceCd=140&Type=search", "url2": "http://www.tokuyamaishikai.com/reha/top_page.html" }, "geometry": { "type": "Point", "coordinates": [ 131.816596, 34.05010290000002 ] } },
{ "type": "Feature", "properties": { "内容": "老人保健施設温泉の里【訪問リハビリテーション】山口県周南市大字湯野4204番地の１", "url": "https://www.kaigokensaku.mhlw.go.jp/35/index.php?action_kouhyou_detail_004_kani=true&JigyosyoCd=3550580025-00&ServiceCd=140&Type=search", "url2": "http://wwwchitokukai.com" }, "geometry": { "type": "Point", "coordinates": [ 131.674880900000062, 34.0943735 ] } },
{ "type": "Feature", "properties": { "内容": "医療法人社団生和会　徳山リハビリテーション病院【訪問リハビリテーション】山口県周南市大字徳山626番地", "url": "https://www.kaigokensaku.mhlw.go.jp/35/index.php?action_kouhyou_detail_004_kani=true&JigyosyoCd=3511510558-00&ServiceCd=140&Type=search", "url2": "http://www.tokuyama-rh.jp" }, "geometry": { "type": "Point", "coordinates": [ 131.823243072597506, 34.046158714821544 ] } },
{ "type": "Feature", "properties": { "内容": "医療法人周友会　徳山病院【訪問リハビリテーション】山口県周南市南浦山町5番14号", "url": "https://www.kaigokensaku.mhlw.go.jp/35/index.php?action_kouhyou_detail_004_kani=true&JigyosyoCd=3511510855-00&ServiceCd=140&Type=search", "url2": "https://tokuyama-hp.jp" }, "geometry": { "type": "Point", "coordinates": [ 131.788193, 34.0696588 ] } },
{ "type": "Feature", "properties": { "内容": "介護老人保健施設なごやか熊毛【訪問リハビリテーション】山口県周南市高水原2丁目7番21号", "url": "https://www.kaigokensaku.mhlw.go.jp/35/index.php?action_kouhyou_detail_004_kani=true&JigyosyoCd=3551580024-00&ServiceCd=140&Type=search", "url2": "http://kumage-rk.jp" }, "geometry": { "type": "Point", "coordinates": [ 131.973291, 34.0541482 ] } },
{ "type": "Feature", "properties": { "内容": "紫苑リハビリ内科クリニック【訪問リハビリテーション】山口県山陽小野田市大字厚狭字埴生田503番1", "url": "https://www.kaigokensaku.mhlw.go.jp/35/index.php?action_kouhyou_detail_004_kani=true&JigyosyoCd=3511610150-00&ServiceCd=140&Type=search", "url2": null }, "geometry": { "type": "Point", "coordinates": [ 131.161978500000032, 34.0540994 ] } },
{ "type": "Feature", "properties": { "内容": "医療法人社団　村重医院　訪問リハビリテーション【訪問リハビリテーション】山口県山陽小野田市須惠1丁目１２番１０号", "url": "https://www.kaigokensaku.mhlw.go.jp/35/index.php?action_kouhyou_detail_004_kani=true&JigyosyoCd=3510910783-00&ServiceCd=140&Type=search", "url2": "http://murashige.byoinnavi.jp" }, "geometry": { "type": "Point", "coordinates": [ 131.178715199999942, 33.9720916 ] } },
{ "type": "Feature", "properties": { "内容": "訪問リハビリテーションはなまる【訪問リハビリテーション】山口県大島郡周防大島町外入2228番地20", "url": "https://www.kaigokensaku.mhlw.go.jp/35/index.php?action_kouhyou_detail_004_kani=true&JigyosyoCd=3517110742-00&ServiceCd=140&Type=search", "url2": null }, "geometry": { "type": "Point", "coordinates": [ 132.330314, 33.8869676 ] } },
{ "type": "Feature", "properties": { "内容": "周防大島町立東和病院【訪問リハビリテーション】山口県大島郡周防大島町大字西方571番地1", "url": "https://www.kaigokensaku.mhlw.go.jp/35/index.php?action_kouhyou_detail_004_kani=true&JigyosyoCd=3517110676-00&ServiceCd=140&Type=search", "url2": "http://www.kouei.so.ecomas.jp/towa/" }, "geometry": { "type": "Point", "coordinates": [ 132.332882369814598, 33.895203646409541 ] } },
{ "type": "Feature", "properties": { "内容": "リハステーション緑の大地【訪問リハビリテーション】山口県熊毛郡平生町平生村670番地の1", "url": "https://www.kaigokensaku.mhlw.go.jp/35/index.php?action_kouhyou_detail_004_kani=true&JigyosyoCd=3517310912-00&ServiceCd=140&Type=search", "url2": null }, "geometry": { "type": "Point", "coordinates": [ 132.0791367, 33.9450777 ] } }
]
}
