{
"type": "FeatureCollection",
"name": "geo_35_看護小規模多機能型居宅介護（複合型サービス）",
"crs": { "type": "name", "properties": { "name": "urn:ogc:def:crs:OGC:1.3:CRS84" } },
"features": [
{ "type": "Feature", "properties": { "内容": "看護小規模多機能はぴれすと【看護小規模多機能型居宅介護（複合型サービス）】山口県下関市前田2丁目1-21", "url": "https://www.kaigokensaku.mhlw.go.jp/35/index.php?action_kouhyou_detail_004_kani=true&JigyosyoCd=3590108027-00&ServiceCd=&Type=search", "url2": null }, "geometry": { "type": "Point", "coordinates": [ 130.9672048, 33.9706726 ] } },
{ "type": "Feature", "properties": { "内容": "看護小規模多機能ケアタウンやすおか【看護小規模多機能型居宅介護（複合型サービス）】山口県下関市横野町３丁目１番２号ケアタウンやすおか", "url": "https://www.kaigokensaku.mhlw.go.jp/35/index.php?action_kouhyou_detail_004_kani=true&JigyosyoCd=3590108019-00&ServiceCd=&Type=search", "url2": "http://www.syoutoukai.or.jp/" }, "geometry": { "type": "Point", "coordinates": [ 130.9129685, 34.0347468 ] } },
{ "type": "Feature", "properties": { "内容": "さんコープ看護小規模多機能型居宅介護宮野【看護小規模多機能型居宅介護（複合型サービス）】山口県山口市桜畠二丁目９－１７", "url": "https://www.kaigokensaku.mhlw.go.jp/35/index.php?action_kouhyou_detail_004_kani=true&JigyosyoCd=3590300467-00&ServiceCd=&Type=search", "url2": "http://www.san-coop.jp/" }, "geometry": { "type": "Point", "coordinates": [ 131.501941119049064, 34.194548777447409 ] } },
{ "type": "Feature", "properties": { "内容": "青藍会在宅医療支援センター新山口看護小規模多機能型居宅介護【看護小規模多機能型居宅介護（複合型サービス）】山口県山口市小郡平成町1-18", "url": "https://www.kaigokensaku.mhlw.go.jp/35/index.php?action_kouhyou_detail_004_kani=true&JigyosyoCd=3590300400-00&ServiceCd=&Type=search", "url2": "http://www.seirankai.or.jp" }, "geometry": { "type": "Point", "coordinates": [ 131.4005043, 34.0878186 ] } },
{ "type": "Feature", "properties": { "内容": "青藍会　在宅医療支援センター南山口　看護小規模多機能型居宅介護【看護小規模多機能型居宅介護（複合型サービス）】山口県山口市深溝803-1ハートホーム南山口", "url": "https://www.kaigokensaku.mhlw.go.jp/35/index.php?action_kouhyou_detail_004_kani=true&JigyosyoCd=3590300541-00&ServiceCd=&Type=search", "url2": "http://www.seirankai.or.jp" }, "geometry": { "type": "Point", "coordinates": [ 131.367142199999989, 34.051509 ] } },
{ "type": "Feature", "properties": { "内容": "看護小規模多機能型居宅介護　東風【看護小規模多機能型居宅介護（複合型サービス）】山口県防府市大字下右田350-3", "url": "https://www.kaigokensaku.mhlw.go.jp/35/index.php?action_kouhyou_detail_004_kani=true&JigyosyoCd=3590600395-00&ServiceCd=&Type=search", "url2": "https://www.anshin-cls.net/" }, "geometry": { "type": "Point", "coordinates": [ 131.556539899999962, 34.073170800000021 ] } },
{ "type": "Feature", "properties": { "内容": "看護小規模多機能プルメリア【看護小規模多機能型居宅介護（複合型サービス）】山口県防府市大字新田818-1", "url": "https://www.kaigokensaku.mhlw.go.jp/35/index.php?action_kouhyou_detail_004_kani=true&JigyosyoCd=3590600379-00&ServiceCd=&Type=search", "url2": "nakatuka-naika.jp" }, "geometry": { "type": "Point", "coordinates": [ 131.564346, 34.0298379 ] } },
{ "type": "Feature", "properties": { "内容": "複合型サービス　ほのぼのハウス三田尻【看護小規模多機能型居宅介護（複合型サービス）】防府市東松崎町4番29号", "url": "https://www.kaigokensaku.mhlw.go.jp/35/index.php?action_kouhyou_detail_004_kani=true&JigyosyoCd=3590600247-00&ServiceCd=&Type=search", "url2": null }, "geometry": { "type": "Point", "coordinates": [ 131.579585899999984, 34.0591338 ] } },
{ "type": "Feature", "properties": { "内容": "ケアシステム　オレンジサークル【看護小規模多機能型居宅介護（複合型サービス）】山口県光市島田二丁目17-10", "url": "https://www.kaigokensaku.mhlw.go.jp/35/index.php?action_kouhyou_detail_004_kani=true&JigyosyoCd=3591000215-00&ServiceCd=&Type=search", "url2": "https://www.hch.or.jp" }, "geometry": { "type": "Point", "coordinates": [ 131.9333862, 33.970809 ] } },
{ "type": "Feature", "properties": { "内容": "看護小規模多機能サンリンク【看護小規模多機能型居宅介護（複合型サービス）】柳井市古開作479-3", "url": "https://www.kaigokensaku.mhlw.go.jp/35/index.php?action_kouhyou_detail_004_kani=true&JigyosyoCd=3591200112-00&ServiceCd=&Type=search", "url2": "https://yuwaen.net" }, "geometry": { "type": "Point", "coordinates": [ 132.095567266409262, 33.970100771052216 ] } },
{ "type": "Feature", "properties": { "内容": "看護小規模多機能ホーム　フクシア【看護小規模多機能型居宅介護（複合型サービス）】山口県山陽小野田市大字厚狭字埴生田498番1", "url": "https://www.kaigokensaku.mhlw.go.jp/35/index.php?action_kouhyou_detail_004_kani=true&JigyosyoCd=3591600279-00&ServiceCd=&Type=search", "url2": "http:/asashion.wixsite.com/kenjinkai" }, "geometry": { "type": "Point", "coordinates": [ 131.161978500000032, 34.0540994 ] } },
{ "type": "Feature", "properties": { "内容": "看護小規模多機能型居宅介護　そらり【看護小規模多機能型居宅介護（複合型サービス）】山口県山陽小野田市大字小野田西高泊1134番地1介護事業所　そらり", "url": "https://www.kaigokensaku.mhlw.go.jp/35/index.php?action_kouhyou_detail_004_kani=true&JigyosyoCd=3591600204-00&ServiceCd=&Type=search", "url2": "http://hayakawanaika.com/" }, "geometry": { "type": "Point", "coordinates": [ 131.170894741186544, 34.001596029903524 ] } }
]
}
