{
"type": "FeatureCollection",
"name": "geo_35_中学校",
"crs": { "type": "name", "properties": { "name": "urn:ogc:def:crs:EPSG::6668" } },
"features": [
{ "type": "Feature", "properties": { "P29_001": "35203", "P29_002": "C135110000018", "P29_003": "16002", "P29_004": "山口大学教育学部附属山口中学校", "P29_005": "山口県山口市白石1-9-1", "P29_006": "1", "P29_007": "1", "P29_008": "00", "P29_009": null }, "geometry": { "type": "Point", "coordinates": [ 131.471237335217126, 34.178115366322835 ] } },
{ "type": "Feature", "properties": { "P29_001": "35210", "P29_002": "C135110000027", "P29_003": "16002", "P29_004": "山口大学教育学部附属光中学校", "P29_005": "山口県光市室積8-4-1", "P29_006": "1", "P29_007": "1", "P29_008": "00", "P29_009": null }, "geometry": { "type": "Point", "coordinates": [ 131.970159306824314, 33.919318716510681 ] } },
{ "type": "Feature", "properties": { "P29_001": "35201", "P29_002": "C135210000016", "P29_003": "16002", "P29_004": "下関市立日新中学校", "P29_005": "山口県下関市上田中町1-15-1", "P29_006": "3", "P29_007": "1", "P29_008": "00", "P29_009": null }, "geometry": { "type": "Point", "coordinates": [ 130.937837124761018, 33.967899539170055 ] } },
{ "type": "Feature", "properties": { "P29_001": "35201", "P29_002": "C135210000025", "P29_003": "16002", "P29_004": "下関市立向洋中学校", "P29_005": "山口県下関市向洋町1-14-1", "P29_006": "3", "P29_007": "1", "P29_008": "00", "P29_009": null }, "geometry": { "type": "Point", "coordinates": [ 130.930519545358123, 33.964304147261863 ] } },
{ "type": "Feature", "properties": { "P29_001": "35201", "P29_002": "C135210000034", "P29_003": "16002", "P29_004": "下関市立文洋中学校", "P29_005": "山口県下関市上新地町5-6-1", "P29_006": "3", "P29_007": "1", "P29_008": "00", "P29_009": null }, "geometry": { "type": "Point", "coordinates": [ 130.913481003654852, 33.957871002092695 ] } },
{ "type": "Feature", "properties": { "P29_001": "35201", "P29_002": "C135210000043", "P29_003": "16002", "P29_004": "下関市立名陵中学校", "P29_005": "山口県下関市丸山町1-13-3", "P29_006": "3", "P29_007": "1", "P29_008": "00", "P29_009": null }, "geometry": { "type": "Point", "coordinates": [ 130.936293504352449, 33.95834960870426 ] } },
{ "type": "Feature", "properties": { "P29_001": "35201", "P29_002": "C135210000052", "P29_003": "16002", "P29_004": "下関市立東部中学校", "P29_005": "山口県下関市清末陣屋5-10", "P29_006": "3", "P29_007": "1", "P29_008": "00", "P29_009": null }, "geometry": { "type": "Point", "coordinates": [ 131.023202913816732, 34.065167272689337 ] } },
{ "type": "Feature", "properties": { "P29_001": "35201", "P29_002": "C135210000061", "P29_003": "16002", "P29_004": "下関市立長府中学校", "P29_005": "山口県下関市長府逢坂町3-1", "P29_006": "3", "P29_007": "1", "P29_008": "00", "P29_009": null }, "geometry": { "type": "Point", "coordinates": [ 130.983032403456065, 33.998396814746329 ] } },
{ "type": "Feature", "properties": { "P29_001": "35201", "P29_002": "C135210000070", "P29_003": "16002", "P29_004": "下関市立勝山中学校", "P29_005": "山口県下関市秋根上町2-5-1", "P29_006": "3", "P29_007": "1", "P29_008": "00", "P29_009": null }, "geometry": { "type": "Point", "coordinates": [ 130.95899926947169, 34.010860260754519 ] } },
{ "type": "Feature", "properties": { "P29_001": "35201", "P29_002": "C135210000089", "P29_003": "16002", "P29_004": "下関市立川中中学校", "P29_005": "山口県下関市伊倉新町4-6-1", "P29_006": "3", "P29_007": "1", "P29_008": "00", "P29_009": null }, "geometry": { "type": "Point", "coordinates": [ 130.934482079093982, 34.005083436529468 ] } },
{ "type": "Feature", "properties": { "P29_001": "35201", "P29_002": "C135210000098", "P29_003": "16002", "P29_004": "下関市立安岡中学校", "P29_005": "山口県下関市安岡町4-2-1", "P29_006": "3", "P29_007": "1", "P29_008": "00", "P29_009": null }, "geometry": { "type": "Point", "coordinates": [ 130.919764630465949, 34.033146700938104 ] } },
{ "type": "Feature", "properties": { "P29_001": "35201", "P29_002": "C135210000105", "P29_003": "16002", "P29_004": "下関市立吉見中学校", "P29_005": "山口県下関市永田本町1-3-10", "P29_006": "3", "P29_007": "1", "P29_008": "00", "P29_009": null }, "geometry": { "type": "Point", "coordinates": [ 130.895054111533142, 34.073446642751776 ] } },
{ "type": "Feature", "properties": { "P29_001": "35201", "P29_002": "C135210000114", "P29_003": "16002", "P29_004": "下関市立彦島中学校", "P29_005": "山口県下関市彦島江の浦町2-25-1", "P29_006": "3", "P29_007": "1", "P29_008": "00", "P29_009": null }, "geometry": { "type": "Point", "coordinates": [ 130.911443484351764, 33.934105711545833 ] } },
{ "type": "Feature", "properties": { "P29_001": "35201", "P29_002": "C135210000123", "P29_003": "16002", "P29_004": "下関市立木屋川中学校", "P29_005": "山口県下関市木屋川南町2-660", "P29_006": "3", "P29_007": "1", "P29_008": "00", "P29_009": null }, "geometry": { "type": "Point", "coordinates": [ 131.056102744517119, 34.073300853572782 ] } },
{ "type": "Feature", "properties": { "P29_001": "35201", "P29_002": "C135210000132", "P29_003": "16002", "P29_004": "下関市立内日中学校", "P29_005": "山口県下関市大字内日下字福寿庵1196-2", "P29_006": "3", "P29_007": "1", "P29_008": "00", "P29_009": null }, "geometry": { "type": "Point", "coordinates": [ 130.968860471611009, 34.103158933484295 ] } },
{ "type": "Feature", "properties": { "P29_001": "35201", "P29_002": "C135210000141", "P29_003": "16002", "P29_004": "下関市立山の田中学校", "P29_005": "山口県下関市山の田本町8-1", "P29_006": "3", "P29_007": "1", "P29_008": "00", "P29_009": null }, "geometry": { "type": "Point", "coordinates": [ 130.927038873970446, 33.989204172525419 ] } },
{ "type": "Feature", "properties": { "P29_001": "35201", "P29_002": "C135210000150", "P29_003": "16002", "P29_004": "下関市立玄洋中学校", "P29_005": "山口県下関市彦島本村町2-8-1", "P29_006": "3", "P29_007": "1", "P29_008": "00", "P29_009": null }, "geometry": { "type": "Point", "coordinates": [ 130.906904917642805, 33.942886971600295 ] } },
{ "type": "Feature", "properties": { "P29_001": "35201", "P29_002": "C135210000169", "P29_003": "16002", "P29_004": "下関市立垢田中学校", "P29_005": "山口県下関市大字垢田字笹原1127-6", "P29_006": "3", "P29_007": "1", "P29_008": "00", "P29_009": null }, "geometry": { "type": "Point", "coordinates": [ 130.914344478532314, 33.997550093687792 ] } },
{ "type": "Feature", "properties": { "P29_001": "35201", "P29_002": "C135210000178", "P29_003": "16002", "P29_004": "下関市立長成中学校", "P29_005": "山口県下関市長府日の出町4-1", "P29_006": "3", "P29_007": "1", "P29_008": "00", "P29_009": null }, "geometry": { "type": "Point", "coordinates": [ 130.993983505493304, 34.015727694487609 ] } },
{ "type": "Feature", "properties": { "P29_001": "35202", "P29_002": "C135210000187", "P29_003": "16002", "P29_004": "宇部市立東岐波中学校", "P29_005": "山口県宇部市大字東岐波字向山3828", "P29_006": "3", "P29_007": "1", "P29_008": "00", "P29_009": null }, "geometry": { "type": "Point", "coordinates": [ 131.337415184383616, 33.978230547302026 ] } },
{ "type": "Feature", "properties": { "P29_001": "35202", "P29_002": "C135210000196", "P29_003": "16002", "P29_004": "宇部市立西岐波中学校", "P29_005": "山口県宇部市床波4-1-40", "P29_006": "3", "P29_007": "1", "P29_008": "00", "P29_009": null }, "geometry": { "type": "Point", "coordinates": [ 131.314256223019413, 33.958455088265168 ] } },
{ "type": "Feature", "properties": { "P29_001": "35202", "P29_002": "C135210000203", "P29_003": "16002", "P29_004": "宇部市立常盤中学校", "P29_005": "山口県宇部市上野中町3-40", "P29_006": "3", "P29_007": "1", "P29_008": "00", "P29_009": null }, "geometry": { "type": "Point", "coordinates": [ 131.273899360978874, 33.952106262194029 ] } },
{ "type": "Feature", "properties": { "P29_001": "35202", "P29_002": "C135210000212", "P29_003": "16002", "P29_004": "宇部市立上宇部中学校", "P29_005": "山口県宇部市沼2-4-8", "P29_006": "3", "P29_007": "1", "P29_008": "00", "P29_009": null }, "geometry": { "type": "Point", "coordinates": [ 131.265760741720555, 33.960870175059611 ] } },
{ "type": "Feature", "properties": { "P29_001": "35202", "P29_002": "C135210000221", "P29_003": "16002", "P29_004": "宇部市立神原中学校", "P29_005": "山口県宇部市東梶返4-8-1", "P29_006": "3", "P29_007": "1", "P29_008": "00", "P29_009": null }, "geometry": { "type": "Point", "coordinates": [ 131.263613204246496, 33.950168675348124 ] } },
{ "type": "Feature", "properties": { "P29_001": "35202", "P29_002": "C135210000230", "P29_003": "16002", "P29_004": "宇部市立桃山中学校", "P29_005": "山口県宇部市大字小串字蛭子田671", "P29_006": "3", "P29_007": "1", "P29_008": "00", "P29_009": null }, "geometry": { "type": "Point", "coordinates": [ 131.250610321135412, 33.971701957795887 ] } },
{ "type": "Feature", "properties": { "P29_001": "35202", "P29_002": "C135210000249", "P29_003": "16002", "P29_004": "宇部市立藤山中学校", "P29_005": "山口県宇部市文京町10-50", "P29_006": "3", "P29_007": "1", "P29_008": "00", "P29_009": null }, "geometry": { "type": "Point", "coordinates": [ 131.229296256475664, 33.974030676755305 ] } },
{ "type": "Feature", "properties": { "P29_001": "35202", "P29_002": "C135210000258", "P29_003": "16002", "P29_004": "宇部市立厚南中学校", "P29_005": "山口県宇部市大字東須恵字上岡の上222", "P29_006": "3", "P29_007": "1", "P29_008": "00", "P29_009": null }, "geometry": { "type": "Point", "coordinates": [ 131.209206123944057, 33.995542527510942 ] } },
{ "type": "Feature", "properties": { "P29_001": "35202", "P29_002": "C135210000267", "P29_003": "16002", "P29_004": "宇部市立川上中学校", "P29_005": "山口県宇部市大字西岐波字萩原6531", "P29_006": "3", "P29_007": "1", "P29_008": "00", "P29_009": null }, "geometry": { "type": "Point", "coordinates": [ 131.285284284152283, 33.977106898635583 ] } },
{ "type": "Feature", "properties": { "P29_001": "35202", "P29_002": "C135210000276", "P29_003": "16002", "P29_004": "宇部市立黒石中学校", "P29_005": "山口県宇部市大字東須恵字見妙田476-2", "P29_006": "3", "P29_007": "1", "P29_008": "00", "P29_009": null }, "geometry": { "type": "Point", "coordinates": [ 131.197797008991046, 33.985409284071999 ] } },
{ "type": "Feature", "properties": { "P29_001": "35202", "P29_002": "C135210000285", "P29_003": "16002", "P29_004": "宇部市立厚東川中学校", "P29_005": "山口県宇部市大字吉見字藪台1184", "P29_006": "3", "P29_007": "1", "P29_008": "00", "P29_009": null }, "geometry": { "type": "Point", "coordinates": [ 131.26486065044466, 34.041688647530968 ] } },
{ "type": "Feature", "properties": { "P29_001": "35203", "P29_002": "C135210000294", "P29_003": "16002", "P29_004": "山口市立宮野中学校", "P29_005": "山口県山口市桜畠4-9-1", "P29_006": "3", "P29_007": "1", "P29_008": "00", "P29_009": null }, "geometry": { "type": "Point", "coordinates": [ 131.501348335395761, 34.197626223004704 ] } },
{ "type": "Feature", "properties": { "P29_001": "35203", "P29_002": "C135210000301", "P29_003": "16002", "P29_004": "山口市立大殿中学校", "P29_005": "山口県山口市古熊1-4-1", "P29_006": "3", "P29_007": "1", "P29_008": "00", "P29_009": null }, "geometry": { "type": "Point", "coordinates": [ 131.48451709700376, 34.176969867177064 ] } },
{ "type": "Feature", "properties": { "P29_001": "35203", "P29_002": "C135210000310", "P29_003": "16002", "P29_004": "山口市立白石中学校", "P29_005": "山口県山口市白石2-7-1", "P29_006": "3", "P29_007": "1", "P29_008": "00", "P29_009": null }, "geometry": { "type": "Point", "coordinates": [ 131.469404122567312, 34.176613830213697 ] } },
{ "type": "Feature", "properties": { "P29_001": "35203", "P29_002": "C135210000329", "P29_003": "16002", "P29_004": "山口市立湯田中学校", "P29_005": "山口県山口市楠木町7-1", "P29_006": "3", "P29_007": "1", "P29_008": "00", "P29_009": null }, "geometry": { "type": "Point", "coordinates": [ 131.452217771317606, 34.171793921190819 ] } },
{ "type": "Feature", "properties": { "P29_001": "35203", "P29_002": "C135210000338", "P29_003": "16002", "P29_004": "山口市立鴻南中学校", "P29_005": "山口県山口市維新公園4-7-1", "P29_006": "3", "P29_007": "1", "P29_008": "00", "P29_009": null }, "geometry": { "type": "Point", "coordinates": [ 131.434533102570327, 34.154130666798395 ] } },
{ "type": "Feature", "properties": { "P29_001": "35203", "P29_002": "C135210000347", "P29_003": "16002", "P29_004": "山口市立二島中学校", "P29_005": "山口県山口市秋穂二島10558-1", "P29_006": "3", "P29_007": "1", "P29_008": "00", "P29_009": null }, "geometry": { "type": "Point", "coordinates": [ 131.424448743212054, 34.040820825208947 ] } },
{ "type": "Feature", "properties": { "P29_001": "35203", "P29_002": "C135210000356", "P29_003": "16002", "P29_004": "山口市立川西中学校", "P29_005": "山口県山口市嘉川4352-2", "P29_006": "3", "P29_007": "1", "P29_008": "00", "P29_009": null }, "geometry": { "type": "Point", "coordinates": [ 131.367810482725417, 34.067942360358074 ] } },
{ "type": "Feature", "properties": { "P29_001": "35203", "P29_002": "C135210000365", "P29_003": "16002", "P29_004": "山口市立潟上中学校", "P29_005": "山口県山口市陶1912", "P29_006": "3", "P29_007": "1", "P29_008": "00", "P29_009": null }, "geometry": { "type": "Point", "coordinates": [ 131.432187044799576, 34.079239807629541 ] } },
{ "type": "Feature", "properties": { "P29_001": "35203", "P29_002": "C135210000374", "P29_003": "16002", "P29_004": "山口市立仁保中学校", "P29_005": "山口県山口市仁保中郷84", "P29_006": "3", "P29_007": "1", "P29_008": "00", "P29_009": null }, "geometry": { "type": "Point", "coordinates": [ 131.558337002392307, 34.215329998994925 ] } },
{ "type": "Feature", "properties": { "P29_001": "35203", "P29_002": "C135210000383", "P29_003": "16002", "P29_004": "山口市立大内中学校", "P29_005": "山口県山口市大内長野555", "P29_006": "3", "P29_007": "1", "P29_008": "00", "P29_009": null }, "geometry": { "type": "Point", "coordinates": [ 131.520765755829188, 34.15410716798214 ] } },
{ "type": "Feature", "properties": { "P29_001": "35203", "P29_002": "C135210000392", "P29_003": "16002", "P29_004": "山口市立平川中学校", "P29_005": "山口県山口市黒川1231-1", "P29_006": "3", "P29_007": "1", "P29_008": "00", "P29_009": null }, "geometry": { "type": "Point", "coordinates": [ 131.457232641181946, 34.139679182768631 ] } },
{ "type": "Feature", "properties": { "P29_001": "35203", "P29_002": "C135210000409", "P29_003": "16002", "P29_004": "山口市立大内中学校氷上分校", "P29_005": "山口県山口市大内氷上7-5-1", "P29_006": "3", "P29_007": "1", "P29_008": "00", "P29_009": null }, "geometry": { "type": "Point", "coordinates": [ 131.507018445176698, 34.161453052328987 ] } },
{ "type": "Feature", "properties": { "P29_001": "35204", "P29_002": "C135210000418", "P29_003": "16002", "P29_004": "萩市立越ヶ浜中学校", "P29_005": "山口県萩市大字椿東6089-4", "P29_006": "3", "P29_007": "1", "P29_008": "00", "P29_009": null }, "geometry": { "type": "Point", "coordinates": [ 131.422266726363517, 34.443129423873735 ] } },
{ "type": "Feature", "properties": { "P29_001": "35204", "P29_002": "C135210000427", "P29_003": "16002", "P29_004": "萩市立三見中学校", "P29_005": "山口県萩市三見3523-1", "P29_006": "3", "P29_007": "1", "P29_008": "00", "P29_009": null }, "geometry": { "type": "Point", "coordinates": [ 131.333371967540273, 34.391897884303404 ] } },
{ "type": "Feature", "properties": { "P29_001": "35204", "P29_002": "C135210000436", "P29_003": "16002", "P29_004": "萩市立大井中学校", "P29_005": "山口県萩市大井1126", "P29_006": "3", "P29_007": "1", "P29_008": "00", "P29_009": null }, "geometry": { "type": "Point", "coordinates": [ 131.456824774794825, 34.467987114502378 ] } },
{ "type": "Feature", "properties": { "P29_001": "35204", "P29_002": "C135210000445", "P29_003": "16002", "P29_004": "萩市立大島中学校", "P29_005": "山口県萩市大島211", "P29_006": "3", "P29_007": "1", "P29_008": "00", "P29_009": null }, "geometry": { "type": "Point", "coordinates": [ 131.405019747596754, 34.492801143922428 ] } },
{ "type": "Feature", "properties": { "P29_001": "35204", "P29_002": "C135210000454", "P29_003": "16002", "P29_004": "萩市立相島中学校", "P29_005": "山口県萩市相島9", "P29_006": "3", "P29_007": "1", "P29_008": "00", "P29_009": null }, "geometry": { "type": "Point", "coordinates": [ 131.281934334922141, 34.50338000608987 ] } },
{ "type": "Feature", "properties": { "P29_001": "35204", "P29_002": "C135210000463", "P29_003": "16002", "P29_004": "萩市立見島中学校", "P29_005": "山口県萩市見島657", "P29_006": "3", "P29_007": "1", "P29_008": "00", "P29_009": null }, "geometry": { "type": "Point", "coordinates": [ 131.151587757250411, 34.764852474964734 ] } },
{ "type": "Feature", "properties": { "P29_001": "35204", "P29_002": "C135210000472", "P29_003": "16002", "P29_004": "萩市立萩東中学校", "P29_005": "山口県萩市大字土原556-1", "P29_006": "3", "P29_007": "1", "P29_008": "00", "P29_009": null }, "geometry": { "type": "Point", "coordinates": [ 131.406213508900322, 34.412517581995857 ] } },
{ "type": "Feature", "properties": { "P29_001": "35204", "P29_002": "C135210000481", "P29_003": "16002", "P29_004": "萩市立萩西中学校", "P29_005": "山口県萩市大字堀内261", "P29_006": "3", "P29_007": "1", "P29_008": "00", "P29_009": null }, "geometry": { "type": "Point", "coordinates": [ 131.387695944815277, 34.412855858041297 ] } },
{ "type": "Feature", "properties": { "P29_001": "35215", "P29_002": "C135210000490", "P29_003": "16002", "P29_004": "周南市立鼓南中学校", "P29_005": "山口県周南市大字大島10880", "P29_006": "3", "P29_007": "1", "P29_008": "00", "P29_009": null }, "geometry": { "type": "Point", "coordinates": [ 131.776876904954207, 33.983619505744826 ] } },
{ "type": "Feature", "properties": { "P29_001": "35215", "P29_002": "C135210000506", "P29_003": "16002", "P29_004": "周南市立太華中学校", "P29_005": "山口県周南市大字久米4117-4", "P29_006": "3", "P29_007": "1", "P29_008": "00", "P29_009": null }, "geometry": { "type": "Point", "coordinates": [ 131.831588494377769, 34.033423858126262 ] } },
{ "type": "Feature", "properties": { "P29_001": "35215", "P29_002": "C135210000515", "P29_003": "16002", "P29_004": "周南市立岐陽中学校", "P29_005": "山口県周南市大字徳山4915", "P29_006": "3", "P29_007": "1", "P29_008": "00", "P29_009": null }, "geometry": { "type": "Point", "coordinates": [ 131.814311261580798, 34.05460560847213 ] } },
{ "type": "Feature", "properties": { "P29_001": "35215", "P29_002": "C135210000524", "P29_003": "16002", "P29_004": "周南市立住吉中学校", "P29_005": "山口県周南市住吉町1-80", "P29_006": "3", "P29_007": "1", "P29_008": "00", "P29_009": null }, "geometry": { "type": "Point", "coordinates": [ 131.805768235584424, 34.06410278455904 ] } },
{ "type": "Feature", "properties": { "P29_001": "35215", "P29_002": "C135210000533", "P29_003": "16002", "P29_004": "周南市立菊川中学校", "P29_005": "山口県周南市大字上村685-2", "P29_006": "3", "P29_007": "1", "P29_008": "00", "P29_009": null }, "geometry": { "type": "Point", "coordinates": [ 131.790155539214567, 34.096072910995034 ] } },
{ "type": "Feature", "properties": { "P29_001": "35215", "P29_002": "C135210000542", "P29_003": "16002", "P29_004": "周南市立桜田中学校", "P29_005": "山口県周南市大字戸田2960", "P29_006": "3", "P29_007": "1", "P29_008": "00", "P29_009": null }, "geometry": { "type": "Point", "coordinates": [ 131.686923308314391, 34.079459458912687 ] } },
{ "type": "Feature", "properties": { "P29_001": "35215", "P29_002": "C135210000551", "P29_003": "16002", "P29_004": "周南市立大津島中学校", "P29_005": "山口県周南市大字大津島1964-1", "P29_006": "3", "P29_007": "9", "P29_008": "00", "P29_009": null }, "geometry": { "type": "Point", "coordinates": [ 131.718570003679702, 33.991590000755728 ] } },
{ "type": "Feature", "properties": { "P29_001": "35215", "P29_002": "C135210000560", "P29_003": "16002", "P29_004": "周南市立須金中学校", "P29_005": "山口県周南市大字須万2581", "P29_006": "3", "P29_007": "9", "P29_008": "00", "P29_009": null }, "geometry": { "type": "Point", "coordinates": [ 131.922157768249093, 34.200814420967077 ] } },
{ "type": "Feature", "properties": { "P29_001": "35215", "P29_002": "C135210000579", "P29_003": "16002", "P29_004": "周南市立中須中学校", "P29_005": "山口県周南市大字中須南2281", "P29_006": "3", "P29_007": "9", "P29_008": "00", "P29_009": null }, "geometry": { "type": "Point", "coordinates": [ 131.917004005359502, 34.115515998265117 ] } },
{ "type": "Feature", "properties": { "P29_001": "35215", "P29_002": "C135210000588", "P29_003": "16002", "P29_004": "周南市立須々万中学校", "P29_005": "山口県周南市大字須々万本郷10362-5", "P29_006": "3", "P29_007": "1", "P29_008": "00", "P29_009": null }, "geometry": { "type": "Point", "coordinates": [ 131.865903512383255, 34.113794564864314 ] } },
{ "type": "Feature", "properties": { "P29_001": "35215", "P29_002": "C135210000597", "P29_003": "16002", "P29_004": "周南市立周陽中学校", "P29_005": "山口県周南市周陽3-3-1", "P29_006": "3", "P29_007": "1", "P29_008": "00", "P29_009": null }, "geometry": { "type": "Point", "coordinates": [ 131.830335076395755, 34.044124897754216 ] } },
{ "type": "Feature", "properties": { "P29_001": "35215", "P29_002": "C135210000604", "P29_003": "16002", "P29_004": "周南市立秋月中学校", "P29_005": "山口県周南市秋月1-1-53", "P29_006": "3", "P29_007": "1", "P29_008": "00", "P29_009": null }, "geometry": { "type": "Point", "coordinates": [ 131.825664405162598, 34.053270146781685 ] } },
{ "type": "Feature", "properties": { "P29_001": "35206", "P29_002": "C135210000613", "P29_003": "16002", "P29_004": "防府市立富海中学校", "P29_005": "山口県防府市大字富海1246-1", "P29_006": "3", "P29_007": "1", "P29_008": "00", "P29_009": null }, "geometry": { "type": "Point", "coordinates": [ 131.647404037033084, 34.052260382284437 ] } },
{ "type": "Feature", "properties": { "P29_001": "35206", "P29_002": "C135210000622", "P29_003": "16002", "P29_004": "防府市立国府中学校", "P29_005": "山口県防府市国衙5-11-19", "P29_006": "3", "P29_007": "1", "P29_008": "00", "P29_009": null }, "geometry": { "type": "Point", "coordinates": [ 131.591553733335701, 34.054446066675041 ] } },
{ "type": "Feature", "properties": { "P29_001": "35206", "P29_002": "C135210000631", "P29_003": "16002", "P29_004": "防府市立桑山中学校", "P29_005": "山口県防府市桑山2-7-26", "P29_006": "3", "P29_007": "1", "P29_008": "00", "P29_009": null }, "geometry": { "type": "Point", "coordinates": [ 131.561524083526706, 34.046419661063496 ] } },
{ "type": "Feature", "properties": { "P29_001": "35206", "P29_002": "C135210000640", "P29_003": "16002", "P29_004": "防府市立野島中学校", "P29_005": "山口県防府市大字野島158-1", "P29_006": "3", "P29_007": "1", "P29_008": "00", "P29_009": null }, "geometry": { "type": "Point", "coordinates": [ 131.696064186579008, 33.943741525892662 ] } },
{ "type": "Feature", "properties": { "P29_001": "35206", "P29_002": "C135210000659", "P29_003": "16002", "P29_004": "防府市立華陽中学校", "P29_005": "山口県防府市大字田島719-2", "P29_006": "3", "P29_007": "1", "P29_008": "00", "P29_009": null }, "geometry": { "type": "Point", "coordinates": [ 131.560293161312558, 34.02619438509943 ] } },
{ "type": "Feature", "properties": { "P29_001": "35206", "P29_002": "C135210000668", "P29_003": "16002", "P29_004": "防府市立華西中学校", "P29_005": "山口県防府市大字西浦10545-2", "P29_006": "3", "P29_007": "1", "P29_008": "00", "P29_009": null }, "geometry": { "type": "Point", "coordinates": [ 131.531007291473628, 34.030829366678923 ] } },
{ "type": "Feature", "properties": { "P29_001": "35206", "P29_002": "C135210000677", "P29_003": "16002", "P29_004": "防府市立佐波中学校", "P29_005": "山口県防府市迫戸町16-37", "P29_006": "3", "P29_007": "1", "P29_008": "00", "P29_009": null }, "geometry": { "type": "Point", "coordinates": [ 131.569340144732422, 34.066037398232439 ] } },
{ "type": "Feature", "properties": { "P29_001": "35206", "P29_002": "C135210000686", "P29_003": "16002", "P29_004": "防府市立小野中学校", "P29_005": "山口県防府市大字奈美25", "P29_006": "3", "P29_007": "1", "P29_008": "00", "P29_009": null }, "geometry": { "type": "Point", "coordinates": [ 131.60540631980777, 34.129522171969327 ] } },
{ "type": "Feature", "properties": { "P29_001": "35206", "P29_002": "C135210000695", "P29_003": "16002", "P29_004": "防府市立右田中学校", "P29_005": "山口県防府市大字高井565", "P29_006": "3", "P29_007": "1", "P29_008": "00", "P29_009": null }, "geometry": { "type": "Point", "coordinates": [ 131.555780162588832, 34.070329258185915 ] } },
{ "type": "Feature", "properties": { "P29_001": "35206", "P29_002": "C135210000702", "P29_003": "16002", "P29_004": "防府市立大道中学校", "P29_005": "山口県防府市大字台道1124", "P29_006": "3", "P29_007": "1", "P29_008": "00", "P29_009": null }, "geometry": { "type": "Point", "coordinates": [ 131.489608708815211, 34.067348717391241 ] } },
{ "type": "Feature", "properties": { "P29_001": "35206", "P29_002": "C135210000711", "P29_003": "16002", "P29_004": "防府市立牟礼中学校", "P29_005": "山口県防府市敷山町1-1", "P29_006": "3", "P29_007": "1", "P29_008": "00", "P29_009": null }, "geometry": { "type": "Point", "coordinates": [ 131.599074095527584, 34.065694412591469 ] } },
{ "type": "Feature", "properties": { "P29_001": "35207", "P29_002": "C135210000720", "P29_003": "16002", "P29_004": "下松市立下松中学校", "P29_005": "山口県下松市古川町2-1-1", "P29_006": "3", "P29_007": "1", "P29_008": "00", "P29_009": null }, "geometry": { "type": "Point", "coordinates": [ 131.870725403541996, 34.008974478072737 ] } },
{ "type": "Feature", "properties": { "P29_001": "35207", "P29_002": "C135210000739", "P29_003": "16002", "P29_004": "下松市立久保中学校", "P29_005": "山口県下松市大字山田122", "P29_006": "3", "P29_007": "1", "P29_008": "00", "P29_009": null }, "geometry": { "type": "Point", "coordinates": [ 131.900013112856271, 34.029879950525157 ] } },
{ "type": "Feature", "properties": { "P29_001": "35207", "P29_002": "C135210000748", "P29_003": "16002", "P29_004": "下松市立末武中学校", "P29_005": "山口県下松市美里町1-8-1", "P29_006": "3", "P29_007": "1", "P29_008": "00", "P29_009": null }, "geometry": { "type": "Point", "coordinates": [ 131.865599288410664, 34.025992687992819 ] } },
{ "type": "Feature", "properties": { "P29_001": "35208", "P29_002": "C135210000757", "P29_003": "16002", "P29_004": "岩国市立御庄中学校", "P29_005": "山口県岩国市御庄2027-2", "P29_006": "3", "P29_007": "9", "P29_008": "00", "P29_009": null }, "geometry": { "type": "Point", "coordinates": [ 132.150826973673816, 34.160270818996153 ] } },
{ "type": "Feature", "properties": { "P29_001": "35208", "P29_002": "C135210000766", "P29_003": "16002", "P29_004": "岩国市立通津中学校", "P29_005": "山口県岩国市通津2701", "P29_006": "3", "P29_007": "1", "P29_008": "00", "P29_009": null }, "geometry": { "type": "Point", "coordinates": [ 132.204359633552002, 34.072272081598072 ] } },
{ "type": "Feature", "properties": { "P29_001": "35208", "P29_002": "C135210000775", "P29_003": "16002", "P29_004": "岩国市立岩国中学校", "P29_005": "山口県岩国市錦見2-5-80", "P29_006": "3", "P29_007": "1", "P29_008": "00", "P29_009": null }, "geometry": { "type": "Point", "coordinates": [ 132.192377048512981, 34.167512781032045 ] } },
{ "type": "Feature", "properties": { "P29_001": "35208", "P29_002": "C135210000784", "P29_003": "16002", "P29_004": "岩国市立麻里布中学校", "P29_005": "山口県岩国市室の木町2-7-11", "P29_006": "3", "P29_007": "1", "P29_008": "00", "P29_009": null }, "geometry": { "type": "Point", "coordinates": [ 132.212720542088675, 34.173974127522094 ] } },
{ "type": "Feature", "properties": { "P29_001": "35208", "P29_002": "C135210000793", "P29_003": "16002", "P29_004": "岩国市立川下中学校", "P29_005": "山口県岩国市中津町2-22-25", "P29_006": "3", "P29_007": "1", "P29_008": "00", "P29_009": null }, "geometry": { "type": "Point", "coordinates": [ 132.217026785960513, 34.152171850448283 ] } },
{ "type": "Feature", "properties": { "P29_001": "35208", "P29_002": "C135210000800", "P29_003": "16002", "P29_004": "岩国市立灘中学校", "P29_005": "山口県岩国市藤生町2-25-1", "P29_006": "3", "P29_007": "1", "P29_008": "00", "P29_009": null }, "geometry": { "type": "Point", "coordinates": [ 132.19746146078333, 34.109038501648868 ] } },
{ "type": "Feature", "properties": { "P29_001": "35208", "P29_002": "C135210000819", "P29_003": "16002", "P29_004": "岩国市立柱島中学校", "P29_005": "山口県岩国市柱島54-1", "P29_006": "3", "P29_007": "9", "P29_008": "00", "P29_009": null }, "geometry": { "type": "Point", "coordinates": [ 132.418156442713212, 34.021069997702647 ] } },
{ "type": "Feature", "properties": { "P29_001": "35208", "P29_002": "C135210000828", "P29_003": "16002", "P29_004": "岩国市立黒島中学校", "P29_005": "山口県岩国市柱島2491", "P29_006": "3", "P29_007": "9", "P29_008": "00", "P29_009": null }, "geometry": { "type": "Point", "coordinates": [ 132.334778999753411, 33.996204000236105 ] } },
{ "type": "Feature", "properties": { "P29_001": "35208", "P29_002": "C135210000837", "P29_003": "16002", "P29_004": "岩国市立端島中学校", "P29_005": "山口県岩国市柱島2245-1", "P29_006": "3", "P29_007": "9", "P29_008": "00", "P29_009": null }, "geometry": { "type": "Point", "coordinates": [ 132.385552999876921, 34.034118000715132 ] } },
{ "type": "Feature", "properties": { "P29_001": "35208", "P29_002": "C135210000846", "P29_003": "16002", "P29_004": "岩国市立東中学校", "P29_005": "山口県岩国市三笠町2-1-9", "P29_006": "3", "P29_007": "1", "P29_008": "00", "P29_009": null }, "geometry": { "type": "Point", "coordinates": [ 132.227273375339735, 34.168544312704078 ] } },
{ "type": "Feature", "properties": { "P29_001": "35208", "P29_002": "C135210000855", "P29_003": "16002", "P29_004": "岩国市立平田中学校", "P29_005": "山口県岩国市平田6-10-33", "P29_006": "3", "P29_007": "1", "P29_008": "00", "P29_009": null }, "geometry": { "type": "Point", "coordinates": [ 132.184597162532583, 34.139145228485994 ] } },
{ "type": "Feature", "properties": { "P29_001": "35208", "P29_002": "C135210000864", "P29_003": "16002", "P29_004": "岩国市立岩国西中学校", "P29_005": "山口県岩国市角77-1", "P29_006": "3", "P29_007": "1", "P29_008": "00", "P29_009": null }, "geometry": { "type": "Point", "coordinates": [ 132.105095165040211, 34.166959923674831 ] } },
{ "type": "Feature", "properties": { "P29_001": "35216", "P29_002": "C135210000873", "P29_003": "16002", "P29_004": "山陽小野田市立高千帆中学校", "P29_005": "山口県山陽小野田市くし山2-8-1", "P29_006": "3", "P29_007": "1", "P29_008": "00", "P29_009": null }, "geometry": { "type": "Point", "coordinates": [ 131.186928896388793, 34.013492955361507 ] } },
{ "type": "Feature", "properties": { "P29_001": "35216", "P29_002": "C135210000882", "P29_003": "16002", "P29_004": "山陽小野田市立小野田中学校", "P29_005": "山口県山陽小野田市大字丸河内1018-2", "P29_006": "3", "P29_007": "1", "P29_008": "00", "P29_009": null }, "geometry": { "type": "Point", "coordinates": [ 131.185301010919744, 33.981106426579828 ] } },
{ "type": "Feature", "properties": { "P29_001": "35216", "P29_002": "C135210000891", "P29_003": "16002", "P29_004": "山陽小野田市立竜王中学校松原分校", "P29_005": "山口県山陽小野田市大字小野田4402", "P29_006": "3", "P29_007": "1", "P29_008": "00", "P29_009": null }, "geometry": { "type": "Point", "coordinates": [ 131.175270382239603, 33.958374681301379 ] } },
{ "type": "Feature", "properties": { "P29_001": "35216", "P29_002": "C135210000908", "P29_003": "16002", "P29_004": "山陽小野田市立竜王中学校", "P29_005": "山口県山陽小野田市大字小野田3923", "P29_006": "3", "P29_007": "1", "P29_008": "00", "P29_009": null }, "geometry": { "type": "Point", "coordinates": [ 131.183223705208974, 33.959565119080196 ] } },
{ "type": "Feature", "properties": { "P29_001": "35210", "P29_002": "C135210000917", "P29_003": "16002", "P29_004": "光市立室積中学校", "P29_005": "山口県光市室積新開2-4-1", "P29_006": "3", "P29_007": "1", "P29_008": "00", "P29_009": null }, "geometry": { "type": "Point", "coordinates": [ 131.968181413638632, 33.942652779064829 ] } },
{ "type": "Feature", "properties": { "P29_001": "35210", "P29_002": "C135210000926", "P29_003": "16002", "P29_004": "光市立光井中学校", "P29_005": "山口県光市光井7-18-1", "P29_006": "3", "P29_007": "1", "P29_008": "00", "P29_009": null }, "geometry": { "type": "Point", "coordinates": [ 131.953943352258619, 33.958372628458605 ] } },
{ "type": "Feature", "properties": { "P29_001": "35210", "P29_002": "C135210000935", "P29_003": "16002", "P29_004": "光市立浅江中学校", "P29_005": "山口県光市花園2-1-1", "P29_006": "3", "P29_007": "1", "P29_008": "00", "P29_009": null }, "geometry": { "type": "Point", "coordinates": [ 131.928480375887489, 33.975907901833629 ] } },
{ "type": "Feature", "properties": { "P29_001": "35210", "P29_002": "C135210000944", "P29_003": "16002", "P29_004": "光市立島田中学校", "P29_005": "山口県光市中島田2-7-1", "P29_006": "3", "P29_007": "1", "P29_008": "00", "P29_009": null }, "geometry": { "type": "Point", "coordinates": [ 131.951903954921221, 33.983196893413172 ] } },
{ "type": "Feature", "properties": { "P29_001": "35211", "P29_002": "C135210000953", "P29_003": "16002", "P29_004": "長門市立仙崎中学校", "P29_005": "山口県長門市仙崎11181-1", "P29_006": "3", "P29_007": "1", "P29_008": "00", "P29_009": null }, "geometry": { "type": "Point", "coordinates": [ 131.199279208707395, 34.382700351637041 ] } },
{ "type": "Feature", "properties": { "P29_001": "35211", "P29_002": "C135210000962", "P29_003": "16002", "P29_004": "長門市立深川中学校", "P29_005": "山口県長門市東深川2714-1", "P29_006": "3", "P29_007": "1", "P29_008": "00", "P29_009": null }, "geometry": { "type": "Point", "coordinates": [ 131.186067962517512, 34.363630265116939 ] } },
{ "type": "Feature", "properties": { "P29_001": "35212", "P29_002": "C135210000971", "P29_003": "16002", "P29_004": "柳井市立柳井中学校", "P29_005": "山口県柳井市柳井4155", "P29_006": "3", "P29_007": "1", "P29_008": "00", "P29_009": null }, "geometry": { "type": "Point", "coordinates": [ 132.105825504957295, 33.974359695265171 ] } },
{ "type": "Feature", "properties": { "P29_001": "35212", "P29_002": "C135210000980", "P29_003": "16002", "P29_004": "柳井市立柳井西中学校", "P29_005": "山口県柳井市余田2111", "P29_006": "3", "P29_007": "1", "P29_008": "00", "P29_009": null }, "geometry": { "type": "Point", "coordinates": [ 132.076500305999758, 33.976913074480166 ] } },
{ "type": "Feature", "properties": { "P29_001": "35213", "P29_002": "C135210000999", "P29_003": "16002", "P29_004": "美祢市立伊佐中学校", "P29_005": "山口県美祢市伊佐町伊佐4616", "P29_006": "3", "P29_007": "1", "P29_008": "00", "P29_009": null }, "geometry": { "type": "Point", "coordinates": [ 131.226287498834466, 34.166836579539208 ] } },
{ "type": "Feature", "properties": { "P29_001": "35213", "P29_002": "C135210001006", "P29_003": "16002", "P29_004": "美祢市立厚保中学校", "P29_005": "山口県美祢市西厚保町本郷189-3", "P29_006": "3", "P29_007": "1", "P29_008": "00", "P29_009": null }, "geometry": { "type": "Point", "coordinates": [ 131.153025299260207, 34.111428718109984 ] } },
{ "type": "Feature", "properties": { "P29_001": "35213", "P29_002": "C135210001015", "P29_003": "16002", "P29_004": "美祢市立大嶺中学校", "P29_005": "山口県美祢市大嶺町東分3020", "P29_006": "3", "P29_007": "1", "P29_008": "00", "P29_009": null }, "geometry": { "type": "Point", "coordinates": [ 131.195527784765574, 34.167524089448655 ] } },
{ "type": "Feature", "properties": { "P29_001": "35305", "P29_002": "C135210001042", "P29_003": "16002", "P29_004": "周防大島町立大島中学校", "P29_005": "山口県大島郡周防大島町大字西屋代2598", "P29_006": "3", "P29_007": "1", "P29_008": "00", "P29_009": null }, "geometry": { "type": "Point", "coordinates": [ 132.197807480142302, 33.924763486594266 ] } },
{ "type": "Feature", "properties": { "P29_001": "35321", "P29_002": "C135210001088", "P29_003": "16002", "P29_004": "和木町立和木中学校", "P29_005": "山口県玖珂郡和木町和木2-5-2", "P29_006": "3", "P29_007": "1", "P29_008": "00", "P29_009": null }, "geometry": { "type": "Point", "coordinates": [ 132.220510702814494, 34.203671670427795 ] } },
{ "type": "Feature", "properties": { "P29_001": "35208", "P29_002": "C135210001097", "P29_003": "16002", "P29_004": "岩国市立由宇中学校", "P29_005": "山口県岩国市由宇町北5-2-1", "P29_006": "3", "P29_007": "1", "P29_008": "00", "P29_009": null }, "geometry": { "type": "Point", "coordinates": [ 132.200121415592918, 34.046511602110705 ] } },
{ "type": "Feature", "properties": { "P29_001": "35208", "P29_002": "C135210001104", "P29_003": "16002", "P29_004": "岩国市立玖珂中学校", "P29_005": "山口県岩国市玖珂町6345", "P29_006": "3", "P29_007": "1", "P29_008": "00", "P29_009": null }, "geometry": { "type": "Point", "coordinates": [ 132.076044406259797, 34.098633180182944 ] } },
{ "type": "Feature", "properties": { "P29_001": "35208", "P29_002": "C135210001113", "P29_003": "16002", "P29_004": "山口県立高森みどり中学校", "P29_005": "山口県岩国市玖珂町1253", "P29_006": "2", "P29_007": "1", "P29_008": "00", "P29_009": null }, "geometry": { "type": "Point", "coordinates": [ 132.056704577134866, 34.093805404052496 ] } },
{ "type": "Feature", "properties": { "P29_001": "35208", "P29_002": "C135210001122", "P29_003": "16002", "P29_004": "岩国市立本郷中学校", "P29_005": "山口県岩国市本郷町本郷1488", "P29_006": "3", "P29_007": "1", "P29_008": "00", "P29_009": null }, "geometry": { "type": "Point", "coordinates": [ 132.036994490988064, 34.295407512420532 ] } },
{ "type": "Feature", "properties": { "P29_001": "35208", "P29_002": "C135210001131", "P29_003": "16002", "P29_004": "岩国市立周東中学校", "P29_005": "山口県岩国市周東町下久原483", "P29_006": "3", "P29_007": "1", "P29_008": "00", "P29_009": null }, "geometry": { "type": "Point", "coordinates": [ 132.060061065541703, 34.089329383831746 ] } },
{ "type": "Feature", "properties": { "P29_001": "35208", "P29_002": "C135210001140", "P29_003": "16002", "P29_004": "岩国市立錦中学校", "P29_005": "山口県岩国市錦町広瀬942", "P29_006": "3", "P29_007": "1", "P29_008": "00", "P29_009": null }, "geometry": { "type": "Point", "coordinates": [ 131.952761653328764, 34.259746754082983 ] } },
{ "type": "Feature", "properties": { "P29_001": "35212", "P29_002": "C135210001159", "P29_003": "16002", "P29_004": "柳井市立大畠中学校", "P29_005": "山口県柳井市神代4273", "P29_006": "3", "P29_007": "1", "P29_008": "00", "P29_009": null }, "geometry": { "type": "Point", "coordinates": [ 132.176043551054534, 33.964006713126459 ] } },
{ "type": "Feature", "properties": { "P29_001": "35208", "P29_002": "C135210001168", "P29_003": "16002", "P29_004": "岩国市立美川中学校", "P29_005": "山口県岩国市美川町南桑2349-1", "P29_006": "3", "P29_007": "9", "P29_008": "00", "P29_009": null }, "geometry": { "type": "Point", "coordinates": [ 132.025242000846475, 34.209387001625913 ] } },
{ "type": "Feature", "properties": { "P29_001": "35208", "P29_002": "C135210001177", "P29_003": "16002", "P29_004": "岩国市立美和中学校", "P29_005": "山口県岩国市美和町生見585", "P29_006": "3", "P29_007": "1", "P29_008": "00", "P29_009": null }, "geometry": { "type": "Point", "coordinates": [ 132.07992473804245, 34.224377852271587 ] } },
{ "type": "Feature", "properties": { "P29_001": "35341", "P29_002": "C135210001186", "P29_003": "16002", "P29_004": "上関町立上関中学校", "P29_005": "山口県熊毛郡上関町大字長島280", "P29_006": "3", "P29_007": "1", "P29_008": "00", "P29_009": null }, "geometry": { "type": "Point", "coordinates": [ 132.107718891382461, 33.833363592173441 ] } },
{ "type": "Feature", "properties": { "P29_001": "35341", "P29_002": "C135210001195", "P29_003": "16002", "P29_004": "上関町立祝島中学校", "P29_005": "山口県熊毛郡上関町大字祝島10003", "P29_006": "3", "P29_007": "9", "P29_008": "00", "P29_009": null }, "geometry": { "type": "Point", "coordinates": [ 131.988962094008201, 33.784369068547896 ] } },
{ "type": "Feature", "properties": { "P29_001": "35210", "P29_002": "C135210001202", "P29_003": "16002", "P29_004": "光市立大和中学校", "P29_005": "山口県光市大字塩田3333-1", "P29_006": "3", "P29_007": "1", "P29_008": "00", "P29_009": null }, "geometry": { "type": "Point", "coordinates": [ 132.012374310952197, 33.987152073274878 ] } },
{ "type": "Feature", "properties": { "P29_001": "35343", "P29_002": "C135210001211", "P29_003": "16002", "P29_004": "田布施町立田布施中学校", "P29_005": "山口県熊毛郡田布施町大字下田布施1050-4", "P29_006": "3", "P29_007": "1", "P29_008": "00", "P29_009": null }, "geometry": { "type": "Point", "coordinates": [ 132.041422009365448, 33.957489111153734 ] } },
{ "type": "Feature", "properties": { "P29_001": "35344", "P29_002": "C135210001220", "P29_003": "16002", "P29_004": "平生町立平生中学校", "P29_005": "山口県熊毛郡平生町大字曽根1844", "P29_006": "3", "P29_007": "1", "P29_008": "00", "P29_009": null }, "geometry": { "type": "Point", "coordinates": [ 132.073119556663556, 33.923956325577912 ] } },
{ "type": "Feature", "properties": { "P29_001": "35215", "P29_002": "C135210001239", "P29_003": "16002", "P29_004": "周南市立熊毛中学校", "P29_005": "山口県周南市大字安田1827-1", "P29_006": "3", "P29_007": "1", "P29_008": "00", "P29_009": null }, "geometry": { "type": "Point", "coordinates": [ 131.966836198890718, 34.048447313689898 ] } },
{ "type": "Feature", "properties": { "P29_001": "35215", "P29_002": "C135210001248", "P29_003": "16002", "P29_004": "周南市立鹿野中学校", "P29_005": "山口県周南市大字鹿野上3054-1", "P29_006": "3", "P29_007": "1", "P29_008": "00", "P29_009": null }, "geometry": { "type": "Point", "coordinates": [ 131.815211560689448, 34.22744340048277 ] } },
{ "type": "Feature", "properties": { "P29_001": "35215", "P29_002": "C135210001257", "P29_003": "16002", "P29_004": "周南市立富田中学校", "P29_005": "山口県周南市富田新町2-2-5", "P29_006": "3", "P29_007": "1", "P29_008": "00", "P29_009": null }, "geometry": { "type": "Point", "coordinates": [ 131.762099623206723, 34.073248028884407 ] } },
{ "type": "Feature", "properties": { "P29_001": "35215", "P29_002": "C135210001266", "P29_003": "16002", "P29_004": "周南市立福川中学校", "P29_005": "山口県周南市若山1-7-1", "P29_006": "3", "P29_007": "1", "P29_008": "00", "P29_009": null }, "geometry": { "type": "Point", "coordinates": [ 131.728738502842731, 34.076136889892872 ] } },
{ "type": "Feature", "properties": { "P29_001": "35203", "P29_002": "C135210001284", "P29_003": "16002", "P29_004": "山口市立徳地中学校", "P29_005": "山口県山口市徳地堀1606-1", "P29_006": "3", "P29_007": "1", "P29_008": "00", "P29_009": null }, "geometry": { "type": "Point", "coordinates": [ 131.659116840079918, 34.191119721133362 ] } },
{ "type": "Feature", "properties": { "P29_001": "35203", "P29_002": "C135210001293", "P29_003": "16002", "P29_004": "山口市立秋穂中学校", "P29_005": "山口県山口市秋穂東10615-1", "P29_006": "3", "P29_007": "1", "P29_008": "00", "P29_009": null }, "geometry": { "type": "Point", "coordinates": [ 131.440986938607523, 34.014471251192049 ] } },
{ "type": "Feature", "properties": { "P29_001": "35203", "P29_002": "C135210001300", "P29_003": "16002", "P29_004": "山口市立小郡中学校", "P29_005": "山口県山口市小郡下郷879-1", "P29_006": "3", "P29_007": "1", "P29_008": "00", "P29_009": null }, "geometry": { "type": "Point", "coordinates": [ 131.397769870987418, 34.105808444751425 ] } },
{ "type": "Feature", "properties": { "P29_001": "35203", "P29_002": "C135210001319", "P29_003": "16002", "P29_004": "山口市立阿知須中学校", "P29_005": "山口県山口市阿知須5094-3", "P29_006": "3", "P29_007": "1", "P29_008": "00", "P29_009": null }, "geometry": { "type": "Point", "coordinates": [ 131.353772939168124, 34.013373332085401 ] } },
{ "type": "Feature", "properties": { "P29_001": "35202", "P29_002": "C135210001328", "P29_003": "16002", "P29_004": "宇部市立楠中学校", "P29_005": "山口県宇部市大字船木字岡西4481", "P29_006": "3", "P29_007": "1", "P29_008": "00", "P29_009": null }, "geometry": { "type": "Point", "coordinates": [ 131.215863442623657, 34.045344903155552 ] } },
{ "type": "Feature", "properties": { "P29_001": "35216", "P29_002": "C135210001337", "P29_003": "16002", "P29_004": "山陽小野田市立厚狭中学校", "P29_005": "山口県山陽小野田市大字山川841", "P29_006": "3", "P29_007": "1", "P29_008": "00", "P29_009": null }, "geometry": { "type": "Point", "coordinates": [ 131.150535679287202, 34.060725599202542 ] } },
{ "type": "Feature", "properties": { "P29_001": "35216", "P29_002": "C135210001346", "P29_003": "16002", "P29_004": "山陽小野田市立埴生中学校", "P29_005": "山口県山陽小野田市大字埴生280", "P29_006": "3", "P29_007": "1", "P29_008": "00", "P29_009": null }, "geometry": { "type": "Point", "coordinates": [ 131.093556667297037, 34.040400192095198 ] } },
{ "type": "Feature", "properties": { "P29_001": "35216", "P29_002": "C135210001355", "P29_003": "16002", "P29_004": "山陽小野田市立厚陽中学校", "P29_005": "山口県山陽小野田市大字郡3491-2", "P29_006": "3", "P29_007": "1", "P29_008": "00", "P29_009": null }, "geometry": { "type": "Point", "coordinates": [ 131.141557022883916, 34.019591364693454 ] } },
{ "type": "Feature", "properties": { "P29_001": "35201", "P29_002": "C135210001364", "P29_003": "16002", "P29_004": "下関市立菊川中学校", "P29_005": "山口県下関市菊川町大字下岡枝字上室屋1-2", "P29_006": "3", "P29_007": "1", "P29_008": "00", "P29_009": null }, "geometry": { "type": "Point", "coordinates": [ 131.027506687853787, 34.122836783789722 ] } },
{ "type": "Feature", "properties": { "P29_001": "35201", "P29_002": "C135210001373", "P29_003": "16002", "P29_004": "下関市立豊洋中学校", "P29_005": "山口県下関市豊浦町大字黒井字馬神10724-1", "P29_006": "3", "P29_007": "1", "P29_008": "00", "P29_009": null }, "geometry": { "type": "Point", "coordinates": [ 130.904988930426185, 34.127934223758338 ] } },
{ "type": "Feature", "properties": { "P29_001": "35201", "P29_002": "C135210001382", "P29_003": "16002", "P29_004": "下関市立夢が丘中学校", "P29_005": "山口県下関市豊浦町大字小串字夢が丘10145", "P29_006": "3", "P29_007": "1", "P29_008": "00", "P29_009": null }, "geometry": { "type": "Point", "coordinates": [ 130.933954256144204, 34.172360687230331 ] } },
{ "type": "Feature", "properties": { "P29_001": "35201", "P29_002": "C135210001391", "P29_003": "16002", "P29_004": "下関市立豊北中学校", "P29_005": "山口県下関市豊北町大字滝部字幸神1244-36", "P29_006": "3", "P29_007": "1", "P29_008": "00", "P29_009": null }, "geometry": { "type": "Point", "coordinates": [ 130.949288669239053, 34.298016064455837 ] } },
{ "type": "Feature", "properties": { "P29_001": "35213", "P29_002": "C135210001408", "P29_003": "16002", "P29_004": "美祢市立美東中学校", "P29_005": "山口県美祢市美東町大田6258", "P29_006": "3", "P29_007": "1", "P29_008": "00", "P29_009": null }, "geometry": { "type": "Point", "coordinates": [ 131.345642725667574, 34.226080266618553 ] } },
{ "type": "Feature", "properties": { "P29_001": "35213", "P29_002": "C135210001417", "P29_003": "16002", "P29_004": "美祢市立秋芳中学校", "P29_005": "山口県美祢市秋芳町秋吉5100", "P29_006": "3", "P29_007": "1", "P29_008": "00", "P29_009": null }, "geometry": { "type": "Point", "coordinates": [ 131.29338566891326, 34.215808502795021 ] } },
{ "type": "Feature", "properties": { "P29_001": "35211", "P29_002": "C135210001426", "P29_003": "16002", "P29_004": "長門市立三隅中学校", "P29_005": "山口県長門市三隅中1504", "P29_006": "3", "P29_007": "1", "P29_008": "00", "P29_009": null }, "geometry": { "type": "Point", "coordinates": [ 131.248557778854718, 34.36536237717926 ] } },
{ "type": "Feature", "properties": { "P29_001": "35211", "P29_002": "C135210001435", "P29_003": "16002", "P29_004": "長門市立日置中学校", "P29_005": "山口県長門市日置上6215", "P29_006": "3", "P29_007": "1", "P29_008": "00", "P29_009": null }, "geometry": { "type": "Point", "coordinates": [ 131.096526067187341, 34.38626532337635 ] } },
{ "type": "Feature", "properties": { "P29_001": "35211", "P29_002": "C135210001444", "P29_003": "16002", "P29_004": "長門市立菱海中学校", "P29_005": "山口県長門市油谷河原1016", "P29_006": "3", "P29_007": "1", "P29_008": "00", "P29_009": null }, "geometry": { "type": "Point", "coordinates": [ 131.042071616527949, 34.366998032770255 ] } },
{ "type": "Feature", "properties": { "P29_001": "35204", "P29_002": "C135210001453", "P29_003": "16002", "P29_004": "萩市立川上中学校", "P29_005": "山口県萩市川上4581", "P29_006": "3", "P29_007": "1", "P29_008": "00", "P29_009": null }, "geometry": { "type": "Point", "coordinates": [ 131.463691529351792, 34.357797530449176 ] } },
{ "type": "Feature", "properties": { "P29_001": "35502", "P29_002": "C135210001462", "P29_003": "16002", "P29_004": "阿武町立阿武中学校", "P29_005": "山口県阿武郡阿武町大字奈古3050-3", "P29_006": "3", "P29_007": "1", "P29_008": "00", "P29_009": null }, "geometry": { "type": "Point", "coordinates": [ 131.47389170525895, 34.505931165734715 ] } },
{ "type": "Feature", "properties": { "P29_001": "35204", "P29_002": "C135210001471", "P29_003": "16002", "P29_004": "萩市立田万川中学校", "P29_005": "山口県萩市大字下田万1070", "P29_006": "3", "P29_007": "1", "P29_008": "00", "P29_009": null }, "geometry": { "type": "Point", "coordinates": [ 131.65831934935332, 34.63794261198678 ] } },
{ "type": "Feature", "properties": { "P29_001": "35203", "P29_002": "C135210001480", "P29_003": "16002", "P29_004": "山口市立阿東中学校", "P29_005": "山口県山口市阿東地福上1874", "P29_006": "3", "P29_007": "1", "P29_008": "00", "P29_009": null }, "geometry": { "type": "Point", "coordinates": [ 131.665511924954131, 34.360434530618541 ] } },
{ "type": "Feature", "properties": { "P29_001": "35203", "P29_002": "C135210001499", "P29_003": "16002", "P29_004": "山口市立阿東東中学校", "P29_005": "山口県山口市阿東徳佐中3288-1", "P29_006": "3", "P29_007": "1", "P29_008": "00", "P29_009": null }, "geometry": { "type": "Point", "coordinates": [ 131.725364279561006, 34.395830132475936 ] } },
{ "type": "Feature", "properties": { "P29_001": "35204", "P29_002": "C135210001505", "P29_003": "16002", "P29_004": "萩市立むつみ中学校", "P29_005": "山口県萩市大字高佐下1982-35", "P29_006": "3", "P29_007": "1", "P29_008": "00", "P29_009": null }, "geometry": { "type": "Point", "coordinates": [ 131.602347643438634, 34.447761157777684 ] } },
{ "type": "Feature", "properties": { "P29_001": "35204", "P29_002": "C135210001514", "P29_003": "16002", "P29_004": "萩市立須佐中学校", "P29_005": "山口県萩市大字須佐5200-1", "P29_006": "3", "P29_007": "1", "P29_008": "00", "P29_009": null }, "geometry": { "type": "Point", "coordinates": [ 131.610264421148287, 34.616849025951268 ] } },
{ "type": "Feature", "properties": { "P29_001": "35204", "P29_002": "C135210001523", "P29_003": "16002", "P29_004": "萩市立旭中学校", "P29_005": "山口県萩市大字明木3039", "P29_006": "3", "P29_007": "1", "P29_008": "00", "P29_009": null }, "geometry": { "type": "Point", "coordinates": [ 131.413805810924316, 34.340933157258632 ] } },
{ "type": "Feature", "properties": { "P29_001": "35204", "P29_002": "C135210001532", "P29_003": "16002", "P29_004": "萩市立福栄中学校", "P29_005": "山口県萩市大字福井下4360-1", "P29_006": "3", "P29_007": "1", "P29_008": "00", "P29_009": null }, "geometry": { "type": "Point", "coordinates": [ 131.486850241891688, 34.436434497341594 ] } },
{ "type": "Feature", "properties": { "P29_001": "35201", "P29_002": "C135210001541", "P29_003": "16002", "P29_004": "下関市立豊田中学校", "P29_005": "山口県下関市豊田町大字矢田字鎮守434", "P29_006": "3", "P29_007": "1", "P29_008": "00", "P29_009": null }, "geometry": { "type": "Point", "coordinates": [ 131.074499530812716, 34.197546233877283 ] } },
{ "type": "Feature", "properties": { "P29_001": "35305", "P29_002": "C135210001550", "P29_003": "16002", "P29_004": "周防大島町立周防大島中学校", "P29_005": "山口県大島郡周防大島町大字久賀4823", "P29_006": "3", "P29_007": "1", "P29_008": "00", "P29_009": null }, "geometry": { "type": "Point", "coordinates": [ 132.262670746185137, 33.945998734883908 ] } },
{ "type": "Feature", "properties": { "P29_001": "35201", "P29_002": "C135210001560", "P29_003": "16002", "P29_004": "下関市立蓋井中学校", "P29_005": "山口県下関市大字蓋井島字田町126-6", "P29_006": "3", "P29_007": "1", "P29_008": "00", "P29_009": null }, "geometry": { "type": "Point", "coordinates": [ 130.787877264546779, 34.101711816857602 ] } },
{ "type": "Feature", "properties": { "P29_001": "35201", "P29_002": "C135310000014", "P29_003": "16002", "P29_004": "梅光学院中学校", "P29_005": "山口県下関市丸山町2-9-1", "P29_006": "4", "P29_007": "1", "P29_008": "00", "P29_009": null }, "geometry": { "type": "Point", "coordinates": [ 130.934098701779476, 33.957706312324738 ] } },
{ "type": "Feature", "properties": { "P29_001": "35202", "P29_002": "C135310000023", "P29_003": "16002", "P29_004": "宇部フロンティア大学付属中学校", "P29_005": "山口県宇部市文京町1-25", "P29_006": "4", "P29_007": "1", "P29_008": "00", "P29_009": null }, "geometry": { "type": "Point", "coordinates": [ 131.232504647577315, 33.972830118453935 ] } },
{ "type": "Feature", "properties": { "P29_001": "35202", "P29_002": "C135310000032", "P29_003": "16002", "P29_004": "慶進中学校", "P29_005": "山口県宇部市西琴芝2-12-18", "P29_006": "4", "P29_007": "1", "P29_008": "00", "P29_009": null }, "geometry": { "type": "Point", "coordinates": [ 131.251992358478333, 33.955633211078585 ] } },
{ "type": "Feature", "properties": { "P29_001": "35203", "P29_002": "C135310000041", "P29_003": "16002", "P29_004": "野田学園中学校", "P29_005": "山口県山口市野田56", "P29_006": "4", "P29_007": "1", "P29_008": "00", "P29_009": null }, "geometry": { "type": "Point", "coordinates": [ 131.479586289618368, 34.18625894739403 ] } },
{ "type": "Feature", "properties": { "P29_001": "35204", "P29_002": "C135310000050", "P29_003": "16002", "P29_004": "萩光塩学院中学校", "P29_005": "山口県萩市大字東田町15", "P29_006": "4", "P29_007": "1", "P29_008": "00", "P29_009": null }, "geometry": { "type": "Point", "coordinates": [ 131.404447433070118, 34.412143028244046 ] } },
{ "type": "Feature", "properties": { "P29_001": "35208", "P29_002": "C135310000069", "P29_003": "16002", "P29_004": "高水高等学校付属中学校", "P29_005": "山口県岩国市尾津町2-24-18", "P29_006": "4", "P29_007": "1", "P29_008": "00", "P29_009": null }, "geometry": { "type": "Point", "coordinates": [ 132.204888028789384, 34.139051279454144 ] } },
{ "type": "Feature", "properties": { "P29_001": "35215", "P29_002": "C135310000078", "P29_003": "16002", "P29_004": "晃英館中学校", "P29_005": "山口県周南市大字徳山5626-1", "P29_006": "4", "P29_007": "1", "P29_008": "00", "P29_009": null }, "geometry": { "type": "Point", "coordinates": [ 131.817272848855424, 34.061852248168215 ] } },
{ "type": "Feature", "properties": { "P29_001": "35206", "P29_002": "C135310000087", "P29_003": "16002", "P29_004": "高川学園中学校", "P29_005": "山口県防府市大字台道3635", "P29_006": "4", "P29_007": "1", "P29_008": "00", "P29_009": null }, "geometry": { "type": "Point", "coordinates": [ 131.48728310073264, 34.052260102842595 ] } }
]
}
