{
"type": "FeatureCollection",
"name": "geo_35_福祉用具貸与",
"crs": { "type": "name", "properties": { "name": "urn:ogc:def:crs:OGC:1.3:CRS84" } },
"features": [
{ "type": "Feature", "properties": { "内容": "合同会社ふく【福祉用具貸与】山口県下関市小月本町1丁目7番8号", "url": "https://www.kaigokensaku.mhlw.go.jp/35/index.php?action_kouhyou_detail_004_kani=true&JigyosyoCd=3570106744-00&ServiceCd=170&Type=search", "url2": null }, "geometry": { "type": "Point", "coordinates": [ 131.034263, 34.0712813 ] } },
{ "type": "Feature", "properties": { "内容": "株式会社ぴーす【福祉用具貸与】山口県下関市安岡町4丁目14-22", "url": "https://www.kaigokensaku.mhlw.go.jp/35/index.php?action_kouhyou_detail_004_kani=true&JigyosyoCd=3570104665-00&ServiceCd=170&Type=search", "url2": null }, "geometry": { "type": "Point", "coordinates": [ 130.915495126983586, 34.030039456629126 ] } },
{ "type": "Feature", "properties": { "内容": "かけはし【福祉用具貸与】武久町二丁目81番14号", "url": "https://www.kaigokensaku.mhlw.go.jp/35/index.php?action_kouhyou_detail_004_kani=true&JigyosyoCd=3570106850-00&ServiceCd=170&Type=search", "url2": null }, "geometry": { "type": "Point", "coordinates": [ 130.918896621461101, 33.987127299424472 ] } },
{ "type": "Feature", "properties": { "内容": "ダスキンヘルスレント下関ステーション【福祉用具貸与】山口県下関市卸新町7-1", "url": "https://www.kaigokensaku.mhlw.go.jp/35/index.php?action_kouhyou_detail_004_kani=true&JigyosyoCd=3570106371-00&ServiceCd=170&Type=search", "url2": null }, "geometry": { "type": "Point", "coordinates": [ 130.948804, 33.983903 ] } },
{ "type": "Feature", "properties": { "内容": "株式会社キロク【福祉用具貸与】山口県下関市秋根北町8-1", "url": "https://www.kaigokensaku.mhlw.go.jp/35/index.php?action_kouhyou_detail_004_kani=true&JigyosyoCd=3570104152-00&ServiceCd=170&Type=search", "url2": "URL:http://www.k-kiroku.co.jp/" }, "geometry": { "type": "Point", "coordinates": [ 130.953358225795, 34.013349066977504 ] } },
{ "type": "Feature", "properties": { "内容": "関門産業株式会社【福祉用具貸与】山口県下関市長府扇町9番24号関門産業株式会社・介護レンタル事業部", "url": "https://www.kaigokensaku.mhlw.go.jp/35/index.php?action_kouhyou_detail_004_kani=true&JigyosyoCd=3570106413-00&ServiceCd=170&Type=search", "url2": "https://hp.kaipoke.biz/gt4/" }, "geometry": { "type": "Point", "coordinates": [ 131.015206299999988, 34.0170836 ] } },
{ "type": "Feature", "properties": { "内容": "ケアプロダクツ支援の森【福祉用具貸与】山口県下関市菊川町久野675", "url": "https://www.kaigokensaku.mhlw.go.jp/35/index.php?action_kouhyou_detail_004_kani=true&JigyosyoCd=3570106652-00&ServiceCd=170&Type=search", "url2": "https:/shiennomori.com/" }, "geometry": { "type": "Point", "coordinates": [ 130.9768023, 34.1442019 ] } },
{ "type": "Feature", "properties": { "内容": "山口県下関市綾羅木本町6丁目19番1　103号【福祉用具貸与】山口県下関市綾羅木本町6丁目19番1第二伊藤荘　103号室", "url": "https://www.kaigokensaku.mhlw.go.jp/35/index.php?action_kouhyou_detail_004_kani=true&JigyosyoCd=3570106314-00&ServiceCd=170&Type=search", "url2": "http://hp.kaipoke.diz/kgb/" }, "geometry": { "type": "Point", "coordinates": [ 130.92107, 34.0065847 ] } },
{ "type": "Feature", "properties": { "内容": "王司病院福祉用具貸与・販売事業所【福祉用具貸与】山口県下関市王司本町一丁目18番27号", "url": "https://www.kaigokensaku.mhlw.go.jp/35/index.php?action_kouhyou_detail_004_kani=true&JigyosyoCd=3570106835-00&ServiceCd=170&Type=search", "url2": "http://www.kihoukai.or.jp/" }, "geometry": { "type": "Point", "coordinates": [ 131.0153895, 34.0411882 ] } },
{ "type": "Feature", "properties": { "内容": "愛グループ　シャングリラ　　あっぷる下関店【福祉用具貸与】下関市みもすそ川町23番1号", "url": "https://www.kaigokensaku.mhlw.go.jp/35/index.php?action_kouhyou_detail_004_kani=true&JigyosyoCd=3570100879-00&ServiceCd=170&Type=search", "url2": "http://www.aigroup.co.jp" }, "geometry": { "type": "Point", "coordinates": [ 130.954868900000065, 33.9672936 ] } },
{ "type": "Feature", "properties": { "内容": "株式会社　ひまわり【福祉用具貸与】山口県下関市一の宮卸本町3番30号", "url": "https://www.kaigokensaku.mhlw.go.jp/35/index.php?action_kouhyou_detail_004_kani=true&JigyosyoCd=3570100507-00&ServiceCd=170&Type=search", "url2": "http://www.himawari-co.jp" }, "geometry": { "type": "Point", "coordinates": [ 130.949666, 33.98865 ] } },
{ "type": "Feature", "properties": { "内容": "株式会社　じあい【福祉用具貸与】山口県下関市一宮卸本町３番３０号", "url": "https://www.kaigokensaku.mhlw.go.jp/35/index.php?action_kouhyou_detail_004_kani=true&JigyosyoCd=3570105753-00&ServiceCd=170&Type=search", "url2": null }, "geometry": { "type": "Point", "coordinates": [ 130.941459, 33.9578307 ] } },
{ "type": "Feature", "properties": { "内容": "金剛住機株式会社下関支店【福祉用具貸与】山口県下関市貴船町4丁目1番23号", "url": "https://www.kaigokensaku.mhlw.go.jp/35/index.php?action_kouhyou_detail_004_kani=true&JigyosyoCd=3570100655-00&ServiceCd=170&Type=search", "url2": "http://yutorio.co.jp" }, "geometry": { "type": "Point", "coordinates": [ 130.938103700000056, 33.9689823 ] } },
{ "type": "Feature", "properties": { "内容": "西日本商事株式会社　下関営業所【福祉用具貸与】下関秋根北町8番9号", "url": "https://www.kaigokensaku.mhlw.go.jp/35/index.php?action_kouhyou_detail_004_kani=true&JigyosyoCd=3570103501-00&ServiceCd=170&Type=search", "url2": null }, "geometry": { "type": "Point", "coordinates": [ 130.953214449702813, 34.012678091506288 ] } },
{ "type": "Feature", "properties": { "内容": "ウエルケアレンタルサービス【福祉用具貸与】山口県下関市小月宮の町７－３", "url": "https://www.kaigokensaku.mhlw.go.jp/35/index.php?action_kouhyou_detail_004_kani=true&JigyosyoCd=3570105969-00&ServiceCd=170&Type=search", "url2": null }, "geometry": { "type": "Point", "coordinates": [ 131.037992348266698, 34.074147076108055 ] } },
{ "type": "Feature", "properties": { "内容": "下関福祉サービス【福祉用具貸与】山口県下関市石原65番5号", "url": "https://www.kaigokensaku.mhlw.go.jp/35/index.php?action_kouhyou_detail_004_kani=true&JigyosyoCd=3570103444-00&ServiceCd=170&Type=search", "url2": "http://akimoto-yakkyoku.jp/" }, "geometry": { "type": "Point", "coordinates": [ 130.953045800000041, 34.0170637 ] } },
{ "type": "Feature", "properties": { "内容": "ＺＯＮ福祉レンタルサービス【福祉用具貸与】山口県下関市川中本町12-18", "url": "https://www.kaigokensaku.mhlw.go.jp/35/index.php?action_kouhyou_detail_004_kani=true&JigyosyoCd=3570104046-00&ServiceCd=170&Type=search", "url2": null }, "geometry": { "type": "Point", "coordinates": [ 130.92924783968968, 34.000791388287915 ] } },
{ "type": "Feature", "properties": { "内容": "アイユウ長府福祉用具サービス事業部【福祉用具貸与】山口県下関市長府金屋浜町１－５", "url": "https://www.kaigokensaku.mhlw.go.jp/35/index.php?action_kouhyou_detail_004_kani=true&JigyosyoCd=3570105191-00&ServiceCd=170&Type=search", "url2": "http://shoueikai-aiyuu.com/service/index.html" }, "geometry": { "type": "Point", "coordinates": [ 130.991981200000026, 34.002732 ] } },
{ "type": "Feature", "properties": { "内容": "株式会社ホームケアサービス山口【福祉用具貸与】下関市長府才川１丁目35-21", "url": "https://www.kaigokensaku.mhlw.go.jp/35/index.php?action_kouhyou_detail_004_kani=true&JigyosyoCd=3570100499-00&ServiceCd=170&Type=search", "url2": "http://www.homecare-yamaguchi.co.jp" }, "geometry": { "type": "Point", "coordinates": [ 131.00837690000003, 34.0280936 ] } },
{ "type": "Feature", "properties": { "内容": "はんど下関営業所【福祉用具貸与】下関市長府扇町9-5", "url": "https://www.kaigokensaku.mhlw.go.jp/35/index.php?action_kouhyou_detail_004_kani=true&JigyosyoCd=3570101604-00&ServiceCd=170&Type=search", "url2": "http://www.ee-hand.co.jp/" }, "geometry": { "type": "Point", "coordinates": [ 131.009565400000042, 34.048091699999986 ] } },
{ "type": "Feature", "properties": { "内容": "株式会社セービング【福祉用具貸与】下関市幡生宮の下町8-12", "url": "https://www.kaigokensaku.mhlw.go.jp/35/index.php?action_kouhyou_detail_004_kani=true&JigyosyoCd=3570105589-00&ServiceCd=170&Type=search", "url2": "http://www.e-saving.jp/" }, "geometry": { "type": "Point", "coordinates": [ 130.933483922424784, 33.980428595028002 ] } },
{ "type": "Feature", "properties": { "内容": "有限会社ベストライフ福祉用具サービス【福祉用具貸与】下関市豊浦町黒井10634－5", "url": "https://www.kaigokensaku.mhlw.go.jp/35/index.php?action_kouhyou_detail_004_kani=true&JigyosyoCd=3570105043-00&ServiceCd=170&Type=search", "url2": null }, "geometry": { "type": "Point", "coordinates": [ 130.909293199999979, 34.1263353 ] } },
{ "type": "Feature", "properties": { "内容": "株式会社　東武住販【福祉用具貸与】山口県下関市岬之町11番46号", "url": "https://www.kaigokensaku.mhlw.go.jp/35/index.php?action_kouhyou_detail_004_kani=true&JigyosyoCd=3570103352-00&ServiceCd=170&Type=search", "url2": "https://www.toubu.co.jp/" }, "geometry": { "type": "Point", "coordinates": [ 130.936320542991666, 33.951883651253915 ] } },
{ "type": "Feature", "properties": { "内容": "日本基準寝具株式会社　下関営業所【福祉用具貸与】下関市一の宮町4-3-7", "url": "https://www.kaigokensaku.mhlw.go.jp/35/index.php?action_kouhyou_detail_004_kani=true&JigyosyoCd=3570106975-00&ServiceCd=170&Type=search", "url2": "https://www.nihonkijun.jp" }, "geometry": { "type": "Point", "coordinates": [ 130.9517078, 33.9928974 ] } },
{ "type": "Feature", "properties": { "内容": "金剛住機株式会社【福祉用具貸与】山口県下関市貴船町4-1-23", "url": "https://www.kaigokensaku.mhlw.go.jp/35/index.php?action_kouhyou_detail_004_kani=true&JigyosyoCd=3570106983-00&ServiceCd=170&Type=search", "url2": "https://yutorio.co.jp/" }, "geometry": { "type": "Point", "coordinates": [ 130.938119199999988, 33.9689579 ] } },
{ "type": "Feature", "properties": { "内容": "株式会社フルケア　下関営業所【福祉用具貸与】下関市観音崎町10-8", "url": "https://www.kaigokensaku.mhlw.go.jp/35/index.php?action_kouhyou_detail_004_kani=true&JigyosyoCd=3570105928-00&ServiceCd=170&Type=search", "url2": "http://full-care.jp" }, "geometry": { "type": "Point", "coordinates": [ 130.93864259999998, 33.9528062 ] } },
{ "type": "Feature", "properties": { "内容": "株式会社ササキコーポレーション【福祉用具貸与】山口県宇部市港町１丁目13-5", "url": "https://www.kaigokensaku.mhlw.go.jp/35/index.php?action_kouhyou_detail_004_kani=true&JigyosyoCd=3570200687-00&ServiceCd=170&Type=search", "url2": "https://sasaki-corp.jp/" }, "geometry": { "type": "Point", "coordinates": [ 131.24619041442665, 33.945524305807673 ] } },
{ "type": "Feature", "properties": { "内容": "合同会社Lighthouse【福祉用具貸与】山口県宇部市小松原町二丁目2-3", "url": "https://www.kaigokensaku.mhlw.go.jp/35/index.php?action_kouhyou_detail_004_kani=true&JigyosyoCd=3570203517-00&ServiceCd=170&Type=search", "url2": "http://lighthouse-ube.jp/" }, "geometry": { "type": "Point", "coordinates": [ 131.241601066020138, 33.963141376357761 ] } },
{ "type": "Feature", "properties": { "内容": "ケアサポートきわなみ【福祉用具貸与】山口県宇部市大字際波726番地3", "url": "https://www.kaigokensaku.mhlw.go.jp/35/index.php?action_kouhyou_detail_004_kani=true&JigyosyoCd=3570203764-00&ServiceCd=170&Type=search", "url2": "https://kiwanami-kaigo.com" }, "geometry": { "type": "Point", "coordinates": [ 131.222827002516169, 33.994794714109226 ] } },
{ "type": "Feature", "properties": { "内容": "西日本商事株式会社　宇部営業所【福祉用具貸与】山口県宇部市常盤町２丁目１－２９", "url": "https://www.kaigokensaku.mhlw.go.jp/35/index.php?action_kouhyou_detail_004_kani=true&JigyosyoCd=3570202659-00&ServiceCd=170&Type=search", "url2": null }, "geometry": { "type": "Point", "coordinates": [ 131.248996799999986, 33.9499423 ] } },
{ "type": "Feature", "properties": { "内容": "サンケン実業株式会社ひまわり宇部【福祉用具貸与】宇部市神原町２丁目２番９号", "url": "https://www.kaigokensaku.mhlw.go.jp/35/index.php?action_kouhyou_detail_004_kani=true&JigyosyoCd=3570200448-00&ServiceCd=170&Type=search", "url2": null }, "geometry": { "type": "Point", "coordinates": [ 131.262593199999969, 33.9487343 ] } },
{ "type": "Feature", "properties": { "内容": "株式会社ホームケアサービス山口宇部店【福祉用具貸与】宇部市西宇部南3丁目3-2", "url": "https://www.kaigokensaku.mhlw.go.jp/35/index.php?action_kouhyou_detail_004_kani=true&JigyosyoCd=3570201958-00&ServiceCd=170&Type=search", "url2": "http://www.homecare-yamaguchi.co.jp" }, "geometry": { "type": "Point", "coordinates": [ 131.221077499999978, 34.0014779 ] } },
{ "type": "Feature", "properties": { "内容": "ケアビレッジ桜福祉用具事業所【福祉用具貸与】宇部市大字西岐波2068-1ケアビレッジ桜", "url": "https://www.kaigokensaku.mhlw.go.jp/35/index.php?action_kouhyou_detail_004_kani=true&JigyosyoCd=3570204184-00&ServiceCd=170&Type=search", "url2": "https://keahouse-sakura.jp/" }, "geometry": { "type": "Point", "coordinates": [ 131.313127566145823, 33.970635713611884 ] } },
{ "type": "Feature", "properties": { "内容": "合同会社　うさぎの介護用品店【福祉用具貸与】宇部市東新川町6番44号コ－ポ高丸101号", "url": "https://www.kaigokensaku.mhlw.go.jp/35/index.php?action_kouhyou_detail_004_kani=true&JigyosyoCd=3570203061-00&ServiceCd=170&Type=search", "url2": "bqbqt912@ybb.ne.jp" }, "geometry": { "type": "Point", "coordinates": [ 131.25521040000001, 33.9463956 ] } },
{ "type": "Feature", "properties": { "内容": "エネックス株式会社【福祉用具貸与】宇部市大字東須恵３８４０－１", "url": "https://www.kaigokensaku.mhlw.go.jp/35/index.php?action_kouhyou_detail_004_kani=true&JigyosyoCd=3570200299-00&ServiceCd=170&Type=search", "url2": "http//www.enex-inc.com" }, "geometry": { "type": "Point", "coordinates": [ 131.209417700000017, 33.9918928 ] } },
{ "type": "Feature", "properties": { "内容": "シンプルケア【福祉用具貸与】山口県宇部市浜町二丁目11番16号", "url": "https://www.kaigokensaku.mhlw.go.jp/35/index.php?action_kouhyou_detail_004_kani=true&JigyosyoCd=3570204150-00&ServiceCd=170&Type=search", "url2": "http://kawamura-fs.com/simplecare.html" }, "geometry": { "type": "Point", "coordinates": [ 131.2340232, 33.9654596 ] } },
{ "type": "Feature", "properties": { "内容": "株式会社はんど【福祉用具貸与】宇部市助田町7-13", "url": "https://www.kaigokensaku.mhlw.go.jp/35/index.php?action_kouhyou_detail_004_kani=true&JigyosyoCd=3570200463-00&ServiceCd=170&Type=search", "url2": "http://www.ee-hand.co.jp/" }, "geometry": { "type": "Point", "coordinates": [ 131.2407746, 33.96411279999996 ] } },
{ "type": "Feature", "properties": { "内容": "おさるの介護用品店【福祉用具貸与】山口県宇部市東岐波223特別養護老人ホーム日の山園内", "url": "https://www.kaigokensaku.mhlw.go.jp/35/index.php?action_kouhyou_detail_004_kani=true&JigyosyoCd=3570204721-00&ServiceCd=170&Type=search", "url2": null }, "geometry": { "type": "Point", "coordinates": [ 131.351866104325211, 33.999179630270326 ] } },
{ "type": "Feature", "properties": { "内容": "株式会社　ぐりーん【福祉用具貸与】山口市赤妻町３－２０信和ビル１０５", "url": "https://www.kaigokensaku.mhlw.go.jp/35/index.php?action_kouhyou_detail_004_kani=true&JigyosyoCd=3570301691-00&ServiceCd=170&Type=search", "url2": null }, "geometry": { "type": "Point", "coordinates": [ 131.4482054, 34.1674073 ] } },
{ "type": "Feature", "properties": { "内容": "株式会社　河村福祉サービス【福祉用具貸与】山口県山口市阿知須4825番地１サンパークあじす内２Ｆ", "url": "https://www.kaigokensaku.mhlw.go.jp/35/index.php?action_kouhyou_detail_004_kani=true&JigyosyoCd=3570302798-00&ServiceCd=170&Type=search", "url2": "http://www.kawamura-fs.com/ube.html" }, "geometry": { "type": "Point", "coordinates": [ 131.351540699999987, 34.009388100000017 ] } },
{ "type": "Feature", "properties": { "内容": "山口病院福祉用具事業所【福祉用具貸与】駅通り2丁目8-5", "url": "https://www.kaigokensaku.mhlw.go.jp/35/index.php?action_kouhyou_detail_004_kani=true&JigyosyoCd=3570303531-00&ServiceCd=170&Type=search", "url2": "http://www.yamaguchibyouin.jp/" }, "geometry": { "type": "Point", "coordinates": [ 131.4803198, 34.1749861 ] } },
{ "type": "Feature", "properties": { "内容": "ダスキンヘルスレント山口北ステーション【福祉用具貸与】山口市宮野上190-2", "url": "https://www.kaigokensaku.mhlw.go.jp/35/index.php?action_kouhyou_detail_004_kani=true&JigyosyoCd=3570303879-00&ServiceCd=170&Type=search", "url2": null }, "geometry": { "type": "Point", "coordinates": [ 131.50829, 34.2023078 ] } },
{ "type": "Feature", "properties": { "内容": "株式会社岩多屋福祉事業部山口【福祉用具貸与】山口県山口市小郡上郷3541番地3", "url": "https://www.kaigokensaku.mhlw.go.jp/35/index.php?action_kouhyou_detail_004_kani=true&JigyosyoCd=3570303374-00&ServiceCd=170&Type=search", "url2": "http://www.iwataya-net.co.jp" }, "geometry": { "type": "Point", "coordinates": [ 131.413213400000018, 34.120927299999984 ] } },
{ "type": "Feature", "properties": { "内容": "日本基準寝具株式会社　エコール山口営業所【福祉用具貸与】山口県山口市小郡上郷字仁保津5256", "url": "https://www.kaigokensaku.mhlw.go.jp/35/index.php?action_kouhyou_detail_004_kani=true&JigyosyoCd=3577600384-00&ServiceCd=170&Type=search", "url2": "https://www.nihonkijun.jp" }, "geometry": { "type": "Point", "coordinates": [ 131.4097997, 34.1250157 ] } },
{ "type": "Feature", "properties": { "内容": "はんど山口営業所【福祉用具貸与】山口市朝田流通センター601-13", "url": "https://www.kaigokensaku.mhlw.go.jp/35/index.php?action_kouhyou_detail_004_kani=true&JigyosyoCd=3570302483-00&ServiceCd=170&Type=search", "url2": "http://www.ee-hand.co.jp" }, "geometry": { "type": "Point", "coordinates": [ 131.415868, 34.138414 ] } },
{ "type": "Feature", "properties": { "内容": "福祉用具事業所アドバンス【福祉用具貸与】山口県山口市湯田温泉1-1-7", "url": "https://www.kaigokensaku.mhlw.go.jp/35/index.php?action_kouhyou_detail_004_kani=true&JigyosyoCd=3570303846-00&ServiceCd=170&Type=search", "url2": null }, "geometry": { "type": "Point", "coordinates": [ 131.4603966, 34.1658657 ] } },
{ "type": "Feature", "properties": { "内容": "株式会社　ホームケアサービス山口　山口店【福祉用具貸与】山口県山口市陶４５４２－１", "url": "https://www.kaigokensaku.mhlw.go.jp/35/index.php?action_kouhyou_detail_004_kani=true&JigyosyoCd=3570300388-00&ServiceCd=170&Type=search", "url2": "http://www.homecare-yamaguchi.co.jp" }, "geometry": { "type": "Point", "coordinates": [ 131.419316200000026, 34.0919081 ] } },
{ "type": "Feature", "properties": { "内容": "有限会社　アイフィット山口【福祉用具貸与】山口市平井705番地", "url": "https://www.kaigokensaku.mhlw.go.jp/35/index.php?action_kouhyou_detail_004_kani=true&JigyosyoCd=3570300834-00&ServiceCd=170&Type=search", "url2": "http://ifit-y.com" }, "geometry": { "type": "Point", "coordinates": [ 131.463307100000065, 34.154581 ] } },
{ "type": "Feature", "properties": { "内容": "青藍会　在宅医療支援センター山口　福祉用具事業所【福祉用具貸与】山口県山口市吉敷中東一丁目2-6みずほビル4-Ａ", "url": "https://www.kaigokensaku.mhlw.go.jp/35/index.php?action_kouhyou_detail_004_kani=true&JigyosyoCd=3570303473-00&ServiceCd=170&Type=search", "url2": "http://www.seirankai.or.jp" }, "geometry": { "type": "Point", "coordinates": [ 131.4466315, 34.1663517 ] } },
{ "type": "Feature", "properties": { "内容": "福祉用具リライフ【福祉用具貸与】山口県山口市秋穂東1192-7", "url": "https://www.kaigokensaku.mhlw.go.jp/35/index.php?action_kouhyou_detail_004_kani=true&JigyosyoCd=3570303986-00&ServiceCd=170&Type=search", "url2": null }, "geometry": { "type": "Point", "coordinates": [ 131.463923200000011, 34.0272188 ] } },
{ "type": "Feature", "properties": { "内容": "株式会社フルケア山口営業所【福祉用具貸与】山口県山口市小郡中央通1-5", "url": "https://www.kaigokensaku.mhlw.go.jp/35/index.php?action_kouhyou_detail_004_kani=true&JigyosyoCd=3570303234-00&ServiceCd=170&Type=search", "url2": "https://www.full-care.jp/" }, "geometry": { "type": "Point", "coordinates": [ 131.394873577177435, 34.103474389660995 ] } },
{ "type": "Feature", "properties": { "内容": "合同会社ここも【福祉用具貸与】山口県萩市大字川島444", "url": "https://www.kaigokensaku.mhlw.go.jp/35/index.php?action_kouhyou_detail_004_kani=true&JigyosyoCd=3570400964-00&ServiceCd=170&Type=search", "url2": null }, "geometry": { "type": "Point", "coordinates": [ 131.405616039353106, 34.404578385678342 ] } },
{ "type": "Feature", "properties": { "内容": "あおば【福祉用具貸与】萩市椿東2858番地", "url": "https://www.kaigokensaku.mhlw.go.jp/35/index.php?action_kouhyou_detail_004_kani=true&JigyosyoCd=3540440439-00&ServiceCd=170&Type=search", "url2": null }, "geometry": { "type": "Point", "coordinates": [ 131.4142031, 34.4189233 ] } },
{ "type": "Feature", "properties": { "内容": "株式会社ホームケアサービス山口　萩店【福祉用具貸与】山口県萩市椿東2880-1", "url": "https://www.kaigokensaku.mhlw.go.jp/35/index.php?action_kouhyou_detail_004_kani=true&JigyosyoCd=3570400501-00&ServiceCd=170&Type=search", "url2": "http://www.homecare-yamaguchi.co.jp" }, "geometry": { "type": "Point", "coordinates": [ 131.41264769999998, 34.418915 ] } },
{ "type": "Feature", "properties": { "内容": "有限会社ひまわり【福祉用具貸与】萩市大字山田4731番地1", "url": "https://www.kaigokensaku.mhlw.go.jp/35/index.php?action_kouhyou_detail_004_kani=true&JigyosyoCd=3570400048-00&ServiceCd=170&Type=search", "url2": "https://www.hagi-himawari.com/" }, "geometry": { "type": "Point", "coordinates": [ 131.381377900582095, 34.404957612302887 ] } },
{ "type": "Feature", "properties": { "内容": "(株)ナカニシ【福祉用具貸与】防府市開出西町５－２２", "url": "https://www.kaigokensaku.mhlw.go.jp/35/index.php?action_kouhyou_detail_004_kani=true&JigyosyoCd=3570600332-00&ServiceCd=170&Type=search", "url2": "http://fukushi-nakanishi.com/" }, "geometry": { "type": "Point", "coordinates": [ 131.54853, 34.0539095 ] } },
{ "type": "Feature", "properties": { "内容": "有限会社　スマイル・ケア【福祉用具貸与】防府市江泊1906", "url": "https://www.kaigokensaku.mhlw.go.jp/35/index.php?action_kouhyou_detail_004_kani=true&JigyosyoCd=3570600571-00&ServiceCd=170&Type=search", "url2": null }, "geometry": { "type": "Point", "coordinates": [ 131.605494200000066, 34.05 ] } },
{ "type": "Feature", "properties": { "内容": "ダスキンヘルスレント山口防府ステーション【福祉用具貸与】山口県防府市国衙2-2-30", "url": "https://www.kaigokensaku.mhlw.go.jp/35/index.php?action_kouhyou_detail_004_kani=true&JigyosyoCd=3570602403-00&ServiceCd=170&Type=search", "url2": "https://healthrent.duskin.jp/" }, "geometry": { "type": "Point", "coordinates": [ 131.5838455, 34.0564248 ] } },
{ "type": "Feature", "properties": { "内容": "有限会社　加賀メディカル【福祉用具貸与】防府市佐波2丁目10-12", "url": "https://www.kaigokensaku.mhlw.go.jp/35/index.php?action_kouhyou_detail_004_kani=true&JigyosyoCd=3570600324-00&ServiceCd=170&Type=search", "url2": "http://kaga-medical.co.jp/" }, "geometry": { "type": "Point", "coordinates": [ 131.563723200000027, 34.0560621 ] } },
{ "type": "Feature", "properties": { "内容": "株式会社ぴーす　防府営業所【福祉用具貸与】山口県防府市三田尻３丁目７－３０", "url": "https://www.kaigokensaku.mhlw.go.jp/35/index.php?action_kouhyou_detail_004_kani=true&JigyosyoCd=3570602551-00&ServiceCd=170&Type=search", "url2": "https://peace2013.co.jp/" }, "geometry": { "type": "Point", "coordinates": [ 131.5787387, 34.0445881 ] } },
{ "type": "Feature", "properties": { "内容": "株式会社　ひまわり　山口支店【福祉用具貸与】防府市鋳物師町9-38", "url": "https://www.kaigokensaku.mhlw.go.jp/35/index.php?action_kouhyou_detail_004_kani=true&JigyosyoCd=3570601389-00&ServiceCd=170&Type=search", "url2": "http://www.himawari-co.jp/" }, "geometry": { "type": "Point", "coordinates": [ 131.575030800000036, 34.0502185 ] } },
{ "type": "Feature", "properties": { "内容": "ホットライフサポート【福祉用具貸与】山口県防府市大字田島3379番地1", "url": "https://www.kaigokensaku.mhlw.go.jp/35/index.php?action_kouhyou_detail_004_kani=true&JigyosyoCd=3570601066-00&ServiceCd=170&Type=search", "url2": "http://www" }, "geometry": { "type": "Point", "coordinates": [ 131.527133400000025, 34.0066279 ] } },
{ "type": "Feature", "properties": { "内容": "株式会社山口メディカル【福祉用具貸与】防府市大字富海2520番地", "url": "https://www.kaigokensaku.mhlw.go.jp/35/index.php?action_kouhyou_detail_004_kani=true&JigyosyoCd=3570600217-00&ServiceCd=170&Type=search", "url2": null }, "geometry": { "type": "Point", "coordinates": [ 131.641472857672198, 34.047990176053048 ] } },
{ "type": "Feature", "properties": { "内容": "株式会社　ホームケアサービス山口　防府店【福祉用具貸与】山口県防府市華園町11-11", "url": "https://www.kaigokensaku.mhlw.go.jp/35/index.php?action_kouhyou_detail_004_kani=true&JigyosyoCd=3570602106-00&ServiceCd=170&Type=search", "url2": "ｈｔｔｐ：www.homecare-yamaguchi.co.jp" }, "geometry": { "type": "Point", "coordinates": [ 131.557617923942558, 34.043681053155204 ] } },
{ "type": "Feature", "properties": { "内容": "有限会社　ケアメイト【福祉用具貸与】山口県防府市大字新田５０３－３", "url": "https://www.kaigokensaku.mhlw.go.jp/35/index.php?action_kouhyou_detail_004_kani=true&JigyosyoCd=3570600480-00&ServiceCd=170&Type=search", "url2": null }, "geometry": { "type": "Point", "coordinates": [ 131.564137499999987, 34.0363983 ] } },
{ "type": "Feature", "properties": { "内容": "指定福祉用具貸与・販売事業所げんき【福祉用具貸与】山口県下松市大字西豊井1655番地3", "url": "https://www.kaigokensaku.mhlw.go.jp/35/index.php?action_kouhyou_detail_004_kani=true&JigyosyoCd=3570701098-00&ServiceCd=170&Type=search", "url2": "https://t-genki.com" }, "geometry": { "type": "Point", "coordinates": [ 131.875650752949184, 34.018471077730219 ] } },
{ "type": "Feature", "properties": { "内容": "株式会社ホームケアサービス山口　周南店【福祉用具貸与】下松市大字末武上久保田1800-1", "url": "https://www.kaigokensaku.mhlw.go.jp/35/index.php?action_kouhyou_detail_004_kani=true&JigyosyoCd=3570700355-00&ServiceCd=170&Type=search", "url2": "http://www.homecare-yamaguchi.co.jp/" }, "geometry": { "type": "Point", "coordinates": [ 131.870947, 34.0373613 ] } },
{ "type": "Feature", "properties": { "内容": "有限会社　カガミ【福祉用具貸与】山口県岩国市岩国1-15-17", "url": "https://www.kaigokensaku.mhlw.go.jp/35/index.php?action_kouhyou_detail_004_kani=true&JigyosyoCd=3570801765-00&ServiceCd=170&Type=search", "url2": null }, "geometry": { "type": "Point", "coordinates": [ 132.180769646032644, 34.164738979937539 ] } },
{ "type": "Feature", "properties": { "内容": "アイテム株式会社【福祉用具貸与】山口県岩国市玖珂町1017-5", "url": "https://www.kaigokensaku.mhlw.go.jp/35/index.php?action_kouhyou_detail_004_kani=true&JigyosyoCd=3570802433-00&ServiceCd=170&Type=search", "url2": null }, "geometry": { "type": "Point", "coordinates": [ 132.085972994442784, 34.096452381072289 ] } },
{ "type": "Feature", "properties": { "内容": "株式会社　メディス　岩国支店【福祉用具貸与】山口県岩国市御庄4-106-7", "url": "https://www.kaigokensaku.mhlw.go.jp/35/index.php?action_kouhyou_detail_004_kani=true&JigyosyoCd=3570800072-00&ServiceCd=170&Type=search", "url2": "www.medis.bz" }, "geometry": { "type": "Point", "coordinates": [ 132.156727600000067, 34.1695047 ] } },
{ "type": "Feature", "properties": { "内容": "株式会社ホームケアサービス山口岩国店【福祉用具貸与】岩国市今津町4丁目12-7", "url": "https://www.kaigokensaku.mhlw.go.jp/35/index.php?action_kouhyou_detail_004_kani=true&JigyosyoCd=3570800874-00&ServiceCd=170&Type=search", "url2": "http://www.homecare-yamaguchi.co.jp/" }, "geometry": { "type": "Point", "coordinates": [ 132.214678700000036, 34.165284 ] } },
{ "type": "Feature", "properties": { "内容": "西日本医療サービス株式会社　岩国営業所【福祉用具貸与】山口県周東町下久原624番地", "url": "https://www.kaigokensaku.mhlw.go.jp/35/index.php?action_kouhyou_detail_004_kani=true&JigyosyoCd=3570802128-00&ServiceCd=170&Type=search", "url2": "http://www.nishinihoniryou.jp/" }, "geometry": { "type": "Point", "coordinates": [ 132.057392234278552, 34.0901661666094 ] } },
{ "type": "Feature", "properties": { "内容": "株式会社　エヌ・エス・サービス　本社事業所【福祉用具貸与】岩国市由宇町南沖4丁目3－3", "url": "https://www.kaigokensaku.mhlw.go.jp/35/index.php?action_kouhyou_detail_004_kani=true&JigyosyoCd=3570800023-00&ServiceCd=170&Type=search", "url2": "http://www.nss-bs.co.jp/" }, "geometry": { "type": "Point", "coordinates": [ 132.2134542, 34.0384381 ] } },
{ "type": "Feature", "properties": { "内容": "株式会社フルケア岩国営業所【福祉用具貸与】山口県岩国市多田町3丁目104-4", "url": "https://www.kaigokensaku.mhlw.go.jp/35/index.php?action_kouhyou_detail_004_kani=true&JigyosyoCd=3570802219-00&ServiceCd=170&Type=search", "url2": "https://www.full-care.jp" }, "geometry": { "type": "Point", "coordinates": [ 132.1687624, 34.1802957 ] } },
{ "type": "Feature", "properties": { "内容": "サンハイティー【福祉用具貸与】岩国市多田1丁目105番6", "url": "https://www.kaigokensaku.mhlw.go.jp/35/index.php?action_kouhyou_detail_004_kani=true&JigyosyoCd=3570800767-00&ServiceCd=170&Type=search", "url2": "https://sunhighty.jp/" }, "geometry": { "type": "Point", "coordinates": [ 132.163292993254089, 34.175618647540595 ] } },
{ "type": "Feature", "properties": { "内容": "ダスキンヘルスレント周南ステーション【福祉用具貸与】光市光井一丁目14-17", "url": "https://www.kaigokensaku.mhlw.go.jp/35/index.php?action_kouhyou_detail_004_kani=true&JigyosyoCd=3570700322-00&ServiceCd=170&Type=search", "url2": "http://healthrent.duskin.jp/" }, "geometry": { "type": "Point", "coordinates": [ 131.954267, 33.9521651 ] } },
{ "type": "Feature", "properties": { "内容": "株式会社あすなろ【福祉用具貸与】山口県光市中央二丁目17番26号", "url": "https://www.kaigokensaku.mhlw.go.jp/35/index.php?action_kouhyou_detail_004_kani=true&JigyosyoCd=3571000920-00&ServiceCd=170&Type=search", "url2": null }, "geometry": { "type": "Point", "coordinates": [ 139.6818054, 35.7002577 ] } },
{ "type": "Feature", "properties": { "内容": "マザー【福祉用具貸与】長門市西深川430-2", "url": "https://www.kaigokensaku.mhlw.go.jp/35/index.php?action_kouhyou_detail_004_kani=true&JigyosyoCd=3570400212-00&ServiceCd=170&Type=search", "url2": null }, "geometry": { "type": "Point", "coordinates": [ 131.16611510000007, 34.3714006 ] } },
{ "type": "Feature", "properties": { "内容": "ケアメディカル　さらや【福祉用具貸与】柳井市中央二丁目17-24", "url": "https://www.kaigokensaku.mhlw.go.jp/35/index.php?action_kouhyou_detail_004_kani=true&JigyosyoCd=3571200264-00&ServiceCd=170&Type=search", "url2": "http://www.sa-ra-ya.com/" }, "geometry": { "type": "Point", "coordinates": [ 132.108043599999974, 33.9658194 ] } },
{ "type": "Feature", "properties": { "内容": "株式会社　ヨネツ【福祉用具貸与】柳井市天神17-11", "url": "https://www.kaigokensaku.mhlw.go.jp/35/index.php?action_kouhyou_detail_004_kani=true&JigyosyoCd=3571200561-00&ServiceCd=170&Type=search", "url2": "http://yonetsu-home.jp/" }, "geometry": { "type": "Point", "coordinates": [ 132.114207, 33.9652641 ] } },
{ "type": "Feature", "properties": { "内容": "株式会社　西日本光洋【福祉用具貸与】柳井市柳井6764-1", "url": "https://www.kaigokensaku.mhlw.go.jp/35/index.php?action_kouhyou_detail_004_kani=true&JigyosyoCd=3571200108-00&ServiceCd=170&Type=search", "url2": null }, "geometry": { "type": "Point", "coordinates": [ 132.104751542543994, 33.992379118449421 ] } },
{ "type": "Feature", "properties": { "内容": "株式会社狼煙【福祉用具貸与】山口県美祢市美東町大田６０６５番地", "url": "https://www.kaigokensaku.mhlw.go.jp/35/index.php?action_kouhyou_detail_004_kani=true&JigyosyoCd=3571300593-00&ServiceCd=170&Type=search", "url2": "https://www.noroshi-mine.net/" }, "geometry": { "type": "Point", "coordinates": [ 131.3430668, 34.2218544 ] } },
{ "type": "Feature", "properties": { "内容": "ニチイケアセンター周南【福祉用具貸与】周南市河東町９－２０グランデリバーサイドB", "url": "https://www.kaigokensaku.mhlw.go.jp/35/index.php?action_kouhyou_detail_004_kani=true&JigyosyoCd=3570500417-00&ServiceCd=170&Type=search", "url2": "http://www.nichiigakkan.co.jp" }, "geometry": { "type": "Point", "coordinates": [ 131.812827163185119, 34.046127963875186 ] } },
{ "type": "Feature", "properties": { "内容": "有限会社　サンリツ【福祉用具貸与】周南市大字久米4197-1", "url": "https://www.kaigokensaku.mhlw.go.jp/35/index.php?action_kouhyou_detail_004_kani=true&JigyosyoCd=3571501166-00&ServiceCd=170&Type=search", "url2": "https://cs-sanritsu.jp" }, "geometry": { "type": "Point", "coordinates": [ 131.833637261190802, 34.034964154059232 ] } },
{ "type": "Feature", "properties": { "内容": "日本基準寝具株式会社　周南営業所【福祉用具貸与】周南市大字久米852-2", "url": "https://www.kaigokensaku.mhlw.go.jp/35/index.php?action_kouhyou_detail_004_kani=true&JigyosyoCd=3571500846-00&ServiceCd=170&Type=search", "url2": "https://www.nihonkijun.jp" }, "geometry": { "type": "Point", "coordinates": [ 131.848163, 34.0343803 ] } },
{ "type": "Feature", "properties": { "内容": "株式会社　西日本光洋　周南営業所【福祉用具貸与】周南市久米717-1", "url": "https://www.kaigokensaku.mhlw.go.jp/35/index.php?action_kouhyou_detail_004_kani=true&JigyosyoCd=3571501356-00&ServiceCd=170&Type=search", "url2": null }, "geometry": { "type": "Point", "coordinates": [ 131.851177487672373, 34.036324316903254 ] } },
{ "type": "Feature", "properties": { "内容": "有限会社　マイ・サポート【福祉用具貸与】山口県周南市権現町5番21号", "url": "https://www.kaigokensaku.mhlw.go.jp/35/index.php?action_kouhyou_detail_004_kani=true&JigyosyoCd=3571500515-00&ServiceCd=170&Type=search", "url2": null }, "geometry": { "type": "Point", "coordinates": [ 131.798033253428684, 34.058048018600736 ] } },
{ "type": "Feature", "properties": { "内容": "ゆうあいレンタルケア【福祉用具貸与】山口県周南市大字須々万本郷２８－１", "url": "https://www.kaigokensaku.mhlw.go.jp/35/index.php?action_kouhyou_detail_004_kani=true&JigyosyoCd=3571501257-00&ServiceCd=170&Type=search", "url2": "http:/ryokuzankai.jp" }, "geometry": { "type": "Point", "coordinates": [ 131.858113199999906, 34.1232886 ] } },
{ "type": "Feature", "properties": { "内容": "JA福祉用具レンタル山口【福祉用具貸与】周南市清水1丁目12番7号JA福祉用具レンタル山口", "url": "https://www.kaigokensaku.mhlw.go.jp/35/index.php?action_kouhyou_detail_004_kani=true&JigyosyoCd=3571501505-00&ServiceCd=170&Type=search", "url2": null }, "geometry": { "type": "Point", "coordinates": [ 131.767630599999961, 34.0708579 ] } },
{ "type": "Feature", "properties": { "内容": "海井医科器械株式会社　周南営業所【福祉用具貸与】周南市鼓海２丁目１１８－７２", "url": "https://www.kaigokensaku.mhlw.go.jp/35/index.php?action_kouhyou_detail_004_kani=true&JigyosyoCd=3570500292-00&ServiceCd=170&Type=search", "url2": "www.umii.co.jp/" }, "geometry": { "type": "Point", "coordinates": [ 131.820126499999986, 34.019953 ] } },
{ "type": "Feature", "properties": { "内容": "有限会社ゆとり工房【福祉用具貸与】周南市桜木3-5-82", "url": "https://www.kaigokensaku.mhlw.go.jp/35/index.php?action_kouhyou_detail_004_kani=true&JigyosyoCd=3571500093-00&ServiceCd=170&Type=search", "url2": "http://www.yutori-kobo.net" }, "geometry": { "type": "Point", "coordinates": [ 131.837308074977017, 34.03839716977599 ] } },
{ "type": "Feature", "properties": { "内容": "株式会社フルケア周南営業所【福祉用具貸与】山口県周南市五月町9-28", "url": "https://www.kaigokensaku.mhlw.go.jp/35/index.php?action_kouhyou_detail_004_kani=true&JigyosyoCd=3571501745-00&ServiceCd=170&Type=search", "url2": "www.full-care.jp" }, "geometry": { "type": "Point", "coordinates": [ 131.828756839002466, 34.036495861918517 ] } },
{ "type": "Feature", "properties": { "内容": "株式会社ミサト【福祉用具貸与】山口県山陽小野田市埴生655-1", "url": "https://www.kaigokensaku.mhlw.go.jp/35/index.php?action_kouhyou_detail_004_kani=true&JigyosyoCd=3571600240-00&ServiceCd=170&Type=search", "url2": null }, "geometry": { "type": "Point", "coordinates": [ 131.094209099999944, 34.0375967 ] } },
{ "type": "Feature", "properties": { "内容": "西日本商事株式会社　山口営業所【福祉用具貸与】山陽小野田市中川四丁目4番8号", "url": "https://www.kaigokensaku.mhlw.go.jp/35/index.php?action_kouhyou_detail_004_kani=true&JigyosyoCd=3571600190-00&ServiceCd=170&Type=search", "url2": "https://www.yasuragi-ehime.com/" }, "geometry": { "type": "Point", "coordinates": [ 131.177181499999961, 33.9881233 ] } },
{ "type": "Feature", "properties": { "内容": "有限会社　しらき【福祉用具貸与】山口県大島郡周防大島町大字西方14番地", "url": "https://www.kaigokensaku.mhlw.go.jp/35/index.php?action_kouhyou_detail_004_kani=true&JigyosyoCd=3577100310-00&ServiceCd=170&Type=search", "url2": null }, "geometry": { "type": "Point", "coordinates": [ 132.3274609, 33.9038443 ] } },
{ "type": "Feature", "properties": { "内容": "海井医科器械株式会社・海井福祉サービス【福祉用具貸与】山口県玖珂郡和木町和木5-9-43", "url": "https://www.kaigokensaku.mhlw.go.jp/35/index.php?action_kouhyou_detail_004_kani=true&JigyosyoCd=3570800205-00&ServiceCd=170&Type=search", "url2": "http://www.umii.co.jp/" }, "geometry": { "type": "Point", "coordinates": [ 132.230212700000038, 34.2065246 ] } },
{ "type": "Feature", "properties": { "内容": "株式会社　河村福祉サービス　柳井介護センター【福祉用具貸与】山口県熊毛郡平生町大字平生町字西浜588-1", "url": "https://www.kaigokensaku.mhlw.go.jp/35/index.php?action_kouhyou_detail_004_kani=true&JigyosyoCd=3571200389-00&ServiceCd=170&Type=search", "url2": "http://www.kawamura-fs.com/" }, "geometry": { "type": "Point", "coordinates": [ 132.068950442275764, 33.941377363789684 ] } }
]
}
