{
"type": "FeatureCollection",
"name": "geo_35_特別支援学校",
"crs": { "type": "name", "properties": { "name": "urn:ogc:def:crs:EPSG::6668" } },
"features": [
{ "type": "Feature", "properties": { "P29_001": "35203", "P29_002": "E135110000013", "P29_003": "16012", "P29_004": "山口大学教育学部附属特別支援学校", "P29_005": "山口県山口市吉田3003", "P29_006": "1", "P29_007": "0", "P29_008": "00", "P29_009": null }, "geometry": { "type": "Point", "coordinates": [ 131.463248999313777, 34.145606999946473 ] } },
{ "type": "Feature", "properties": { "P29_001": "35201", "P29_002": "E135210000011", "P29_003": "16012", "P29_004": "山口県立下関南総合支援学校", "P29_005": "山口県下関市幡生町1-1-22", "P29_006": "2", "P29_007": "0", "P29_008": "00", "P29_009": null }, "geometry": { "type": "Point", "coordinates": [ 130.937718044066145, 33.976320224652291 ] } },
{ "type": "Feature", "properties": { "P29_001": "35203", "P29_002": "E135210000020", "P29_003": "16012", "P29_004": "山口県立山口南総合支援学校", "P29_005": "山口県山口市鋳銭司南原2364-6", "P29_006": "2", "P29_007": "0", "P29_008": "00", "P29_009": null }, "geometry": { "type": "Point", "coordinates": [ 131.438040155138253, 34.06892469812918 ] } },
{ "type": "Feature", "properties": { "P29_001": "35206", "P29_002": "E135210000039", "P29_003": "16012", "P29_004": "山口県立防府総合支援学校", "P29_005": "山口県防府市大字浜方205-3", "P29_006": "2", "P29_007": "0", "P29_008": "00", "P29_009": null }, "geometry": { "type": "Point", "coordinates": [ 131.565837169353898, 34.022166781686309 ] } },
{ "type": "Feature", "properties": { "P29_001": "35202", "P29_002": "E135210000048", "P29_003": "16012", "P29_004": "山口県立宇部総合支援学校", "P29_005": "山口県宇部市黒石北5-3-20", "P29_006": "2", "P29_007": "0", "P29_008": "00", "P29_009": null }, "geometry": { "type": "Point", "coordinates": [ 131.210084717484449, 33.990059707738112 ] } },
{ "type": "Feature", "properties": { "P29_001": "35201", "P29_002": "E135210000057", "P29_003": "16012", "P29_004": "山口県立豊浦総合支援学校", "P29_005": "山口県下関市豊浦町大字小串7-136", "P29_006": "2", "P29_007": "0", "P29_008": "00", "P29_009": null }, "geometry": { "type": "Point", "coordinates": [ 130.924500380006947, 34.166717672080779 ] } },
{ "type": "Feature", "properties": { "P29_001": "35343", "P29_002": "E135210000066", "P29_003": "16012", "P29_004": "山口県立田布施総合支援学校", "P29_005": "山口県熊毛郡田布施町大字川西1030", "P29_006": "2", "P29_007": "0", "P29_008": "00", "P29_009": null }, "geometry": { "type": "Point", "coordinates": [ 132.009319187334427, 33.960906744124685 ] } },
{ "type": "Feature", "properties": { "P29_001": "35201", "P29_002": "E135210000075", "P29_003": "16012", "P29_004": "山口県立下関総合支援学校", "P29_005": "山口県下関市富任町8-9-1", "P29_006": "2", "P29_007": "0", "P29_008": "00", "P29_009": null }, "geometry": { "type": "Point", "coordinates": [ 130.928152620764223, 34.022567638609914 ] } },
{ "type": "Feature", "properties": { "P29_001": "35215", "P29_002": "E135210000084", "P29_003": "16012", "P29_004": "山口県立周南総合支援学校", "P29_005": "山口県周南市大字久米761", "P29_006": "2", "P29_007": "0", "P29_008": "00", "P29_009": null }, "geometry": { "type": "Point", "coordinates": [ 131.850019014909265, 34.038226631159262 ] } },
{ "type": "Feature", "properties": { "P29_001": "35203", "P29_002": "E135210000093", "P29_003": "16012", "P29_004": "山口県立山口総合支援学校みほり分校", "P29_005": "山口県山口市大内御堀5-2-8", "P29_006": "2", "P29_007": "0", "P29_008": "00", "P29_009": null }, "geometry": { "type": "Point", "coordinates": [ 131.486771883529627, 34.165878059270952 ] } },
{ "type": "Feature", "properties": { "P29_001": "35208", "P29_002": "E135210000100", "P29_003": "16012", "P29_004": "山口県立岩国総合支援学校", "P29_005": "山口県岩国市錦見3-7-11", "P29_006": "2", "P29_007": "0", "P29_008": "00", "P29_009": null }, "geometry": { "type": "Point", "coordinates": [ 132.197873179770227, 34.166577996524694 ] } },
{ "type": "Feature", "properties": { "P29_001": "35215", "P29_002": "E135210000119", "P29_003": "16012", "P29_004": "山口県立徳山総合支援学校", "P29_005": "山口県周南市大字栗屋字小踏中崎267-1", "P29_006": "2", "P29_007": "0", "P29_008": "00", "P29_009": null }, "geometry": { "type": "Point", "coordinates": [ 131.823116820319285, 34.020487207703397 ] } },
{ "type": "Feature", "properties": { "P29_001": "35204", "P29_002": "E135210000128", "P29_003": "16012", "P29_004": "山口県立萩総合支援学校", "P29_005": "山口県萩市大字椿東字中ノ迫5816-1", "P29_006": "2", "P29_007": "0", "P29_008": "00", "P29_009": null }, "geometry": { "type": "Point", "coordinates": [ 131.421478849816651, 34.434815904560153 ] } },
{ "type": "Feature", "properties": { "P29_001": "35203", "P29_002": "E135210000137", "P29_003": "16012", "P29_004": "山口県立山口総合支援学校", "P29_005": "山口県山口市朝田585-1", "P29_006": "2", "P29_007": "0", "P29_008": "00", "P29_009": null }, "geometry": { "type": "Point", "coordinates": [ 131.433660484499654, 34.151820442993973 ] } }
]
}
