{
"type": "FeatureCollection",
"name": "geo_35_訪問看護",
"crs": { "type": "name", "properties": { "name": "urn:ogc:def:crs:OGC:1.3:CRS84" } },
"features": [
{ "type": "Feature", "properties": { "内容": "はるかぜ訪問看護ステーション【訪問看護】綾羅木本町8-2-23コーポIVYA104", "url": "https://www.kaigokensaku.mhlw.go.jp/35/index.php?action_kouhyou_detail_004_kani=true&JigyosyoCd=3560190443-00&ServiceCd=130&Type=search", "url2": null }, "geometry": { "type": "Point", "coordinates": [ 130.9195506, 34.0055084 ] } },
{ "type": "Feature", "properties": { "内容": "フリーナースネットケアH-Nsサービス【訪問看護】山口県下関市熊野町2-4-18", "url": "https://www.kaigokensaku.mhlw.go.jp/35/index.php?action_kouhyou_detail_004_kani=true&JigyosyoCd=3560190385-00&ServiceCd=130&Type=search", "url2": null }, "geometry": { "type": "Point", "coordinates": [ 130.944083799999987, 33.993639 ] } },
{ "type": "Feature", "properties": { "内容": "OHANAケアステーション【訪問看護】山口県下関市岬之町10-8第7トマトビル305", "url": "https://www.kaigokensaku.mhlw.go.jp/35/index.php?action_kouhyou_detail_004_kani=true&JigyosyoCd=3560190468-00&ServiceCd=130&Type=search", "url2": "http://ohanacare-station.com" }, "geometry": { "type": "Point", "coordinates": [ 130.9360847, 33.9525262 ] } },
{ "type": "Feature", "properties": { "内容": "訪問看護ステーション　花ごころ【訪問看護】山口県下関市豊浦町豊洋台1丁目447-186ヴィレッタ豊洋台101号室", "url": "https://www.kaigokensaku.mhlw.go.jp/35/index.php?action_kouhyou_detail_004_kani=true&JigyosyoCd=3560190450-00&ServiceCd=130&Type=search", "url2": null }, "geometry": { "type": "Point", "coordinates": [ 130.9084437, 34.1163865 ] } },
{ "type": "Feature", "properties": { "内容": "関門医療センター　ビーンズ訪問看護ステーション【訪問看護】山口県下関市長府外浦町1-1関門医療センター", "url": "https://www.kaigokensaku.mhlw.go.jp/35/index.php?action_kouhyou_detail_004_kani=true&JigyosyoCd=3560190302-00&ServiceCd=130&Type=search", "url2": "http://www.hosp.go.jp/kanmon/" }, "geometry": { "type": "Point", "coordinates": [ 130.992275599999971, 33.9885001 ] } },
{ "type": "Feature", "properties": { "内容": "訪問看護ステーション　共生の里【訪問看護】山口県下関市稗田南町10番12号夢活動センターporto　2F", "url": "https://www.kaigokensaku.mhlw.go.jp/35/index.php?action_kouhyou_detail_004_kani=true&JigyosyoCd=3560190518-00&ServiceCd=130&Type=search", "url2": "https://kyouseinosato.or.jp/" }, "geometry": { "type": "Point", "coordinates": [ 130.929108899999989, 33.9913903 ] } },
{ "type": "Feature", "properties": { "内容": "豆たん　訪問看護ステーション【訪問看護】山口県下関市大字内日下1027-1", "url": "https://www.kaigokensaku.mhlw.go.jp/35/index.php?action_kouhyou_detail_004_kani=true&JigyosyoCd=3560190534-00&ServiceCd=130&Type=search", "url2": "https://www.mametan.org" }, "geometry": { "type": "Point", "coordinates": [ 130.9702571, 34.0999448 ] } },
{ "type": "Feature", "properties": { "内容": "訪問看護ステーションぽ・ねっと【訪問看護】山口県下関市豊浦町大字黒井10097番地の50", "url": "https://www.kaigokensaku.mhlw.go.jp/35/index.php?action_kouhyou_detail_004_kani=true&JigyosyoCd=3560190567-00&ServiceCd=130&Type=search", "url2": null }, "geometry": { "type": "Point", "coordinates": [ 130.9300083, 34.1176537 ] } },
{ "type": "Feature", "properties": { "内容": "すみだ内科クリニック【訪問看護】山口県下関市熊野町2-2-31", "url": "https://www.kaigokensaku.mhlw.go.jp/35/index.php?action_kouhyou_detail_004_kani=true&JigyosyoCd=3510114477-00&ServiceCd=130&Type=search", "url2": null }, "geometry": { "type": "Point", "coordinates": [ 130.944305200000031, 33.9944022 ] } },
{ "type": "Feature", "properties": { "内容": "訪問看護ステーションあやめ下関【訪問看護】山口県下関市一の宮町２丁目11-8メゾンドロワール　106号室", "url": "https://www.kaigokensaku.mhlw.go.jp/35/index.php?action_kouhyou_detail_004_kani=true&JigyosyoCd=3560190542-00&ServiceCd=130&Type=search", "url2": "https://firstnurse.co.jp/" }, "geometry": { "type": "Point", "coordinates": [ 130.9495723, 34.0025377 ] } },
{ "type": "Feature", "properties": { "内容": "ツクイ下関訪問看護ステーション【訪問看護】山口県下関市南部町19-7明治安田生命ビル6階", "url": "https://www.kaigokensaku.mhlw.go.jp/35/index.php?action_kouhyou_detail_004_kani=true&JigyosyoCd=3560190575-00&ServiceCd=130&Type=search", "url2": null }, "geometry": { "type": "Point", "coordinates": [ 130.9397952, 33.9538897 ] } },
{ "type": "Feature", "properties": { "内容": "山口県済生会下関総合病院【訪問看護】山口県下関市安岡町8丁目5番1号", "url": "https://www.kaigokensaku.mhlw.go.jp/35/index.php?action_kouhyou_detail_004_kani=true&JigyosyoCd=3510116357-00&ServiceCd=130&Type=search", "url2": "http://www.simo.saiseikai.or.jp" }, "geometry": { "type": "Point", "coordinates": [ 130.932755400000019, 34.0309398 ] } },
{ "type": "Feature", "properties": { "内容": "あおぞらの里　下関訪問看護ステーション【訪問看護】山口県下関市伊崎町一丁目1-9サンヒルズビル2F", "url": "https://www.kaigokensaku.mhlw.go.jp/35/index.php?action_kouhyou_detail_004_kani=true&JigyosyoCd=3560190104-00&ServiceCd=130&Type=search", "url2": "https://www.cedar-group.co.jp" }, "geometry": { "type": "Point", "coordinates": [ 130.919911201188626, 33.954383497875874 ] } },
{ "type": "Feature", "properties": { "内容": "詩音株式会社　訪問看護ステーション詩音【訪問看護】山口県下関市伊倉本町27-10", "url": "https://www.kaigokensaku.mhlw.go.jp/35/index.php?action_kouhyou_detail_004_kani=true&JigyosyoCd=3560190492-00&ServiceCd=130&Type=search", "url2": "https://www.web-mini.com/houmonkango-sion/?fbclid=IwAR2DynurJlIQwH60vd0YfgpGaiXdO3tor7Tz6kVThebS9HLPBvczydT0SUQ" }, "geometry": { "type": "Point", "coordinates": [ 130.9381186, 34.0055148 ] } },
{ "type": "Feature", "properties": { "内容": "東亜訪問看護ステーション【訪問看護】山口県下関市一の宮学園町２番2号", "url": "https://www.kaigokensaku.mhlw.go.jp/35/index.php?action_kouhyou_detail_004_kani=true&JigyosyoCd=3560190237-00&ServiceCd=130&Type=search", "url2": null }, "geometry": { "type": "Point", "coordinates": [ 130.948796300000026, 33.9989907 ] } },
{ "type": "Feature", "properties": { "内容": "在宅看護センター　ヴィータ【訪問看護】山口県下関市王喜本町3丁目7-3", "url": "https://www.kaigokensaku.mhlw.go.jp/35/index.php?action_kouhyou_detail_004_kani=true&JigyosyoCd=3560190351-00&ServiceCd=130&Type=search", "url2": null }, "geometry": { "type": "Point", "coordinates": [ 131.053158899999971, 34.0674762 ] } },
{ "type": "Feature", "properties": { "内容": "訪問看護リハビリステーションラポル【訪問看護】山口県下関市王司神田1-8-14", "url": "https://www.kaigokensaku.mhlw.go.jp/35/index.php?action_kouhyou_detail_004_kani=true&JigyosyoCd=3560190377-00&ServiceCd=130&Type=search", "url2": "http://raporu.rehapis.com/" }, "geometry": { "type": "Point", "coordinates": [ 131.015458578004626, 34.045570551068892 ] } },
{ "type": "Feature", "properties": { "内容": "訪問看護ステーションゆとり　下関【訪問看護】山口県下関市形山みどり町15-13岡田ビル1階1号", "url": "https://www.kaigokensaku.mhlw.go.jp/35/index.php?action_kouhyou_detail_004_kani=true&JigyosyoCd=3560190427-00&ServiceCd=130&Type=search", "url2": null }, "geometry": { "type": "Point", "coordinates": [ 130.9539861, 34.014312700000033 ] } },
{ "type": "Feature", "properties": { "内容": "セレスト訪問看護ステーション【訪問看護】山口県下関市秋根南町2-7-28", "url": "https://www.kaigokensaku.mhlw.go.jp/35/index.php?action_kouhyou_detail_004_kani=true&JigyosyoCd=3560190286-00&ServiceCd=130&Type=search", "url2": "celestes@vesta.ocn.ne.jp" }, "geometry": { "type": "Point", "coordinates": [ 130.955401199999983, 34.0074176 ] } },
{ "type": "Feature", "properties": { "内容": "医療法人茜会　あかね老人訪問看護ステーション【訪問看護】山口県下関市上新地町１－５－８あかねアパート２０５号室", "url": "https://www.kaigokensaku.mhlw.go.jp/35/index.php?action_kouhyou_detail_004_kani=true&JigyosyoCd=3560190005-00&ServiceCd=130&Type=search", "url2": null }, "geometry": { "type": "Point", "coordinates": [ 130.920626140767922, 33.959423489555128 ] } },
{ "type": "Feature", "properties": { "内容": "くにのぶ訪問看護ステーション【訪問看護】山口県下関市新垢田南町1丁目13番23号", "url": "https://www.kaigokensaku.mhlw.go.jp/35/index.php?action_kouhyou_detail_004_kani=true&JigyosyoCd=3560190294-00&ServiceCd=130&Type=search", "url2": null }, "geometry": { "type": "Point", "coordinates": [ 130.917907799999966, 33.9880082 ] } },
{ "type": "Feature", "properties": { "内容": "独立行政法人地域医療機能推進機構下関医療センター附属訪問看護ステーション【訪問看護】山口県下関市新地西町４番１号独立行政法人地域医療機能推進機構下関医療センター職員宿舎　桜寮　105号", "url": "https://www.kaigokensaku.mhlw.go.jp/35/index.php?action_kouhyou_detail_004_kani=true&JigyosyoCd=3560190195-00&ServiceCd=130&Type=search", "url2": "https://shimonoseki.jcho.go.jp" }, "geometry": { "type": "Point", "coordinates": [ 130.919194400000038, 33.9573194 ] } },
{ "type": "Feature", "properties": { "内容": "ハ－トケア訪問看護ステーション【訪問看護】山口県下関市川中豊町3丁目3-5", "url": "https://www.kaigokensaku.mhlw.go.jp/35/index.php?action_kouhyou_detail_004_kani=true&JigyosyoCd=3560190336-00&ServiceCd=130&Type=search", "url2": "http://heartcaregroup.net" }, "geometry": { "type": "Point", "coordinates": [ 130.937393638775376, 33.9985932793955 ] } },
{ "type": "Feature", "properties": { "内容": "はぴれすと訪問看護ステーション【訪問看護】山口県下関市前田2丁目1ｰ21", "url": "https://www.kaigokensaku.mhlw.go.jp/35/index.php?action_kouhyou_detail_004_kani=true&JigyosyoCd=3560190484-00&ServiceCd=130&Type=search", "url2": null }, "geometry": { "type": "Point", "coordinates": [ 130.967218599999967, 33.970691600000023 ] } },
{ "type": "Feature", "properties": { "内容": "光風園病院訪問看護ステーション【訪問看護】山口県下関市長府才川2-21-2", "url": "https://www.kaigokensaku.mhlw.go.jp/35/index.php?action_kouhyou_detail_004_kani=true&JigyosyoCd=3560190047-00&ServiceCd=130&Type=search", "url2": "http://www.koufuen.or.jp/" }, "geometry": { "type": "Point", "coordinates": [ 130.9995083, 34.0245106 ] } },
{ "type": "Feature", "properties": { "内容": "安夢住ナースセンター【訪問看護】山口県下関市長府新松原町3番30号", "url": "https://www.kaigokensaku.mhlw.go.jp/35/index.php?action_kouhyou_detail_004_kani=true&JigyosyoCd=3560190369-00&ServiceCd=130&Type=search", "url2": null }, "geometry": { "type": "Point", "coordinates": [ 130.989162, 33.9921219 ] } },
{ "type": "Feature", "properties": { "内容": "医療法人　茜会　勝山訪問看護ステーション【訪問看護】山口県下関市大字田倉221-11", "url": "https://www.kaigokensaku.mhlw.go.jp/35/index.php?action_kouhyou_detail_004_kani=true&JigyosyoCd=3560190054-00&ServiceCd=130&Type=search", "url2": null }, "geometry": { "type": "Point", "coordinates": [ 130.974440298950213, 34.013039958859274 ] } },
{ "type": "Feature", "properties": { "内容": "笑顔（スマイル）訪問看護サービス【訪問看護】山口県下関市稗田中町4‐18", "url": "https://www.kaigokensaku.mhlw.go.jp/35/index.php?action_kouhyou_detail_004_kani=true&JigyosyoCd=3560190328-00&ServiceCd=130&Type=search", "url2": null }, "geometry": { "type": "Point", "coordinates": [ 130.928451, 33.9968159 ] } },
{ "type": "Feature", "properties": { "内容": "社会医療法人松涛会　松涛会訪問看護ステーション【訪問看護】山口県下関市彦島江の浦町9-4-5ケアタウン江の浦", "url": "https://www.kaigokensaku.mhlw.go.jp/35/index.php?action_kouhyou_detail_004_kani=true&JigyosyoCd=3560190088-00&ServiceCd=130&Type=search", "url2": "http://www.syoutoukai.or.jp/shisetsu/hikoshima_hks.html" }, "geometry": { "type": "Point", "coordinates": [ 130.917858600000045, 33.9299053 ] } },
{ "type": "Feature", "properties": { "内容": "アイユウの苑　訪問看護サービス【訪問看護】山口県下関市彦島迫町三丁目17番2号", "url": "https://www.kaigokensaku.mhlw.go.jp/35/index.php?action_kouhyou_detail_004_kani=true&JigyosyoCd=3560190112-00&ServiceCd=130&Type=search", "url2": "http://www.shoubikai.or.jp" }, "geometry": { "type": "Point", "coordinates": [ 130.9002994, 33.9383705 ] } },
{ "type": "Feature", "properties": { "内容": "ファインナーシングルーム【訪問看護】山口県下関市大字冨任131番地", "url": "https://www.kaigokensaku.mhlw.go.jp/35/index.php?action_kouhyou_detail_004_kani=true&JigyosyoCd=3560190245-00&ServiceCd=130&Type=search", "url2": null }, "geometry": { "type": "Point", "coordinates": [ 130.927852196061707, 34.024797957619199 ] } },
{ "type": "Feature", "properties": { "内容": "ほうもんかんごすてーしょんすずらん【訪問看護】山口県下関市武久町１丁目３９番６号", "url": "https://www.kaigokensaku.mhlw.go.jp/35/index.php?action_kouhyou_detail_004_kani=true&JigyosyoCd=3560190526-00&ServiceCd=130&Type=search", "url2": "https://golden-age-service.jp/" }, "geometry": { "type": "Point", "coordinates": [ 130.9225588, 33.9795546 ] } },
{ "type": "Feature", "properties": { "内容": "訪問看護ステーションたけひさ【訪問看護】山口県下関市武久町2-53-8", "url": "https://www.kaigokensaku.mhlw.go.jp/35/index.php?action_kouhyou_detail_004_kani=true&JigyosyoCd=3560190252-00&ServiceCd=130&Type=search", "url2": null }, "geometry": { "type": "Point", "coordinates": [ 130.916331764451201, 33.982402181567593 ] } },
{ "type": "Feature", "properties": { "内容": "下関市豊浦地域ケアセンター訪問看護ステーション【訪問看護】山口県下関市豊浦町大字小串10007-3", "url": "https://www.kaigokensaku.mhlw.go.jp/35/index.php?action_kouhyou_detail_004_kani=true&JigyosyoCd=3567890037-00&ServiceCd=130&Type=search", "url2": null }, "geometry": { "type": "Point", "coordinates": [ 130.92675831786039, 34.169991840338838 ] } },
{ "type": "Feature", "properties": { "内容": "豊前田訪問看護ステーション【訪問看護】山口県下関市豊前田町2丁目4-10弘仁ビル３階", "url": "https://www.kaigokensaku.mhlw.go.jp/35/index.php?action_kouhyou_detail_004_kani=true&JigyosyoCd=3560190062-00&ServiceCd=130&Type=search", "url2": null }, "geometry": { "type": "Point", "coordinates": [ 130.926602, 33.9521561 ] } },
{ "type": "Feature", "properties": { "内容": "下関市社協とよた訪問看護ステーション【訪問看護】山口県下関市豊田町大字矢田194番地", "url": "https://www.kaigokensaku.mhlw.go.jp/35/index.php?action_kouhyou_detail_004_kani=true&JigyosyoCd=3560190146-00&ServiceCd=130&Type=search", "url2": null }, "geometry": { "type": "Point", "coordinates": [ 131.072323200000028, 34.2032236 ] } },
{ "type": "Feature", "properties": { "内容": "下関市立豊田中央病院【訪問看護】山口県下関市豊田町大字矢田３６５番地１", "url": "https://www.kaigokensaku.mhlw.go.jp/35/index.php?action_kouhyou_detail_004_kani=true&JigyosyoCd=3517810200-00&ServiceCd=130&Type=search", "url2": "http://www.city.shimonoseki.yamaguchi.jp/toyotabyoin/index.html" }, "geometry": { "type": "Point", "coordinates": [ 131.072167700000023, 34.201146 ] } },
{ "type": "Feature", "properties": { "内容": "訪問看護ステーション　にじの丘【訪問看護】山口県下関市菊川町大字田部223－1", "url": "https://www.kaigokensaku.mhlw.go.jp/35/index.php?action_kouhyou_detail_004_kani=true&JigyosyoCd=3560190203-00&ServiceCd=130&Type=search", "url2": "http://www.kikusuikai.jp/" }, "geometry": { "type": "Point", "coordinates": [ 131.039975, 34.1152291 ] } },
{ "type": "Feature", "properties": { "内容": "医療法人　牛尾医院亀の甲クリニック【訪問看護】山口県下関市長府亀の甲1丁目2－1", "url": "https://www.kaigokensaku.mhlw.go.jp/35/index.php?action_kouhyou_detail_004_kani=true&JigyosyoCd=3510114774-00&ServiceCd=130&Type=search", "url2": null }, "geometry": { "type": "Point", "coordinates": [ 130.988925900000027, 34.0024043 ] } },
{ "type": "Feature", "properties": { "内容": "訪問看護セレクト【訪問看護】山口県宇部市中村3丁目10-18-2アーバンみどり102号", "url": "https://www.kaigokensaku.mhlw.go.jp/35/index.php?action_kouhyou_detail_004_kani=true&JigyosyoCd=3560290441-00&ServiceCd=130&Type=search", "url2": null }, "geometry": { "type": "Point", "coordinates": [ 131.2580888, 33.9611927 ] } },
{ "type": "Feature", "properties": { "内容": "非営利活動法人きょう・生　訪問看護ステーション結び【訪問看護】山口県宇部市中央町３丁目2番7号", "url": "https://www.kaigokensaku.mhlw.go.jp/35/index.php?action_kouhyou_detail_004_kani=true&JigyosyoCd=3560290474-00&ServiceCd=130&Type=search", "url2": null }, "geometry": { "type": "Point", "coordinates": [ 131.2417958, 33.9546881 ] } },
{ "type": "Feature", "properties": { "内容": "むべの里診療所【訪問看護】東須恵大浴320-19", "url": "https://www.kaigokensaku.mhlw.go.jp/35/index.php?action_kouhyou_detail_004_kani=true&JigyosyoCd=3510214145-00&ServiceCd=130&Type=search", "url2": null }, "geometry": { "type": "Point", "coordinates": [ 131.197974400000021, 33.9800494 ] } },
{ "type": "Feature", "properties": { "内容": "有限会社　小串機械製作所　介護事業部　訪問看護ステーション　白鳥【訪問看護】山口県宇部市南小羽山町1-8-16", "url": "https://www.kaigokensaku.mhlw.go.jp/35/index.php?action_kouhyou_detail_004_kani=true&JigyosyoCd=3560290169-00&ServiceCd=130&Type=search", "url2": null }, "geometry": { "type": "Point", "coordinates": [ 131.256398399999966, 33.9735702 ] } },
{ "type": "Feature", "properties": { "内容": "西日本訪問看護ステーション　エスコート【訪問看護】山口県宇部市島1丁目7-13森ビル2F", "url": "https://www.kaigokensaku.mhlw.go.jp/35/index.php?action_kouhyou_detail_004_kani=true&JigyosyoCd=3560290318-00&ServiceCd=130&Type=search", "url2": "http://www.sanwa-kigyou.jp" }, "geometry": { "type": "Point", "coordinates": [ 131.244991, 33.958877 ] } },
{ "type": "Feature", "properties": { "内容": "医療法人聖比留会　西岐波セントヒル訪問看護ステーション【訪問看護】山口県宇部市今村北三丁目7番18号セントヒル病院1階", "url": "https://www.kaigokensaku.mhlw.go.jp/35/index.php?action_kouhyou_detail_004_kani=true&JigyosyoCd=3560290433-00&ServiceCd=130&Type=search", "url2": "https://www.sthill-hp.or.jp/n-houkan/" }, "geometry": { "type": "Point", "coordinates": [ 131.3072039, 33.9599661 ] } },
{ "type": "Feature", "properties": { "内容": "NS-MENFAST.Y【訪問看護】宇部市妻崎開作1113-12サンシティー西割A棟102", "url": "https://www.kaigokensaku.mhlw.go.jp/35/index.php?action_kouhyou_detail_004_kani=true&JigyosyoCd=3560290482-00&ServiceCd=130&Type=search", "url2": "https://www.nsmen-inc.com/" }, "geometry": { "type": "Point", "coordinates": [ 131.2085817, 33.9722749 ] } },
{ "type": "Feature", "properties": { "内容": "訪問看護ステーションみなみかぜ【訪問看護】山口県宇部市西梶返1丁目2-9-1", "url": "https://www.kaigokensaku.mhlw.go.jp/35/index.php?action_kouhyou_detail_004_kani=true&JigyosyoCd=3560290466-00&ServiceCd=130&Type=search", "url2": null }, "geometry": { "type": "Point", "coordinates": [ 131.260717199999988, 33.9574834 ] } },
{ "type": "Feature", "properties": { "内容": "訪問看護ステーションりん【訪問看護】草江1丁目6番12-1", "url": "https://www.kaigokensaku.mhlw.go.jp/35/index.php?action_kouhyou_detail_004_kani=true&JigyosyoCd=3560290508-00&ServiceCd=130&Type=search", "url2": "https://rin-nxcare.com/" }, "geometry": { "type": "Point", "coordinates": [ 131.2715691, 33.9390038 ] } },
{ "type": "Feature", "properties": { "内容": "訪問看護ステーション私の家【訪問看護】山口県宇部市沖ノ旦中一ノ原953−2", "url": "https://www.kaigokensaku.mhlw.go.jp/35/index.php?action_kouhyou_detail_004_kani=true&JigyosyoCd=3560290300-00&ServiceCd=130&Type=search", "url2": "http://fomax.jp/" }, "geometry": { "type": "Point", "coordinates": [ 131.220875699999965, 34.002061 ] } },
{ "type": "Feature", "properties": { "内容": "ハピナース・エル訪問看護ステーション【訪問看護】山口県宇部市恩田町２丁目１８－２６", "url": "https://www.kaigokensaku.mhlw.go.jp/35/index.php?action_kouhyou_detail_004_kani=true&JigyosyoCd=3560290151-00&ServiceCd=130&Type=search", "url2": null }, "geometry": { "type": "Point", "coordinates": [ 131.262778893254108, 33.944594905351096 ] } },
{ "type": "Feature", "properties": { "内容": "訪問看護ステーション　りんく【訪問看護】山口県宇部市海南町2番58-1オックスビル2F", "url": "https://www.kaigokensaku.mhlw.go.jp/35/index.php?action_kouhyou_detail_004_kani=true&JigyosyoCd=3560290367-00&ServiceCd=130&Type=search", "url2": null }, "geometry": { "type": "Point", "coordinates": [ 131.260972199999969, 33.9587002 ] } },
{ "type": "Feature", "properties": { "内容": "虹の訪問看護ステーション【訪問看護】宇部市五十目山町16-41-1シティハイムＦ1-Ａ", "url": "https://www.kaigokensaku.mhlw.go.jp/35/index.php?action_kouhyou_detail_004_kani=true&JigyosyoCd=3560290037-00&ServiceCd=130&Type=search", "url2": null }, "geometry": { "type": "Point", "coordinates": [ 131.266075269033763, 33.937288574859927 ] } },
{ "type": "Feature", "properties": { "内容": "医療法人聖比留会　厚南セントヒル訪問看護ステーション【訪問看護】山口県宇部市大字妻崎開作108番地", "url": "https://www.kaigokensaku.mhlw.go.jp/35/index.php?action_kouhyou_detail_004_kani=true&JigyosyoCd=3560290094-00&ServiceCd=130&Type=search", "url2": "https://www.sthill-hp.or.jp/houmon/" }, "geometry": { "type": "Point", "coordinates": [ 131.217771946827725, 33.978565645624407 ] } },
{ "type": "Feature", "properties": { "内容": "きわなみ訪問看護ステーション【訪問看護】大字際波726番地3", "url": "https://www.kaigokensaku.mhlw.go.jp/35/index.php?action_kouhyou_detail_004_kani=true&JigyosyoCd=3560290375-00&ServiceCd=130&Type=search", "url2": "https://kiwanami-kaigo.com/" }, "geometry": { "type": "Point", "coordinates": [ 131.222850692065464, 33.994700802467769 ] } },
{ "type": "Feature", "properties": { "内容": "訪問看護ステーション　ハローナース宇部西【訪問看護】山口県宇部市大字際波字東河田287番地の1", "url": "https://www.kaigokensaku.mhlw.go.jp/35/index.php?action_kouhyou_detail_004_kani=true&JigyosyoCd=3560290185-00&ServiceCd=130&Type=search", "url2": "http://www.wadokai.or.jp/ube-nishi/" }, "geometry": { "type": "Point", "coordinates": [ 131.224282066365021, 33.996524728909186 ] } },
{ "type": "Feature", "properties": { "内容": "いろは訪問看護ステーション【訪問看護】山口県宇部市昭和町三丁目4番32号", "url": "https://www.kaigokensaku.mhlw.go.jp/35/index.php?action_kouhyou_detail_004_kani=true&JigyosyoCd=3560290391-00&ServiceCd=130&Type=search", "url2": null }, "geometry": { "type": "Point", "coordinates": [ 131.257239375434921, 33.936847004650403 ] } },
{ "type": "Feature", "properties": { "内容": "おもてなし訪問看護リハビリステーション【訪問看護】山口県宇部市大字上宇部吉原471－11", "url": "https://www.kaigokensaku.mhlw.go.jp/35/index.php?action_kouhyou_detail_004_kani=true&JigyosyoCd=3560290284-00&ServiceCd=130&Type=search", "url2": "https://houmonkango-sanyu.com/" }, "geometry": { "type": "Point", "coordinates": [ 131.262958614155536, 33.987712566035924 ] } },
{ "type": "Feature", "properties": { "内容": "訪問看護ステーション　ハローナース宇部【訪問看護】宇部市大字西岐波229-3", "url": "https://www.kaigokensaku.mhlw.go.jp/35/index.php?action_kouhyou_detail_004_kani=true&JigyosyoCd=3560290003-00&ServiceCd=130&Type=search", "url2": "http://www.ubereha.jp/facility/hn_ube.html" }, "geometry": { "type": "Point", "coordinates": [ 131.303293, 33.966558 ] } },
{ "type": "Feature", "properties": { "内容": "サンキ・ウエルビィ訪問看護ステーション宇部【訪問看護】山口県宇部市大字西岐波4412-2", "url": "https://www.kaigokensaku.mhlw.go.jp/35/index.php?action_kouhyou_detail_004_kani=true&JigyosyoCd=3560290219-00&ServiceCd=130&Type=search", "url2": null }, "geometry": { "type": "Point", "coordinates": [ 131.29598468542099, 33.944232194508949 ] } },
{ "type": "Feature", "properties": { "内容": "リハビリ訪問看護ステーションFuntoLife【訪問看護】山口県宇部市西岐波4470-8リハビリ特化型デイサービスFuntoLife", "url": "https://www.kaigokensaku.mhlw.go.jp/35/index.php?action_kouhyou_detail_004_kani=true&JigyosyoCd=3560290250-00&ServiceCd=130&Type=search", "url2": "https://www.hacnamatata.com/" }, "geometry": { "type": "Point", "coordinates": [ 131.294613600000048, 33.9431128 ] } },
{ "type": "Feature", "properties": { "内容": "てらす訪問看護ステーション【訪問看護】西岐波柳ケ瀬785‐6", "url": "https://www.kaigokensaku.mhlw.go.jp/35/index.php?action_kouhyou_detail_004_kani=true&JigyosyoCd=3560290409-00&ServiceCd=130&Type=search", "url2": null }, "geometry": { "type": "Point", "coordinates": [ 131.3212934, 33.9637122 ] } },
{ "type": "Feature", "properties": { "内容": "訪問看護ステーション未来【訪問看護】宇部市大字船木1017番地5ケアホーム来夢", "url": "https://www.kaigokensaku.mhlw.go.jp/35/index.php?action_kouhyou_detail_004_kani=true&JigyosyoCd=3560290235-00&ServiceCd=130&Type=search", "url2": "https://aiyuukai-mirai.jp/" }, "geometry": { "type": "Point", "coordinates": [ 131.221369492914391, 34.041992005403443 ] } },
{ "type": "Feature", "properties": { "内容": "さるびあ訪問看護ステーション【訪問看護】山口県宇部市浜町2丁目1番3", "url": "https://www.kaigokensaku.mhlw.go.jp/35/index.php?action_kouhyou_detail_004_kani=true&JigyosyoCd=3560290078-00&ServiceCd=130&Type=search", "url2": "https://familand.jp/" }, "geometry": { "type": "Point", "coordinates": [ 131.237383099999988, 33.9649627 ] } },
{ "type": "Feature", "properties": { "内容": "ホームナース立花訪問看護ステーション【訪問看護】宇部市浜田３丁目２４－１", "url": "https://www.kaigokensaku.mhlw.go.jp/35/index.php?action_kouhyou_detail_004_kani=true&JigyosyoCd=3560290128-00&ServiceCd=130&Type=search", "url2": "https://rikka-homenurse.com/" }, "geometry": { "type": "Point", "coordinates": [ 131.229394, 33.9890406 ] } },
{ "type": "Feature", "properties": { "内容": "訪問看護ステーション　あん【訪問看護】山口県宇部市岬町二丁目５－３１", "url": "https://www.kaigokensaku.mhlw.go.jp/35/index.php?action_kouhyou_detail_004_kani=true&JigyosyoCd=3560290227-00&ServiceCd=130&Type=search", "url2": null }, "geometry": { "type": "Point", "coordinates": [ 131.265402903516843, 33.931949949886345 ] } },
{ "type": "Feature", "properties": { "内容": "株式会社グローアップ訪問看護ステーション【訪問看護】山口県宇部市西平原3−4−16", "url": "https://www.kaigokensaku.mhlw.go.jp/35/index.php?action_kouhyou_detail_004_kani=true&JigyosyoCd=3560290516-00&ServiceCd=130&Type=search", "url2": null }, "geometry": { "type": "Point", "coordinates": [ 131.226801199999983, 33.9702366 ] } },
{ "type": "Feature", "properties": { "内容": "泉仁会訪問看護ステーション【訪問看護】山口県宇部市大字木田字中山田４０番地２０", "url": "https://www.kaigokensaku.mhlw.go.jp/35/index.php?action_kouhyou_detail_004_kani=true&JigyosyoCd=3560290086-00&ServiceCd=130&Type=search", "url2": "http//www.senjinkai.jp" }, "geometry": { "type": "Point", "coordinates": [ 131.281504313488739, 34.062544216660761 ] } },
{ "type": "Feature", "properties": { "内容": "仁心会訪問看護ステーション和み【訪問看護】宇部市寿町三丁目3番25号", "url": "https://www.kaigokensaku.mhlw.go.jp/35/index.php?action_kouhyou_detail_004_kani=true&JigyosyoCd=3560290011-00&ServiceCd=130&Type=search", "url2": "http://www.jinsinkai.or.jp/" }, "geometry": { "type": "Point", "coordinates": [ 131.253175985940089, 33.950999443511115 ] } },
{ "type": "Feature", "properties": { "内容": "ケアビレッジ桜　訪問看護ステーション【訪問看護】大字西岐波2066番ケアビレッジ桜　弐番館", "url": "https://www.kaigokensaku.mhlw.go.jp/35/index.php?action_kouhyou_detail_004_kani=true&JigyosyoCd=3560290524-00&ServiceCd=130&Type=search", "url2": "https://keahouse-sakura.jp/" }, "geometry": { "type": "Point", "coordinates": [ 131.3131797, 33.9703936 ] } },
{ "type": "Feature", "properties": { "内容": "Lemonナースリハビリステーション【訪問看護】山口県山口市大内矢田南3丁目7-36", "url": "https://www.kaigokensaku.mhlw.go.jp/35/index.php?action_kouhyou_detail_004_kani=true&JigyosyoCd=3560390373-00&ServiceCd=130&Type=search", "url2": "https://leolemon.jp" }, "geometry": { "type": "Point", "coordinates": [ 131.5021581, 34.1525388 ] } },
{ "type": "Feature", "properties": { "内容": "訪問看護ステーションハローナースきつなｎ【訪問看護】山口県山口市鋳銭司3381", "url": "https://www.kaigokensaku.mhlw.go.jp/35/index.php?action_kouhyou_detail_004_kani=true&JigyosyoCd=3560390381-00&ServiceCd=130&Type=search", "url2": "https://www.kitunan.jp/" }, "geometry": { "type": "Point", "coordinates": [ 131.4615413, 34.0763473 ] } },
{ "type": "Feature", "properties": { "内容": "訪問看護ステーションクローバーケア【訪問看護】山口県山口市小郡上郷1745番地5", "url": "https://www.kaigokensaku.mhlw.go.jp/35/index.php?action_kouhyou_detail_004_kani=true&JigyosyoCd=3560390241-00&ServiceCd=130&Type=search", "url2": null }, "geometry": { "type": "Point", "coordinates": [ 131.416468269311537, 34.129997247815474 ] } },
{ "type": "Feature", "properties": { "内容": "大正通りクリニック訪問看護【訪問看護】山口県山口市小郡明治2丁目1番5号", "url": "https://www.kaigokensaku.mhlw.go.jp/35/index.php?action_kouhyou_detail_004_kani=true&JigyosyoCd=3510313269-00&ServiceCd=130&Type=search", "url2": "http://www.taishoudouri-clinic.com/" }, "geometry": { "type": "Point", "coordinates": [ 131.3971379, 34.097563200000018 ] } },
{ "type": "Feature", "properties": { "内容": "訪問看護　花の森【訪問看護】山口県山口市下小鯖2698-1", "url": "https://www.kaigokensaku.mhlw.go.jp/35/index.php?action_kouhyou_detail_004_kani=true&JigyosyoCd=3560390142-00&ServiceCd=130&Type=search", "url2": null }, "geometry": { "type": "Point", "coordinates": [ 131.533215400000017, 34.1159103 ] } },
{ "type": "Feature", "properties": { "内容": "小郡訪問看護ステーション【訪問看護】山口市小郡下郷７４７番地２１", "url": "https://www.kaigokensaku.mhlw.go.jp/35/index.php?action_kouhyou_detail_004_kani=true&JigyosyoCd=3567690015-00&ServiceCd=130&Type=search", "url2": "https：//www.hp-hayashi.or.jp/" }, "geometry": { "type": "Point", "coordinates": [ 131.392551288071644, 34.099931921570445 ] } },
{ "type": "Feature", "properties": { "内容": "いりょうほうじんしゃだんすいせいかい　しばたびょういん【訪問看護】山口県山口市大内矢田北５丁目１１番２１号", "url": "https://www.kaigokensaku.mhlw.go.jp/35/index.php?action_kouhyou_detail_004_kani=true&JigyosyoCd=3510311230-00&ServiceCd=130&Type=search", "url2": "https://www.suiseikai.org/" }, "geometry": { "type": "Point", "coordinates": [ 131.5092923, 34.154836899999985 ] } },
{ "type": "Feature", "properties": { "内容": "訪問看護ステーション凪～なぎ～【訪問看護】山口県山口市大内矢田南六丁目5-50ハイムＢＹ102", "url": "https://www.kaigokensaku.mhlw.go.jp/35/index.php?action_kouhyou_detail_004_kani=true&JigyosyoCd=3560390399-00&ServiceCd=130&Type=search", "url2": null }, "geometry": { "type": "Point", "coordinates": [ 131.505863711045038, 34.149425840801698 ] } },
{ "type": "Feature", "properties": { "内容": "訪問看護リハビリステーションるりいろ【訪問看護】山口県山口市香山町6-24", "url": "https://www.kaigokensaku.mhlw.go.jp/35/index.php?action_kouhyou_detail_004_kani=true&JigyosyoCd=3560390431-00&ServiceCd=130&Type=search", "url2": "https://ruriiroyamaguchi.com" }, "geometry": { "type": "Point", "coordinates": [ 131.4747441, 34.18949 ] } },
{ "type": "Feature", "properties": { "内容": "阿知須訪問看護ステーション【訪問看護】山口市阿知須4241番地4", "url": "https://www.kaigokensaku.mhlw.go.jp/35/index.php?action_kouhyou_detail_004_kani=true&JigyosyoCd=3567690007-00&ServiceCd=130&Type=search", "url2": "http://www.ajisudohjin.com" }, "geometry": { "type": "Point", "coordinates": [ 131.36015939999993, 34.0100216 ] } },
{ "type": "Feature", "properties": { "内容": "訪問看護ステーションすこやかナース【訪問看護】山口市阿知須４７１６番地１４", "url": "https://www.kaigokensaku.mhlw.go.jp/35/index.php?action_kouhyou_detail_004_kani=true&JigyosyoCd=3567690023-00&ServiceCd=130&Type=search", "url2": "http://www.kyoai.or.jp" }, "geometry": { "type": "Point", "coordinates": [ 131.357000623942525, 34.007786853103767 ] } },
{ "type": "Feature", "properties": { "内容": "山口市社会福祉協議会　あとう訪問看護ステーション【訪問看護】山口県山口市阿東地福上1697番地", "url": "https://www.kaigokensaku.mhlw.go.jp/35/index.php?action_kouhyou_detail_004_kani=true&JigyosyoCd=3560390191-00&ServiceCd=130&Type=search", "url2": null }, "geometry": { "type": "Point", "coordinates": [ 131.668682600000011, 34.3618826 ] } },
{ "type": "Feature", "properties": { "内容": "訪問看護おかふじ【訪問看護】山口県山口市宮島町2-10", "url": "https://www.kaigokensaku.mhlw.go.jp/35/index.php?action_kouhyou_detail_004_kani=true&JigyosyoCd=3560390183-00&ServiceCd=130&Type=search", "url2": null }, "geometry": { "type": "Point", "coordinates": [ 131.4788711, 34.1677498 ] } },
{ "type": "Feature", "properties": { "内容": "合同会社橘会【訪問看護】山口県山口市桜畠5-4-3", "url": "https://www.kaigokensaku.mhlw.go.jp/35/index.php?action_kouhyou_detail_004_kani=true&JigyosyoCd=3560390274-00&ServiceCd=130&Type=search", "url2": null }, "geometry": { "type": "Point", "coordinates": [ 131.494351526992489, 34.194052655391005 ] } },
{ "type": "Feature", "properties": { "内容": "訪問看護ステーション　ハローナース山口【訪問看護】山口県山口市黒川3380", "url": "https://www.kaigokensaku.mhlw.go.jp/35/index.php?action_kouhyou_detail_004_kani=true&JigyosyoCd=3560390092-00&ServiceCd=130&Type=search", "url2": "http://www.wadokai.or.jp/yamariha" }, "geometry": { "type": "Point", "coordinates": [ 131.438966299999947, 34.1319796 ] } },
{ "type": "Feature", "properties": { "内容": "さんコープ訪問看護ステーション宮野【訪問看護】山口県山口市桜畠２丁目９－１７", "url": "https://www.kaigokensaku.mhlw.go.jp/35/index.php?action_kouhyou_detail_004_kani=true&JigyosyoCd=3560390324-00&ServiceCd=130&Type=search", "url2": "http://www.san-coop.jp/" }, "geometry": { "type": "Point", "coordinates": [ 131.50193307242202, 34.194562088724766 ] } },
{ "type": "Feature", "properties": { "内容": "医療法人社団素心会神德内科　訪問看護ステーションこうとく【訪問看護】周布町3-18", "url": "https://www.kaigokensaku.mhlw.go.jp/35/index.php?action_kouhyou_detail_004_kani=true&JigyosyoCd=3560390282-00&ServiceCd=130&Type=search", "url2": "https://www.koutokunaika.or.jp/" }, "geometry": { "type": "Point", "coordinates": [ 131.4533518, 34.1592175 ] } },
{ "type": "Feature", "properties": { "内容": "小郡第一総合病院訪問看護ステーション【訪問看護】山口市小郡下郷862番地3", "url": "https://www.kaigokensaku.mhlw.go.jp/35/index.php?action_kouhyou_detail_004_kani=true&JigyosyoCd=3560390159-00&ServiceCd=130&Type=search", "url2": "htpp://www.ogoridaiichi.jp/" }, "geometry": { "type": "Point", "coordinates": [ 131.3971987, 34.1034567 ] } },
{ "type": "Feature", "properties": { "内容": "大正通りクリニック訪問看護【訪問看護】山口県山口市小郡明治2丁目1番5号", "url": "https://www.kaigokensaku.mhlw.go.jp/35/index.php?action_kouhyou_detail_004_kani=true&JigyosyoCd=3510313442-00&ServiceCd=130&Type=search", "url2": "https://www.taishoudouri-clinic.net" }, "geometry": { "type": "Point", "coordinates": [ 131.3971379, 34.0975632 ] } },
{ "type": "Feature", "properties": { "内容": "あてくろ訪問看護ステーション【訪問看護】山口県山口市小郡明治二丁目9番１３号FMCC山口", "url": "https://www.kaigokensaku.mhlw.go.jp/35/index.php?action_kouhyou_detail_004_kani=true&JigyosyoCd=3560390332-00&ServiceCd=130&Type=search", "url2": "http://y-fmed.com/" }, "geometry": { "type": "Point", "coordinates": [ 131.394669, 34.095665 ] } },
{ "type": "Feature", "properties": { "内容": "済生会山口地域ケアセンター居宅介護サービス複合施設にほ苑訪問看護事業所【訪問看護】山口県山口市仁保中郷988-1", "url": "https://www.kaigokensaku.mhlw.go.jp/35/index.php?action_kouhyou_detail_004_kani=true&JigyosyoCd=3560390167-00&ServiceCd=130&Type=search", "url2": null }, "geometry": { "type": "Point", "coordinates": [ 131.559081088885478, 34.210047264014271 ] } },
{ "type": "Feature", "properties": { "内容": "さきがけ訪問看護ステーション【訪問看護】山口市鋳銭司6000番地１", "url": "https://www.kaigokensaku.mhlw.go.jp/35/index.php?action_kouhyou_detail_004_kani=true&JigyosyoCd=3560390175-00&ServiceCd=130&Type=search", "url2": "http://www.aikawaiin.or.jp" }, "geometry": { "type": "Point", "coordinates": [ 131.448330199999987, 34.080040599999982 ] } },
{ "type": "Feature", "properties": { "内容": "済生会山口地域ケアセンター在宅複合型施設やすらぎ訪問看護ステーション【訪問看護】山口県山口市朝倉町４－５５－６", "url": "https://www.kaigokensaku.mhlw.go.jp/35/index.php?action_kouhyou_detail_004_kani=true&JigyosyoCd=3560390001-00&ServiceCd=130&Type=search", "url2": "http://www.c-able.ne.jp/~saiyama/top2html" }, "geometry": { "type": "Point", "coordinates": [ 131.453462700000046, 34.1763789 ] } },
{ "type": "Feature", "properties": { "内容": "訪問看護ステーションアドバンス【訪問看護】湯田温泉1-1-7", "url": "https://www.kaigokensaku.mhlw.go.jp/35/index.php?action_kouhyou_detail_004_kani=true&JigyosyoCd=3560390357-00&ServiceCd=130&Type=search", "url2": "https://terios-d.co.jp/test/advance/" }, "geometry": { "type": "Point", "coordinates": [ 131.4604273, 34.1658627 ] } },
{ "type": "Feature", "properties": { "内容": "山口赤十字訪問看護ステーション【訪問看護】山口市八幡馬場53-1", "url": "https://www.kaigokensaku.mhlw.go.jp/35/index.php?action_kouhyou_detail_004_kani=true&JigyosyoCd=3560390050-00&ServiceCd=130&Type=search", "url2": "www.yamaguchi-redcross.jp" }, "geometry": { "type": "Point", "coordinates": [ 131.482845099999963, 34.1843291 ] } },
{ "type": "Feature", "properties": { "内容": "光山医院山口【訪問看護】山口県山口市矢原町7番18号", "url": "https://www.kaigokensaku.mhlw.go.jp/35/index.php?action_kouhyou_detail_004_kani=true&JigyosyoCd=3510313020-00&ServiceCd=130&Type=search", "url2": "www.mitsuyama-c.com/index.php" }, "geometry": { "type": "Point", "coordinates": [ 131.452566599999955, 34.1563473 ] } },
{ "type": "Feature", "properties": { "内容": "青藍会在宅医療支援センター山口訪問看護ステーション【訪問看護】山口県山口市吉敷中東一丁目1-2", "url": "https://www.kaigokensaku.mhlw.go.jp/35/index.php?action_kouhyou_detail_004_kani=true&JigyosyoCd=3560390233-00&ServiceCd=130&Type=search", "url2": "http://www.seirankai.or.jp" }, "geometry": { "type": "Point", "coordinates": [ 131.447302736909478, 34.166883380265794 ] } },
{ "type": "Feature", "properties": { "内容": "青藍会在宅医療支援センター新山口訪問看護ステーション【訪問看護】山口県山口市小郡平成町1-18", "url": "https://www.kaigokensaku.mhlw.go.jp/35/index.php?action_kouhyou_detail_004_kani=true&JigyosyoCd=3560390134-00&ServiceCd=130&Type=search", "url2": "http://www.seirankai.or.jp" }, "geometry": { "type": "Point", "coordinates": [ 131.400471, 34.0878253 ] } },
{ "type": "Feature", "properties": { "内容": "青藍会在宅医療支援センター南山口訪問看護ステーション【訪問看護】山口県山口市深溝803-1", "url": "https://www.kaigokensaku.mhlw.go.jp/35/index.php?action_kouhyou_detail_004_kani=true&JigyosyoCd=3560390365-00&ServiceCd=130&Type=search", "url2": "http://www.seirankai.or.jp" }, "geometry": { "type": "Point", "coordinates": [ 131.367142199999989, 34.051509 ] } },
{ "type": "Feature", "properties": { "内容": "きらら山口訪問看護リハビリステーション【訪問看護】山口県山口市佐山1258-1", "url": "https://www.kaigokensaku.mhlw.go.jp/35/index.php?action_kouhyou_detail_004_kani=true&JigyosyoCd=3560390316-00&ServiceCd=130&Type=search", "url2": "http://houmonkango-kirara@.com" }, "geometry": { "type": "Point", "coordinates": [ 131.361798, 34.0414524 ] } },
{ "type": "Feature", "properties": { "内容": "株式会社　訪問看護ステーション心萩【訪問看護】山口県萩市大字椿東2531番地1", "url": "https://www.kaigokensaku.mhlw.go.jp/35/index.php?action_kouhyou_detail_004_kani=true&JigyosyoCd=3560490074-00&ServiceCd=130&Type=search", "url2": null }, "geometry": { "type": "Point", "coordinates": [ 131.414096699999988, 34.4114151 ] } },
{ "type": "Feature", "properties": { "内容": "玉木病院訪問看護ステーション【訪問看護】山口県萩市大字瓦町49", "url": "https://www.kaigokensaku.mhlw.go.jp/35/index.php?action_kouhyou_detail_004_kani=true&JigyosyoCd=3560490058-00&ServiceCd=130&Type=search", "url2": "http://www.tamaki-hp.jp/" }, "geometry": { "type": "Point", "coordinates": [ 131.3964187, 34.411640700000035 ] } },
{ "type": "Feature", "properties": { "内容": "株式会社訪問看護ステーション陽向【訪問看護】山口県萩市土原300番地6", "url": "https://www.kaigokensaku.mhlw.go.jp/35/index.php?action_kouhyou_detail_004_kani=true&JigyosyoCd=3560490033-00&ServiceCd=130&Type=search", "url2": "https://houkan-hinata.com/" }, "geometry": { "type": "Point", "coordinates": [ 131.408871007135303, 34.411764916159385 ] } },
{ "type": "Feature", "properties": { "内容": "かねた訪問看護ステーション【訪問看護】山口県萩市大字吉田町1番地", "url": "https://www.kaigokensaku.mhlw.go.jp/35/index.php?action_kouhyou_detail_004_kani=true&JigyosyoCd=3560490041-00&ServiceCd=130&Type=search", "url2": null }, "geometry": { "type": "Point", "coordinates": [ 131.403348199999982, 34.4132023 ] } },
{ "type": "Feature", "properties": { "内容": "ハートブリッジ訪問看護ステーション【訪問看護】山口県防府市田島1943-4ACOT", "url": "https://www.kaigokensaku.mhlw.go.jp/35/index.php?action_kouhyou_detail_004_kani=true&JigyosyoCd=3561590062-00&ServiceCd=130&Type=search", "url2": "https://www.lcraft-kabushikigaisya.com/" }, "geometry": { "type": "Point", "coordinates": [ 131.751723199999986, 34.0724518 ] } },
{ "type": "Feature", "properties": { "内容": "岸津苑訪問看護ステーション【訪問看護】防府市岸津二丁目２４－２０", "url": "https://www.kaigokensaku.mhlw.go.jp/35/index.php?action_kouhyou_detail_004_kani=true&JigyosyoCd=3560690160-00&ServiceCd=130&Type=search", "url2": "http://www.shuyou.jp/" }, "geometry": { "type": "Point", "coordinates": [ 131.593241886508167, 34.049649854524965 ] } },
{ "type": "Feature", "properties": { "内容": "訪問看護ステーション　ライフナース【訪問看護】山口県防府市高倉2丁目14-33高橋ビル　201", "url": "https://www.kaigokensaku.mhlw.go.jp/35/index.php?action_kouhyou_detail_004_kani=true&JigyosyoCd=3560690244-00&ServiceCd=130&Type=search", "url2": "http://life-care-takasago.jp/homon/" }, "geometry": { "type": "Point", "coordinates": [ 131.5583354, 34.053451 ] } },
{ "type": "Feature", "properties": { "内容": "原田訪問看護センター【訪問看護】防府市国衙５丁目９番２７号", "url": "https://www.kaigokensaku.mhlw.go.jp/35/index.php?action_kouhyou_detail_004_kani=true&JigyosyoCd=3560690095-00&ServiceCd=130&Type=search", "url2": null }, "geometry": { "type": "Point", "coordinates": [ 131.5890908, 34.054965 ] } },
{ "type": "Feature", "properties": { "内容": "グリーンライフ防府沖今宿訪問看護ステーション【訪問看護】山口県防府市沖今宿一丁目18番20号", "url": "https://www.kaigokensaku.mhlw.go.jp/35/index.php?action_kouhyou_detail_004_kani=true&JigyosyoCd=3560690277-00&ServiceCd=130&Type=search", "url2": "https://www.greenlife-inc.co.jp/" }, "geometry": { "type": "Point", "coordinates": [ 131.59945110000001, 34.0487465 ] } },
{ "type": "Feature", "properties": { "内容": "山口県防府市泉町24-8【訪問看護】山口県防府市泉町24-8", "url": "https://www.kaigokensaku.mhlw.go.jp/35/index.php?action_kouhyou_detail_004_kani=true&JigyosyoCd=3560690269-00&ServiceCd=130&Type=search", "url2": null }, "geometry": { "type": "Point", "coordinates": [ 131.554160599999989, 34.0609514 ] } },
{ "type": "Feature", "properties": { "内容": "訪問看護ステーションあかり【訪問看護】山口県防府市駅南町8番35号尾中ビルⅡ2階北側", "url": "https://www.kaigokensaku.mhlw.go.jp/35/index.php?action_kouhyou_detail_004_kani=true&JigyosyoCd=3560690285-00&ServiceCd=130&Type=search", "url2": "https://www.itsuki070304.com" }, "geometry": { "type": "Point", "coordinates": [ 131.5650853, 34.0515754 ] } },
{ "type": "Feature", "properties": { "内容": "ヘスティア華城　訪問看護ステーション【訪問看護】山口県防府市大字伊佐江1039番地の1", "url": "https://www.kaigokensaku.mhlw.go.jp/35/index.php?action_kouhyou_detail_004_kani=true&JigyosyoCd=3560690228-00&ServiceCd=130&Type=search", "url2": "http//kaseikai.com" }, "geometry": { "type": "Point", "coordinates": [ 131.5441111, 34.0394936 ] } },
{ "type": "Feature", "properties": { "内容": "自遊の街　訪問看護ステーション　つばさ【訪問看護】山口県防府市栄町１－６－１　Ｋ・Ｓビル４Ｆ", "url": "https://www.kaigokensaku.mhlw.go.jp/35/index.php?action_kouhyou_detail_004_kani=true&JigyosyoCd=3560690129-00&ServiceCd=130&Type=search", "url2": null }, "geometry": { "type": "Point", "coordinates": [ 131.571433800000023, 34.0542734 ] } },
{ "type": "Feature", "properties": { "内容": "訪問看護ステーション　東風【訪問看護】山口県防府市大字下右田350番地3", "url": "https://www.kaigokensaku.mhlw.go.jp/35/index.php?action_kouhyou_detail_004_kani=true&JigyosyoCd=3560690178-00&ServiceCd=130&Type=search", "url2": "https://www.anshin-cls.net/" }, "geometry": { "type": "Point", "coordinates": [ 131.556694579314467, 34.073438732660819 ] } },
{ "type": "Feature", "properties": { "内容": "株式会社ピーエー　訪問看護ステーション　ゆうの風三田尻【訪問看護】山口県防府市警固町1丁目6番42号", "url": "https://www.kaigokensaku.mhlw.go.jp/35/index.php?action_kouhyou_detail_004_kani=true&JigyosyoCd=3560690152-00&ServiceCd=130&Type=search", "url2": "http://care-net.biz/35/younokaze/" }, "geometry": { "type": "Point", "coordinates": [ 131.579330504368642, 34.05033245704923 ] } },
{ "type": "Feature", "properties": { "内容": "ふうき訪問看護ステーション【訪問看護】山口県防府市国分寺町5番29号", "url": "https://www.kaigokensaku.mhlw.go.jp/35/index.php?action_kouhyou_detail_004_kani=true&JigyosyoCd=3560690210-00&ServiceCd=130&Type=search", "url2": "hp.kaipoke.biz/0a3/" }, "geometry": { "type": "Point", "coordinates": [ 131.579270710431871, 34.064861558157808 ] } },
{ "type": "Feature", "properties": { "内容": "光山医院訪問看護事業所【訪問看護】山口県防府市今市町21‐15", "url": "https://www.kaigokensaku.mhlw.go.jp/35/index.php?action_kouhyou_detail_004_kani=true&JigyosyoCd=3510612272-00&ServiceCd=130&Type=search", "url2": "//www.mitsuyama-c.com/" }, "geometry": { "type": "Point", "coordinates": [ 131.5649535, 34.0628555 ] } },
{ "type": "Feature", "properties": { "内容": "訪問看護ステーション　スマイルネット防府【訪問看護】山口県防府市大字大崎801-1", "url": "https://www.kaigokensaku.mhlw.go.jp/35/index.php?action_kouhyou_detail_004_kani=true&JigyosyoCd=3560690087-00&ServiceCd=130&Type=search", "url2": "http://hitotsunokai.jp" }, "geometry": { "type": "Point", "coordinates": [ 131.539202056287081, 34.063803339182485 ] } },
{ "type": "Feature", "properties": { "内容": "訪問看護ステーションはくあいナース【訪問看護】防府市三田尻1－1－24", "url": "https://www.kaigokensaku.mhlw.go.jp/35/index.php?action_kouhyou_detail_004_kani=true&JigyosyoCd=3560690020-00&ServiceCd=130&Type=search", "url2": "http://www6.ocn.ne.jp/~hakuaih/" }, "geometry": { "type": "Point", "coordinates": [ 131.572369900000012, 34.0484354 ] } },
{ "type": "Feature", "properties": { "内容": "好日苑訪問看護ステーション【訪問看護】山口県防府市戎町二丁目５番１号", "url": "https://www.kaigokensaku.mhlw.go.jp/35/index.php?action_kouhyou_detail_004_kani=true&JigyosyoCd=3560690053-00&ServiceCd=130&Type=search", "url2": "https://www.syoujyukai.or.jp" }, "geometry": { "type": "Point", "coordinates": [ 131.5703532, 34.0590505 ] } },
{ "type": "Feature", "properties": { "内容": "山口県看護協会訪問看護ステーションほうふ【訪問看護】防府市大字上右田２６８６", "url": "https://www.kaigokensaku.mhlw.go.jp/35/index.php?action_kouhyou_detail_004_kani=true&JigyosyoCd=3560690038-00&ServiceCd=130&Type=search", "url2": "http://www.y-kango.or.jp/" }, "geometry": { "type": "Point", "coordinates": [ 131.56684759999996, 34.0716821 ] } },
{ "type": "Feature", "properties": { "内容": "訪問看護ステーションプルメリア【訪問看護】山口県防府市大字新田818-1", "url": "https://www.kaigokensaku.mhlw.go.jp/35/index.php?action_kouhyou_detail_004_kani=true&JigyosyoCd=3560690186-00&ServiceCd=130&Type=search", "url2": "https://jisshokai.com/" }, "geometry": { "type": "Point", "coordinates": [ 131.564121301188607, 34.030006217819555 ] } },
{ "type": "Feature", "properties": { "内容": "合同会社CsimprovingLab【訪問看護】山口県防府市大字真尾314番地の3", "url": "https://www.kaigokensaku.mhlw.go.jp/35/index.php?action_kouhyou_detail_004_kani=true&JigyosyoCd=3560690251-00&ServiceCd=130&Type=search", "url2": "https://www.cs-improving-lab.com/" }, "geometry": { "type": "Point", "coordinates": [ 131.5921157, 34.099992800000017 ] } },
{ "type": "Feature", "properties": { "内容": "訪問看護ステーション　ハローナース防府【訪問看護】山口県防府市大字台道1634-1", "url": "https://www.kaigokensaku.mhlw.go.jp/35/index.php?action_kouhyou_detail_004_kani=true&JigyosyoCd=3560690004-00&ServiceCd=130&Type=search", "url2": null }, "geometry": { "type": "Point", "coordinates": [ 131.493525933204637, 34.06941833084344 ] } },
{ "type": "Feature", "properties": { "内容": "訪問看護ステーション　はぴね防府【訪問看護】防府市大字田島1460-4", "url": "https://www.kaigokensaku.mhlw.go.jp/35/index.php?action_kouhyou_detail_004_kani=true&JigyosyoCd=3560690145-00&ServiceCd=130&Type=search", "url2": "www.greenlife-inc.co.jp/" }, "geometry": { "type": "Point", "coordinates": [ 131.54722270000002, 34.0226077 ] } },
{ "type": "Feature", "properties": { "内容": "三田尻訪問看護ステーション【訪問看護】防府市防府市東松崎町4番29号", "url": "https://www.kaigokensaku.mhlw.go.jp/35/index.php?action_kouhyou_detail_004_kani=true&JigyosyoCd=3560690079-00&ServiceCd=130&Type=search", "url2": null }, "geometry": { "type": "Point", "coordinates": [ 131.579577313444588, 34.059198474855243 ] } },
{ "type": "Feature", "properties": { "内容": "合同会社　訪問看護ステーションほのか【訪問看護】山口県防府市大字田島577番地8", "url": "https://www.kaigokensaku.mhlw.go.jp/35/index.php?action_kouhyou_detail_004_kani=true&JigyosyoCd=3560690202-00&ServiceCd=130&Type=search", "url2": null }, "geometry": { "type": "Point", "coordinates": [ 131.566050899999937, 34.0355641 ] } },
{ "type": "Feature", "properties": { "内容": "リハビリ＆ケア訪問看護ステーションのあ下松【訪問看護】山口県下松市藤光町1-10-31相本ビル2階", "url": "https://www.kaigokensaku.mhlw.go.jp/35/index.php?action_kouhyou_detail_004_kani=true&JigyosyoCd=3560790051-00&ServiceCd=130&Type=search", "url2": "https://houkannoah.com/" }, "geometry": { "type": "Point", "coordinates": [ 130.519073100000014, 33.2726713 ] } },
{ "type": "Feature", "properties": { "内容": "訪問看護ステーション下松・きらら【訪問看護】山口県下松市生野屋南1丁目10番1号", "url": "https://www.kaigokensaku.mhlw.go.jp/35/index.php?action_kouhyou_detail_004_kani=true&JigyosyoCd=3560790002-00&ServiceCd=130&Type=search", "url2": "http://shunan-kinen.jp/" }, "geometry": { "type": "Point", "coordinates": [ 131.876613200000065, 34.0326424 ] } },
{ "type": "Feature", "properties": { "内容": "訪問看護ステーション　ココロ【訪問看護】山口県下松市大手町2丁目5-18ティティ商事ビル3F", "url": "https://www.kaigokensaku.mhlw.go.jp/35/index.php?action_kouhyou_detail_004_kani=true&JigyosyoCd=3560790069-00&ServiceCd=130&Type=search", "url2": "https://www.lifeline-corp.com/" }, "geometry": { "type": "Point", "coordinates": [ 131.8669156, 34.0129831 ] } },
{ "type": "Feature", "properties": { "内容": "訪問看護ステーション　あゆみ【訪問看護】山口県岩国市玖珂町4999-1", "url": "https://www.kaigokensaku.mhlw.go.jp/35/index.php?action_kouhyou_detail_004_kani=true&JigyosyoCd=3560890067-00&ServiceCd=130&Type=search", "url2": "http://www.forest-ayumi.com/" }, "geometry": { "type": "Point", "coordinates": [ 132.095282947776809, 34.087168325934961 ] } },
{ "type": "Feature", "properties": { "内容": "訪問看護ステーション千樹の杜【訪問看護】周東町下久原2580-2サービス付き高齢者向け住宅千樹の杜", "url": "https://www.kaigokensaku.mhlw.go.jp/35/index.php?action_kouhyou_detail_004_kani=true&JigyosyoCd=3560890125-00&ServiceCd=130&Type=search", "url2": "https://www.kiyotoki.co.jp/" }, "geometry": { "type": "Point", "coordinates": [ 132.054013150262449, 34.101087832462291 ] } },
{ "type": "Feature", "properties": { "内容": "山口平成病院　訪問看護【訪問看護】山口県岩国市玖珂町11340", "url": "https://www.kaigokensaku.mhlw.go.jp/35/index.php?action_kouhyou_detail_004_kani=true&JigyosyoCd=3517210831-00&ServiceCd=130&Type=search", "url2": "http://www.yamaguchihp.jp/" }, "geometry": { "type": "Point", "coordinates": [ 132.059236599999963, 34.1022024 ] } },
{ "type": "Feature", "properties": { "内容": "訪問看護ステーション無花果（Mukaka）【訪問看護】牛野谷町1丁目5-25", "url": "https://www.kaigokensaku.mhlw.go.jp/35/index.php?action_kouhyou_detail_004_kani=true&JigyosyoCd=3560890117-00&ServiceCd=130&Type=search", "url2": "http://www.mukaka-iwakuni.com/" }, "geometry": { "type": "Point", "coordinates": [ 132.1933395, 34.1573482 ] } },
{ "type": "Feature", "properties": { "内容": "訪問看護ステーション　アイリス【訪問看護】山口県岩国市錦見７丁目16-1", "url": "https://www.kaigokensaku.mhlw.go.jp/35/index.php?action_kouhyou_detail_004_kani=true&JigyosyoCd=3560890026-00&ServiceCd=130&Type=search", "url2": "http://www.ymg.urban.ne.jp/home/ryuchan2/index.html" }, "geometry": { "type": "Point", "coordinates": [ 132.187214, 34.1597679 ] } },
{ "type": "Feature", "properties": { "内容": "ナースステーション愛花～aika【訪問看護】山口県岩国市黒磯町２丁目２５－５－１", "url": "https://www.kaigokensaku.mhlw.go.jp/35/index.php?action_kouhyou_detail_004_kani=true&JigyosyoCd=3560890182-00&ServiceCd=130&Type=search", "url2": null }, "geometry": { "type": "Point", "coordinates": [ 132.196896900000013, 34.1076232 ] } },
{ "type": "Feature", "properties": { "内容": "訪問看護ステーション　むろの樹【訪問看護】山口県岩国市室の木町3丁目6番12号岩国市医療センター医師会病院　東館２階", "url": "https://www.kaigokensaku.mhlw.go.jp/35/index.php?action_kouhyou_detail_004_kani=true&JigyosyoCd=3560890141-00&ServiceCd=130&Type=search", "url2": "http://st.muronoki2019@iwakuni-med.jp" }, "geometry": { "type": "Point", "coordinates": [ 132.20620179577034, 34.171260291592141 ] } },
{ "type": "Feature", "properties": { "内容": "訪問看護ステーションひだまり【訪問看護】山口県岩国市周東町祖生5717-5", "url": "https://www.kaigokensaku.mhlw.go.jp/35/index.php?action_kouhyou_detail_004_kani=true&JigyosyoCd=3567290022-00&ServiceCd=130&Type=search", "url2": "kawasato.or.jp" }, "geometry": { "type": "Point", "coordinates": [ 132.106501265649257, 34.074328211857058 ] } },
{ "type": "Feature", "properties": { "内容": "いわくに訪問看護リハビリテーションセンター【訪問看護】山口県岩国市南岩国町1丁目23-19", "url": "https://www.kaigokensaku.mhlw.go.jp/35/index.php?action_kouhyou_detail_004_kani=true&JigyosyoCd=3560890190-00&ServiceCd=130&Type=search", "url2": "https://note.com/iwakuni_center/n/ncf4222a75beb" }, "geometry": { "type": "Point", "coordinates": [ 132.202678, 34.1325591 ] } },
{ "type": "Feature", "properties": { "内容": "岩国市立訪問看護ステーションさくら【訪問看護】山口県岩国市美和町渋前1383番地１", "url": "https://www.kaigokensaku.mhlw.go.jp/35/index.php?action_kouhyou_detail_004_kani=true&JigyosyoCd=3560890166-00&ServiceCd=130&Type=search", "url2": "https://iwk-sakura.org/" }, "geometry": { "type": "Point", "coordinates": [ 132.093173571163618, 34.222399130357431 ] } },
{ "type": "Feature", "properties": { "内容": "訪問看護ステーション　わかあゆ【訪問看護】山口県岩国市麻里布町3-5-5", "url": "https://www.kaigokensaku.mhlw.go.jp/35/index.php?action_kouhyou_detail_004_kani=true&JigyosyoCd=3560890018-00&ServiceCd=130&Type=search", "url2": "wakayuki@i-shiseikai.or.jp" }, "geometry": { "type": "Point", "coordinates": [ 132.222516594642684, 34.169917888048261 ] } },
{ "type": "Feature", "properties": { "内容": "訪問看護ステーションつくし【訪問看護】岩国市南岩国町2丁目77-23", "url": "https://www.kaigokensaku.mhlw.go.jp/35/index.php?action_kouhyou_detail_004_kani=true&JigyosyoCd=3560890000-00&ServiceCd=130&Type=search", "url2": "http://iwakuni-minami.or.jp" }, "geometry": { "type": "Point", "coordinates": [ 132.192795680426002, 34.138539124232985 ] } },
{ "type": "Feature", "properties": { "内容": "訪問看護ステーションてんゆう【訪問看護】山口県岩国市麻里布町4丁目2-17ウイングマリフ1階", "url": "https://www.kaigokensaku.mhlw.go.jp/35/index.php?action_kouhyou_detail_004_kani=true&JigyosyoCd=3560890174-00&ServiceCd=130&Type=search", "url2": "https://www.tenyu-iwakuni.com/" }, "geometry": { "type": "Point", "coordinates": [ 132.2227747, 34.1728233 ] } },
{ "type": "Feature", "properties": { "内容": "なつめ訪問看護ステーション【訪問看護】山口県岩国市由宇町南2-7-7広田ハイツ103号室", "url": "https://www.kaigokensaku.mhlw.go.jp/35/index.php?action_kouhyou_detail_004_kani=true&JigyosyoCd=3560890232-00&ServiceCd=130&Type=search", "url2": null }, "geometry": { "type": "Point", "coordinates": [ 132.2113058, 34.0423028 ] } },
{ "type": "Feature", "properties": { "内容": "リハビリ＆ケア訪問看護ステーションのあ【訪問看護】山口県光市島田2丁目11－6第２原田ビル", "url": "https://www.kaigokensaku.mhlw.go.jp/35/index.php?action_kouhyou_detail_004_kani=true&JigyosyoCd=3561090048-00&ServiceCd=130&Type=search", "url2": "https://houkannoah.com" }, "geometry": { "type": "Point", "coordinates": [ 131.934847389040442, 33.972270020113314 ] } },
{ "type": "Feature", "properties": { "内容": "光市立大和総合病院【訪問看護】山口県光市大字岩田９７４番地", "url": "https://www.kaigokensaku.mhlw.go.jp/35/index.php?action_kouhyou_detail_004_kani=true&JigyosyoCd=3517310011-00&ServiceCd=130&Type=search", "url2": "https://h-yamato-hosp.jp/" }, "geometry": { "type": "Point", "coordinates": [ 131.999812, 33.9828041 ] } },
{ "type": "Feature", "properties": { "内容": "訪問看護ステーションつむぎ【訪問看護】山口県光市光井4丁目31-12フレグランス光101", "url": "https://www.kaigokensaku.mhlw.go.jp/35/index.php?action_kouhyou_detail_004_kani=true&JigyosyoCd=3561090030-00&ServiceCd=130&Type=search", "url2": "https://www.team-tsumugi.com/" }, "geometry": { "type": "Point", "coordinates": [ 131.955047400000012, 33.9536538 ] } },
{ "type": "Feature", "properties": { "内容": "山口県看護協会　訪問看護ステーションひかり【訪問看護】山口県光市浅江5-4-22", "url": "https://www.kaigokensaku.mhlw.go.jp/35/index.php?action_kouhyou_detail_004_kani=true&JigyosyoCd=3561090006-00&ServiceCd=130&Type=search", "url2": null }, "geometry": { "type": "Point", "coordinates": [ 131.925455199999988, 33.9699977 ] } },
{ "type": "Feature", "properties": { "内容": "訪問看護ステーションあさひ【訪問看護】山口県光市虹ケ浜1-1-10", "url": "https://www.kaigokensaku.mhlw.go.jp/35/index.php?action_kouhyou_detail_004_kani=true&JigyosyoCd=3561090063-00&ServiceCd=130&Type=search", "url2": "https://hot-heart.co.jp/" }, "geometry": { "type": "Point", "coordinates": [ 131.91968553187715, 33.974396175780662 ] } },
{ "type": "Feature", "properties": { "内容": "訪問看護ステーションｆ【訪問看護】山口県長門市東深川1365番地11", "url": "https://www.kaigokensaku.mhlw.go.jp/35/index.php?action_kouhyou_detail_004_kani=true&JigyosyoCd=3561190046-00&ServiceCd=130&Type=search", "url2": null }, "geometry": { "type": "Point", "coordinates": [ 131.1850816, 34.3718415 ] } },
{ "type": "Feature", "properties": { "内容": "訪問看護ステーションこころの樹【訪問看護】山口県長門市東深川１４０８番地４", "url": "https://www.kaigokensaku.mhlw.go.jp/35/index.php?action_kouhyou_detail_004_kani=true&JigyosyoCd=3561190020-00&ServiceCd=130&Type=search", "url2": "http://www.kokoronoki.com" }, "geometry": { "type": "Point", "coordinates": [ 131.187364031591073, 34.373199050061274 ] } },
{ "type": "Feature", "properties": { "内容": "訪問看護センターはる桜【訪問看護】山口県長門市東深川1370-4", "url": "https://www.kaigokensaku.mhlw.go.jp/35/index.php?action_kouhyou_detail_004_kani=true&JigyosyoCd=3561190053-00&ServiceCd=130&Type=search", "url2": null }, "geometry": { "type": "Point", "coordinates": [ 131.18262, 34.370856 ] } },
{ "type": "Feature", "properties": { "内容": "長門総合病院訪問看護ステーション【訪問看護】山口県長門市東深川85番地", "url": "https://www.kaigokensaku.mhlw.go.jp/35/index.php?action_kouhyou_detail_004_kani=true&JigyosyoCd=3561190012-00&ServiceCd=130&Type=search", "url2": "http://www.nagato-hp.jp/" }, "geometry": { "type": "Point", "coordinates": [ 131.195501899999954, 34.3739949 ] } },
{ "type": "Feature", "properties": { "内容": "周東総合病院訪問看護ステーションいちご【訪問看護】山口県柳井市古開作1000番地1", "url": "https://www.kaigokensaku.mhlw.go.jp/35/index.php?action_kouhyou_detail_004_kani=true&JigyosyoCd=3561290028-00&ServiceCd=130&Type=search", "url2": "http://www.hsp-shuto.jp" }, "geometry": { "type": "Point", "coordinates": [ 132.096028, 33.9586643 ] } },
{ "type": "Feature", "properties": { "内容": "ゆうわ訪問看護ステーション【訪問看護】山口県柳井市古開作479番地3ゆうわ総合在宅サポートセンター", "url": "https://www.kaigokensaku.mhlw.go.jp/35/index.php?action_kouhyou_detail_004_kani=true&JigyosyoCd=3561290044-00&ServiceCd=130&Type=search", "url2": "https://yuwaen.net/" }, "geometry": { "type": "Point", "coordinates": [ 132.0956066, 33.9701057 ] } },
{ "type": "Feature", "properties": { "内容": "なぎさ訪問看護ステーション【訪問看護】山口県熊毛郡柳井市余田1850-5", "url": "https://www.kaigokensaku.mhlw.go.jp/35/index.php?action_kouhyou_detail_004_kani=true&JigyosyoCd=3567390038-00&ServiceCd=130&Type=search", "url2": null }, "geometry": { "type": "Point", "coordinates": [ 132.073503852090965, 33.977870588390985 ] } },
{ "type": "Feature", "properties": { "内容": "スマイル訪問看護ステーション【訪問看護】山口県美祢市伊佐町伊佐5113-13", "url": "https://www.kaigokensaku.mhlw.go.jp/35/index.php?action_kouhyou_detail_004_kani=true&JigyosyoCd=3561390034-00&ServiceCd=130&Type=search", "url2": "http://smilekango.com/" }, "geometry": { "type": "Point", "coordinates": [ 131.2154993, 34.1667031 ] } },
{ "type": "Feature", "properties": { "内容": "美祢市訪問看護ステーション【訪問看護】山口県美祢市美東町大田3800", "url": "https://www.kaigokensaku.mhlw.go.jp/35/index.php?action_kouhyou_detail_004_kani=true&JigyosyoCd=3567990001-00&ServiceCd=130&Type=search", "url2": "http://www.city.mine.lg.jp/byouin/" }, "geometry": { "type": "Point", "coordinates": [ 131.340316740956581, 34.220847510209978 ] } },
{ "type": "Feature", "properties": { "内容": "メンタル訪問看護ステーションconamu周南【訪問看護】山口県周南市速玉町4番2号", "url": "https://www.kaigokensaku.mhlw.go.jp/35/index.php?action_kouhyou_detail_004_kani=true&JigyosyoCd=3561590153-00&ServiceCd=130&Type=search", "url2": null }, "geometry": { "type": "Point", "coordinates": [ 131.8098507, 34.046438 ] } },
{ "type": "Feature", "properties": { "内容": "ツクイ周南訪問看護ステーション【訪問看護】山口県周南市代々木通1－30山陽マテリアルビル３階", "url": "https://www.kaigokensaku.mhlw.go.jp/35/index.php?action_kouhyou_detail_004_kani=true&JigyosyoCd=3561590161-00&ServiceCd=130&Type=search", "url2": "https://corp.tsukui.net" }, "geometry": { "type": "Point", "coordinates": [ 131.803063, 34.05426030000001 ] } },
{ "type": "Feature", "properties": { "内容": "訪問看護ステーションこもれび【訪問看護】山口県周南市久米2668番", "url": "https://www.kaigokensaku.mhlw.go.jp/35/index.php?action_kouhyou_detail_004_kani=true&JigyosyoCd=3561590104-00&ServiceCd=130&Type=search", "url2": null }, "geometry": { "type": "Point", "coordinates": [ 131.849173300000018, 34.046712 ] } },
{ "type": "Feature", "properties": { "内容": "訪問看護リハビリステーション　ルピナス【訪問看護】山口県周南市久米中央1丁目17-14", "url": "https://www.kaigokensaku.mhlw.go.jp/35/index.php?action_kouhyou_detail_004_kani=true&JigyosyoCd=3561590120-00&ServiceCd=130&Type=search", "url2": "https://www.lupinus-yamaguchi.com/" }, "geometry": { "type": "Point", "coordinates": [ 131.839815248410048, 34.035202662353797 ] } },
{ "type": "Feature", "properties": { "内容": "訪問看護ステーションゆめ風車【訪問看護】山口県周南市宮の前二丁目6番27号", "url": "https://www.kaigokensaku.mhlw.go.jp/35/index.php?action_kouhyou_detail_004_kani=true&JigyosyoCd=3561490016-00&ServiceCd=130&Type=search", "url2": "http://www.city-hp.or.jp/houmon.html" }, "geometry": { "type": "Point", "coordinates": [ 131.764141900000027, 34.0726521 ] } },
{ "type": "Feature", "properties": { "内容": "訪問看護ステーション　看護＆リハビリ　アロハ【訪問看護】山口県周南市大字呼坂850-169", "url": "https://www.kaigokensaku.mhlw.go.jp/35/index.php?action_kouhyou_detail_004_kani=true&JigyosyoCd=3561590146-00&ServiceCd=130&Type=search", "url2": null }, "geometry": { "type": "Point", "coordinates": [ 131.958642200000043, 34.043561600000018 ] } },
{ "type": "Feature", "properties": { "内容": "JCHO徳山中央病院附属訪問看護ステーション【訪問看護】山口県周南市孝田町1-1", "url": "https://www.kaigokensaku.mhlw.go.jp/35/index.php?action_kouhyou_detail_004_kani=true&JigyosyoCd=3561590047-00&ServiceCd=130&Type=search", "url2": "https://tokuyama.jcho.go.jp" }, "geometry": { "type": "Point", "coordinates": [ 131.8340667, 34.0476287 ] } },
{ "type": "Feature", "properties": { "内容": "訪問看護ステーション周南高原【訪問看護】山口県周南市大字須々万本郷２９－１", "url": "https://www.kaigokensaku.mhlw.go.jp/35/index.php?action_kouhyou_detail_004_kani=true&JigyosyoCd=3561590021-00&ServiceCd=130&Type=search", "url2": "http://ryokuzankai.jp/" }, "geometry": { "type": "Point", "coordinates": [ 131.858349299999986, 34.1238302 ] } },
{ "type": "Feature", "properties": { "内容": "訪問看護ステーション元気村【訪問看護】山口県周大字湯野4278番地1なごやかケア本館2階", "url": "https://www.kaigokensaku.mhlw.go.jp/35/index.php?action_kouhyou_detail_004_kani=true&JigyosyoCd=3561590039-00&ServiceCd=130&Type=search", "url2": "http://www.genkimura-sa.jp/" }, "geometry": { "type": "Point", "coordinates": [ 131.676613646908521, 34.09188836518684 ] } },
{ "type": "Feature", "properties": { "内容": "徳山病院訪問看護ステーションサルビア【訪問看護】山口県周南市南浦山町5番14号", "url": "https://www.kaigokensaku.mhlw.go.jp/35/index.php?action_kouhyou_detail_004_kani=true&JigyosyoCd=3561590096-00&ServiceCd=130&Type=search", "url2": "http://www.tokuyama-hp.jp/" }, "geometry": { "type": "Point", "coordinates": [ 131.788193, 34.0696588 ] } },
{ "type": "Feature", "properties": { "内容": "訪問看護ステーションエンツギ【訪問看護】花畠町３－１７", "url": "https://www.kaigokensaku.mhlw.go.jp/35/index.php?action_kouhyou_detail_004_kani=true&JigyosyoCd=3561590138-00&ServiceCd=130&Type=search", "url2": "https://gap-filling.co.jp/program12.html" }, "geometry": { "type": "Point", "coordinates": [ 131.81152468423727, 34.058728189528054 ] } },
{ "type": "Feature", "properties": { "内容": "株式会社訪問看護ステーションもみじ【訪問看護】山口県周南市城ケ丘3丁目1番35号", "url": "https://www.kaigokensaku.mhlw.go.jp/35/index.php?action_kouhyou_detail_004_kani=true&JigyosyoCd=3561590070-00&ServiceCd=130&Type=search", "url2": "https://momiji-shunan.com" }, "geometry": { "type": "Point", "coordinates": [ 131.840269199999966, 34.0421246 ] } },
{ "type": "Feature", "properties": { "内容": "徳山医師会　訪問看護ステーション【訪問看護】山口県周南市東山町6番28号", "url": "https://www.kaigokensaku.mhlw.go.jp/35/index.php?action_kouhyou_detail_004_kani=true&JigyosyoCd=3560590006-00&ServiceCd=130&Type=search", "url2": "http://www.tokuyamaishikai.com/" }, "geometry": { "type": "Point", "coordinates": [ 131.816137700000041, 34.050258031589472 ] } },
{ "type": "Feature", "properties": { "内容": "訪問看護リハビリステーション　アステル【訪問看護】山口県周南市遠石3丁目9-15　1階", "url": "https://www.kaigokensaku.mhlw.go.jp/35/index.php?action_kouhyou_detail_004_kani=true&JigyosyoCd=3561590187-00&ServiceCd=130&Type=search", "url2": null }, "geometry": { "type": "Point", "coordinates": [ 131.827754749737579, 34.039515534069515 ] } },
{ "type": "Feature", "properties": { "内容": "訪問看護ステーション　そらり【訪問看護】山口県山陽小野田市大字西高泊1134番地1介護事業所　そらり", "url": "https://www.kaigokensaku.mhlw.go.jp/35/index.php?action_kouhyou_detail_004_kani=true&JigyosyoCd=3561690045-00&ServiceCd=130&Type=search", "url2": "http;//hayakawa.com" }, "geometry": { "type": "Point", "coordinates": [ 131.15291030000003, 34.0067543 ] } },
{ "type": "Feature", "properties": { "内容": "医療法人社団　民正会　訪問看護ステーション　かがやき【訪問看護】山陽小野田市大字鴨庄10番地4", "url": "https://www.kaigokensaku.mhlw.go.jp/35/index.php?action_kouhyou_detail_004_kani=true&JigyosyoCd=3561690037-00&ServiceCd=130&Type=search", "url2": "http://www.minseikai.jp" }, "geometry": { "type": "Point", "coordinates": [ 131.155868599691757, 34.056906905868765 ] } },
{ "type": "Feature", "properties": { "内容": "訪問看護ステーション　フクシア【訪問看護】山口県山陽小野田市大字厚狭埴生田498番1", "url": "https://www.kaigokensaku.mhlw.go.jp/35/index.php?action_kouhyou_detail_004_kani=true&JigyosyoCd=3561690060-00&ServiceCd=130&Type=search", "url2": "http://asashion.wixsite.com/kenjinkai" }, "geometry": { "type": "Point", "coordinates": [ 131.161978500000032, 34.0540994 ] } },
{ "type": "Feature", "properties": { "内容": "虹の訪問看護ステーション山陽小野田【訪問看護】山陽小野田市くし山1-34-7", "url": "https://www.kaigokensaku.mhlw.go.jp/35/index.php?action_kouhyou_detail_004_kani=true&JigyosyoCd=3561690029-00&ServiceCd=130&Type=search", "url2": null }, "geometry": { "type": "Point", "coordinates": [ 131.18260829999997, 34.01181540000001 ] } },
{ "type": "Feature", "properties": { "内容": "小野田赤十字訪問看護ステーション【訪問看護】山口県山陽小野田市大字小野田3700", "url": "https://www.kaigokensaku.mhlw.go.jp/35/index.php?action_kouhyou_detail_004_kani=true&JigyosyoCd=3561690078-00&ServiceCd=130&Type=search", "url2": null }, "geometry": { "type": "Point", "coordinates": [ 131.183919800000012, 33.9543549 ] } },
{ "type": "Feature", "properties": { "内容": "訪問看護リハビリステーションプラスワンピースi-step小野田店【訪問看護】山口県山陽小野田市新生1丁目9-12", "url": "https://www.kaigokensaku.mhlw.go.jp/35/index.php?action_kouhyou_detail_004_kani=true&JigyosyoCd=3561690144-00&ServiceCd=130&Type=search", "url2": "https://www.ouchidekango-ouchidereha.com/company/" }, "geometry": { "type": "Point", "coordinates": [ 131.1796506, 33.9992261 ] } },
{ "type": "Feature", "properties": { "内容": "訪問看護ステーション翔陽【訪問看護】山口県山陽小野田市新生2-8-8", "url": "https://www.kaigokensaku.mhlw.go.jp/35/index.php?action_kouhyou_detail_004_kani=true&JigyosyoCd=3561690086-00&ServiceCd=130&Type=search", "url2": null }, "geometry": { "type": "Point", "coordinates": [ 131.177309, 34.0009268 ] } },
{ "type": "Feature", "properties": { "内容": "訪問看護ステーションゆとり【訪問看護】山口県山陽小野田市須恵3丁目10-3", "url": "https://www.kaigokensaku.mhlw.go.jp/35/index.php?action_kouhyou_detail_004_kani=true&JigyosyoCd=3561690094-00&ServiceCd=130&Type=search", "url2": null }, "geometry": { "type": "Point", "coordinates": [ 131.178751993326472, 33.965462928719312 ] } },
{ "type": "Feature", "properties": { "内容": "山陽小野田市訪問看護ステーション【訪問看護】山口県山陽小野田市大字東高泊1863番地１", "url": "https://www.kaigokensaku.mhlw.go.jp/35/index.php?action_kouhyou_detail_004_kani=true&JigyosyoCd=3561690102-00&ServiceCd=130&Type=search", "url2": "https://sanyo-onoda-city-hosp.jp/" }, "geometry": { "type": "Point", "coordinates": [ 131.178412882803372, 33.998748405261203 ] } },
{ "type": "Feature", "properties": { "内容": "山陽小野田医師会訪問看護ステーション【訪問看護】山口県山陽小野田市東高泊1947番地1", "url": "https://www.kaigokensaku.mhlw.go.jp/35/index.php?action_kouhyou_detail_004_kani=true&JigyosyoCd=3560990008-00&ServiceCd=130&Type=search", "url2": "http://soik.jp" }, "geometry": { "type": "Point", "coordinates": [ 131.178895, 33.9984084 ] } },
{ "type": "Feature", "properties": { "内容": "訪問看護ステーション結希【訪問看護】山口県山陽小野田市日の出4丁目13-6", "url": "https://www.kaigokensaku.mhlw.go.jp/35/index.php?action_kouhyou_detail_004_kani=true&JigyosyoCd=3561690128-00&ServiceCd=130&Type=search", "url2": "gaku-yuki.com" }, "geometry": { "type": "Point", "coordinates": [ 131.189541218487847, 34.00354162078191 ] } },
{ "type": "Feature", "properties": { "内容": "訪問看護ステ-ション　ゆう【訪問看護】山口県山陽小野田市大字西高泊758-1", "url": "https://www.kaigokensaku.mhlw.go.jp/35/index.php?action_kouhyou_detail_004_kani=true&JigyosyoCd=3561690110-00&ServiceCd=130&Type=search", "url2": "https://www.yuyukai-llc.com" }, "geometry": { "type": "Point", "coordinates": [ 131.1683351, 34.0087727 ] } },
{ "type": "Feature", "properties": { "内容": "訪問看護ステーションすおうおおしま【訪問看護】山口県大島郡周防大島町大字小松1415-1周防大島町立大島病院内", "url": "https://www.kaigokensaku.mhlw.go.jp/35/index.php?action_kouhyou_detail_004_kani=true&JigyosyoCd=3567190032-00&ServiceCd=130&Type=search", "url2": null }, "geometry": { "type": "Point", "coordinates": [ 132.187645699999962, 33.9435292 ] } },
{ "type": "Feature", "properties": { "内容": "訪問看護ステーション　なないろ【訪問看護】山口県大島郡周防大島町小松91-4おげんきハグニティ　　海棟　1Ｆ", "url": "https://www.kaigokensaku.mhlw.go.jp/35/index.php?action_kouhyou_detail_004_kani=true&JigyosyoCd=3567190057-00&ServiceCd=130&Type=search", "url2": "http://www.hugnity.com" }, "geometry": { "type": "Point", "coordinates": [ 132.190190199999961, 33.9274335 ] } },
{ "type": "Feature", "properties": { "内容": "いい日の里　訪問看護ステーション【訪問看護】大島郡周防大島町1338-1", "url": "https://www.kaigokensaku.mhlw.go.jp/35/index.php?action_kouhyou_detail_004_kani=true&JigyosyoCd=3567190040-00&ServiceCd=130&Type=search", "url2": null }, "geometry": { "type": "Point", "coordinates": [ 132.280229400000053, 33.8983038 ] } },
{ "type": "Feature", "properties": { "内容": "平生訪問看護ステーションきらら【訪問看護】山口県熊毛郡平生町大字平生町569-14", "url": "https://www.kaigokensaku.mhlw.go.jp/35/index.php?action_kouhyou_detail_004_kani=true&JigyosyoCd=3567390020-00&ServiceCd=130&Type=search", "url2": null }, "geometry": { "type": "Point", "coordinates": [ 132.065505, 33.9384631 ] } }
]
}
