{
"type": "FeatureCollection",
"name": "geo_35_高等専門学校",
"crs": { "type": "name", "properties": { "name": "urn:ogc:def:crs:EPSG::6668" } },
"features": [
{ "type": "Feature", "properties": { "P29_001": "35215", "P29_002": "G135110110203", "P29_003": "16005", "P29_004": "徳山工業高等専門学校", "P29_005": "山口県周南市学園台", "P29_006": "1", "P29_007": "0", "P29_008": "00", "P29_009": null }, "geometry": { "type": "Point", "coordinates": [ 131.846384365874542, 34.052215243560155 ] } },
{ "type": "Feature", "properties": { "P29_001": "35202", "P29_002": "G135110110212", "P29_003": "16005", "P29_004": "宇部工業高等専門学校", "P29_005": "山口県宇部市常盤台2-14-1", "P29_006": "1", "P29_007": "0", "P29_008": "00", "P29_009": null }, "geometry": { "type": "Point", "coordinates": [ 131.274505725758758, 33.954561309571162 ] } },
{ "type": "Feature", "properties": { "P29_001": "35305", "P29_002": "G135110110221", "P29_003": "16005", "P29_004": "大島商船高等専門学校", "P29_005": "山口県大島郡周防大島町大字小松1091-1", "P29_006": "1", "P29_007": "0", "P29_008": "00", "P29_009": null }, "geometry": { "type": "Point", "coordinates": [ 132.190498604199718, 33.937622406243804 ] } }
]
}
