{
"type": "FeatureCollection",
"name": "geo_35_大学",
"crs": { "type": "name", "properties": { "name": "urn:ogc:def:crs:EPSG::6668" } },
"features": [
{ "type": "Feature", "properties": { "P29_001": "35203", "P29_002": "F135110110054", "P29_003": "16007", "P29_004": "山口大学", "P29_005": "山口県山口市吉田1677-1", "P29_006": "1", "P29_007": "0", "P29_008": "01", "P29_009": "吉田キャンパス" }, "geometry": { "type": "Point", "coordinates": [ 131.467905581855973, 34.148661854889184 ] } },
{ "type": "Feature", "properties": { "P29_001": "35201", "P29_002": "F135210110061", "P29_003": "16007", "P29_004": "下関市立大学", "P29_005": "山口県下関市大学町2-1-1", "P29_006": "3", "P29_007": "0", "P29_008": "00", "P29_009": null }, "geometry": { "type": "Point", "coordinates": [ 130.934239977408339, 33.987635578471966 ] } },
{ "type": "Feature", "properties": { "P29_001": "35203", "P29_002": "F135210110070", "P29_003": "16007", "P29_004": "山口県立大学", "P29_005": "山口県山口市桜畠3-2-1", "P29_006": "2", "P29_007": "0", "P29_008": "00", "P29_009": null }, "geometry": { "type": "Point", "coordinates": [ 131.498361498466977, 34.19446307822151 ] } },
{ "type": "Feature", "properties": { "P29_001": "35216", "P29_002": "F135210110089", "P29_003": "16007", "P29_004": "山陽小野田市立山口東京理科大学", "P29_005": "山口県山陽小野田市大学通1-1-1", "P29_006": "3", "P29_007": "0", "P29_008": "00", "P29_009": null }, "geometry": { "type": "Point", "coordinates": [ 131.187673274903915, 33.956947965479927 ] } },
{ "type": "Feature", "properties": { "P29_001": "35215", "P29_002": "F135210111961", "P29_003": "16007", "P29_004": "周南公立大学", "P29_005": "山口県周南市学園台843-4-2", "P29_006": "3", "P29_007": "0", "P29_008": "00", "P29_009": null }, "geometry": { "type": "Point", "coordinates": [ 131.844683043377131, 34.047609733125114 ] } },
{ "type": "Feature", "properties": { "P29_001": "35201", "P29_002": "F135310110096", "P29_003": "16007", "P29_004": "梅光学院大学", "P29_005": "山口県下関市向洋町1-1-1", "P29_006": "4", "P29_007": "0", "P29_008": "00", "P29_009": null }, "geometry": { "type": "Point", "coordinates": [ 130.933011827433205, 33.96786163060905 ] } },
{ "type": "Feature", "properties": { "P29_001": "35201", "P29_002": "F135310110112", "P29_003": "16007", "P29_004": "東亜大学", "P29_005": "山口県下関市一の宮学園町2-1", "P29_006": "4", "P29_007": "0", "P29_008": "00", "P29_009": null }, "geometry": { "type": "Point", "coordinates": [ 130.948597205034332, 33.999771366273308 ] } },
{ "type": "Feature", "properties": { "P29_001": "35204", "P29_002": "F135310110121", "P29_003": "16007", "P29_004": "至誠館大学", "P29_005": "山口県萩市椿東浦田5000", "P29_006": "4", "P29_007": "0", "P29_008": "00", "P29_009": null }, "geometry": { "type": "Point", "coordinates": [ 131.421679117595488, 34.43100565683195 ] } },
{ "type": "Feature", "properties": { "P29_001": "35202", "P29_002": "F135310110130", "P29_003": "16007", "P29_004": "宇部フロンティア大学", "P29_005": "山口県宇部市文京台2-1-1", "P29_006": "4", "P29_007": "0", "P29_008": "00", "P29_009": null }, "geometry": { "type": "Point", "coordinates": [ 131.233886454942706, 33.980346131961873 ] } },
{ "type": "Feature", "properties": { "P29_001": "35203", "P29_002": "F135310110149", "P29_003": "16007", "P29_004": "山口学芸大学", "P29_005": "山口県山口市小郡みらい町1-7-1", "P29_006": "4", "P29_007": "0", "P29_008": "00", "P29_009": null }, "geometry": { "type": "Point", "coordinates": [ 131.403012664163299, 34.120387192005289 ] } },
{ "type": "Feature", "properties": { "P29_001": "35202", "P29_002": "F135110110054", "P29_003": "16007", "P29_004": "山口大学", "P29_005": "山口県宇部市南小串1-1-1", "P29_006": "1", "P29_007": "0", "P29_008": "02", "P29_009": "小串キャンパス" }, "geometry": { "type": "Point", "coordinates": [ 131.248514395008755, 33.9588528421096 ] } },
{ "type": "Feature", "properties": { "P29_001": "35202", "P29_002": "F135110110054", "P29_003": "16007", "P29_004": "山口大学", "P29_005": "山口県宇部市常盤台2-16-1", "P29_006": "1", "P29_007": "0", "P29_008": "03", "P29_009": "常盤キャンパス" }, "geometry": { "type": "Point", "coordinates": [ 131.272451482621221, 33.956507334616319 ] } }
]
}
