{
"type": "FeatureCollection",
"name": "geo_35_1",
"crs": { "type": "name", "properties": { "name": "urn:ogc:def:crs:OGC:1.3:CRS84" } },
"features": [
{ "type": "Feature", "properties": { "ID": 3511353100140, "正式名称": "医療法人水の木会　下関病院", "機関区分": 1, "都道府県コード": 35, "市区町村コード": 201, "所在地": "山口県下関市富任町６－１８－１８", "緯度": 34.018028, "経度": 130.923083, "url": "https://www.iryou.teikyouseido.mhlw.go.jp/znk-web/juminkanja/S2430/initialize?prefCd=35&kikanCd=1353100140&kikanKbn=1", "url2": "http://www.mizunoki.jp/shimobyou", "内容": "医療法人水の木会　下関病院【1:病院】【診療科目:内科_神経内科_精神科_心療内科】【一般病床数:0療養病床数:0精神病床数:300感染症病床数:0合計病床数:300】山口県下関市富任町６－１８－１８" }, "geometry": { "type": "Point", "coordinates": [ 130.923083, 34.018028 ] } },
{ "type": "Feature", "properties": { "ID": 3511353100270, "正式名称": "医療法人山陽会長門一ノ宮病院", "機関区分": 1, "都道府県コード": 35, "市区町村コード": 201, "所在地": "山口県下関市形山みどり町１７－３５", "緯度": 34.012722, "経度": 130.954222, "url": "https://www.iryou.teikyouseido.mhlw.go.jp/znk-web/juminkanja/S2430/initialize?prefCd=35&kikanCd=1353100270&kikanKbn=1", "url2": "http://www.nagatoichinomiya-hp.com/", "内容": "医療法人山陽会長門一ノ宮病院【1:病院】【診療科目:小児科_児童精神科_精神科_心療内科】【一般病床数:0療養病床数:0精神病床数:150感染症病床数:0合計病床数:150】山口県下関市形山みどり町１７－３５" }, "geometry": { "type": "Point", "coordinates": [ 130.954222, 34.012722 ] } },
{ "type": "Feature", "properties": { "ID": 3511353100430, "正式名称": "医療法人社団葵会　稗田病院", "機関区分": 1, "都道府県コード": 35, "市区町村コード": 201, "所在地": "山口県下関市稗田中町８－１８", "緯度": 33.995556, "経度": 130.926722, "url": "https://www.iryou.teikyouseido.mhlw.go.jp/znk-web/juminkanja/S2430/initialize?prefCd=35&kikanCd=1353100430&kikanKbn=1", "url2": "http://www.aoikai.jp/shisetu/hieda_hsp/index.html", "内容": "医療法人社団葵会　稗田病院【1:病院】【診療科目:内科_精神科_神経科】【一般病床数:0療養病床数:80精神病床数:188感染症病床数:0合計病床数:268】山口県下関市稗田中町８－１８" }, "geometry": { "type": "Point", "coordinates": [ 130.926722, 33.995556 ] } },
{ "type": "Feature", "properties": { "ID": 3511353100720, "正式名称": "独立行政法人国立病院機構関門医療センター", "機関区分": 1, "都道府県コード": 35, "市区町村コード": 201, "所在地": "山口県下関市長府外浦町１－１", "緯度": 33.98825, "経度": 130.991833, "url": "https://www.iryou.teikyouseido.mhlw.go.jp/znk-web/juminkanja/S2430/initialize?prefCd=35&kikanCd=1353100720&kikanKbn=1", "url2": "https://kanmon.hosp.go.jp/index.html", "内容": "独立行政法人国立病院機構関門医療センター【1:病院】【診療科目:内科_脳神経内科_呼吸器内科_循環器内科_消化器内科_肝臓内科_腫瘍内科_糖尿病・血液内科_外科_脳神経外科_呼吸器外科_心臓血管外科_消化器外科_乳腺外科_内視鏡外科_整形外科_形成外科_小児科_産婦人科_眼科_耳鼻いんこう科_皮膚科_泌尿器科_精神科_歯科口腔外科_リウマチ科_リハビリテーション科_放射線診断科_放射線治療科_病理診断科_臨床検査科_救急科_麻酔科_女性総合診療】【一般病床数:400療養病床数:0精神病床数:0感染症病床数:0合計病床数:400】山口県下関市長府外浦町１－１" }, "geometry": { "type": "Point", "coordinates": [ 130.991833, 33.98825 ] } },
{ "type": "Feature", "properties": { "ID": 3511353101020, "正式名称": "独立行政法人地域医療機能推進機構　下関医療センター", "機関区分": 1, "都道府県コード": 35, "市区町村コード": 201, "所在地": "山口県下関市上新地町３－３－８", "緯度": 33.958972, "経度": 130.919806, "url": "https://www.iryou.teikyouseido.mhlw.go.jp/znk-web/juminkanja/S2430/initialize?prefCd=35&kikanCd=1353101020&kikanKbn=1", "url2": "http://shimonoseki.jcho.go.jp/", "内容": "独立行政法人地域医療機能推進機構　下関医療センター【1:病院】【診療科目:血液内科_糖尿病・内分泌内科_脳神経内科_呼吸器内科_循環器内科_消化器内科_緩和ケア内科_脳神経外科_呼吸器外科_血管外科_消化器外科_整形外科_婦人科_眼科_耳鼻いんこう科_皮膚科_泌尿器科_精神科_歯科口腔外科_リハビリテーション科_放射線科_病理診断科_麻酔科】【一般病床数:275療養病床数:0精神病床数:0感染症病床数:0合計病床数:305】山口県下関市上新地町３－３－８" }, "geometry": { "type": "Point", "coordinates": [ 130.919806, 33.958972 ] } },
{ "type": "Feature", "properties": { "ID": 3511353101150, "正式名称": "医療法人其桃会西尾病院", "機関区分": 1, "都道府県コード": 35, "市区町村コード": 201, "所在地": "山口県下関市竹崎町１－１６－３", "緯度": 33.951722, "経度": 130.926639, "url": "https://www.iryou.teikyouseido.mhlw.go.jp/znk-web/juminkanja/S2430/initialize?prefCd=35&kikanCd=1353101150&kikanKbn=1", "url2": "https://nishiobyoin.jp/", "内容": "医療法人其桃会西尾病院【1:病院】【診療科目:内科_血液内科_循環器内科_リハビリテーション科】【一般病床数:0療養病床数:75精神病床数:0感染症病床数:0合計病床数:75】山口県下関市竹崎町１－１６－３" }, "geometry": { "type": "Point", "coordinates": [ 130.926639, 33.951722 ] } },
{ "type": "Feature", "properties": { "ID": 3511353101280, "正式名称": "医療法人長府病院", "機関区分": 1, "都道府県コード": 35, "市区町村コード": 201, "所在地": "山口県下関市長府中之町２－４", "緯度": 34.0, "経度": 130.990861, "url": "https://www.iryou.teikyouseido.mhlw.go.jp/znk-web/juminkanja/S2430/initialize?prefCd=35&kikanCd=1353101280&kikanKbn=1", "url2": "http:/hp.chofu-hp.or.jp/", "内容": "医療法人長府病院【1:病院】【診療科目:内科_呼吸器内科_循環器内科_消化器内科_神経内科_外科_整形外科_リハビリテーション科_放射線科】【一般病床数:60療養病床数:0精神病床数:0感染症病床数:0合計病床数:60】山口県下関市長府中之町２－４" }, "geometry": { "type": "Point", "coordinates": [ 130.990861, 34.0 ] } },
{ "type": "Feature", "properties": { "ID": 3511353101990, "正式名称": "医療法人元洋会森山病院", "機関区分": 1, "都道府県コード": 35, "市区町村コード": 201, "所在地": "山口県下関市宮田町２－８－２０", "緯度": 33.963444, "経度": 130.946389, "url": "https://www.iryou.teikyouseido.mhlw.go.jp/znk-web/juminkanja/S2430/initialize?prefCd=35&kikanCd=1353101990&kikanKbn=1", "url2": "http//www.moriyama-hp.ecnet.jp", "内容": "医療法人元洋会森山病院【1:病院】【診療科目:内科_消化器内科_リハビリテーション科】【一般病床数:0療養病床数:86精神病床数:0感染症病床数:0合計病床数:86】山口県下関市宮田町２－８－２０" }, "geometry": { "type": "Point", "coordinates": [ 130.946389, 33.963444 ] } },
{ "type": "Feature", "properties": { "ID": 3511353102030, "正式名称": "医療法人　　桃崎病院", "機関区分": 1, "都道府県コード": 35, "市区町村コード": 201, "所在地": "山口県下関市田中町１―１０", "緯度": 33.961222, "経度": 130.940972, "url": "https://www.iryou.teikyouseido.mhlw.go.jp/znk-web/juminkanja/S2430/initialize?prefCd=35&kikanCd=1353102030&kikanKbn=1", "url2": "http://www.momosaki.jp/", "内容": "医療法人　　桃崎病院【1:病院】【診療科目:内科_循環器内科_胃腸内科_外科_肛門外科_整形外科_リハビリテーション科】【一般病床数:0療養病床数:60精神病床数:0感染症病床数:0合計病床数:60】山口県下関市田中町１―１０" }, "geometry": { "type": "Point", "coordinates": [ 130.940972, 33.961222 ] } },
{ "type": "Feature", "properties": { "ID": 3511353102160, "正式名称": "下関リハビリテーション病院", "機関区分": 1, "都道府県コード": 35, "市区町村コード": 201, "所在地": "山口県下関市今浦町９―６", "緯度": 33.953333, "経度": 130.921056, "url": "https://www.iryou.teikyouseido.mhlw.go.jp/znk-web/juminkanja/S2430/initialize?prefCd=35&kikanCd=1353102160&kikanKbn=1", "url2": "https://www.shimoreha.jp/", "内容": "下関リハビリテーション病院【1:病院】【診療科目:内科_循環器内科_リハビリテーション科_放射線科】【一般病床数:0療養病床数:165精神病床数:0感染症病床数:0合計病床数:165】山口県下関市今浦町９―６" }, "geometry": { "type": "Point", "coordinates": [ 130.921056, 33.953333 ] } },
{ "type": "Feature", "properties": { "ID": 3511353102290, "正式名称": "医療法人社団青寿会　武久病院", "機関区分": 1, "都道府県コード": 35, "市区町村コード": 201, "所在地": "山口県下関市武久町２―５３―８", "緯度": 33.982528, "経度": 130.916528, "url": "https://www.iryou.teikyouseido.mhlw.go.jp/znk-web/juminkanja/S2430/initialize?prefCd=35&kikanCd=1353102290&kikanKbn=1", "url2": "http://seijukai-or.jp", "内容": "医療法人社団青寿会　武久病院【1:病院】【診療科目:内科_循環器内科_皮膚科_泌尿器科_歯科_リハビリテーション科】【一般病床数:60療養病床数:203精神病床数:0感染症病床数:0合計病床数:263】山口県下関市武久町２―５３―８" }, "geometry": { "type": "Point", "coordinates": [ 130.916528, 33.982528 ] } },
{ "type": "Feature", "properties": { "ID": 3511353102320, "正式名称": "医療法人　星の里会　岡医院", "機関区分": 1, "都道府県コード": 35, "市区町村コード": 201, "所在地": "山口県下関市小月本町２－１５－２０", "緯度": 34.070722, "経度": 131.036722, "url": "https://www.iryou.teikyouseido.mhlw.go.jp/znk-web/juminkanja/S2430/initialize?prefCd=35&kikanCd=1353102320&kikanKbn=1", "url2": "https://www.oka-hospital.net/", "内容": "医療法人　星の里会　岡医院【1:病院】【診療科目:内科_糖尿病・内分泌内科_外科_脳神経外科_心臓外科_心臓血管外科_乳腺外科_整形外科_リハビリテーション科】【一般病床数:0療養病床数:19精神病床数:0感染症病床数:0合計病床数:19】山口県下関市小月本町２－１５－２０" }, "geometry": { "type": "Point", "coordinates": [ 131.036722, 34.070722 ] } },
{ "type": "Feature", "properties": { "ID": 3511353102450, "正式名称": "脳神経筋センターよしみず病院", "機関区分": 1, "都道府県コード": 35, "市区町村コード": 201, "所在地": "山口県下関市後田町１－１－１", "緯度": 33.968361, "経度": 130.934417, "url": "https://www.iryou.teikyouseido.mhlw.go.jp/znk-web/juminkanja/S2430/initialize?prefCd=35&kikanCd=1353102450&kikanKbn=1", "url2": "http://www.akn-yoshimizu.com", "内容": "脳神経筋センターよしみず病院【1:病院】【診療科目:内科_脳神経内科_循環器内科_消化器内科_外科_脳神経外科_整形外科_眼科_泌尿器科_歯科_リウマチ科_リハビリテーション科_放射線科】【一般病床数:211療養病床数:180精神病床数:0感染症病床数:0合計病床数:391】山口県下関市後田町１－１－１" }, "geometry": { "type": "Point", "coordinates": [ 130.934417, 33.968361 ] } },
{ "type": "Feature", "properties": { "ID": 3511353102580, "正式名称": "社会医療法人松涛会　安岡病院", "機関区分": 1, "都道府県コード": 35, "市区町村コード": 201, "所在地": "山口県下関市横野町３丁目１６番地３５号", "緯度": 34.034722, "経度": 130.909361, "url": "https://www.iryou.teikyouseido.mhlw.go.jp/znk-web/juminkanja/S2430/initialize?prefCd=35&kikanCd=1353102580&kikanKbn=1", "url2": "http://www.syoutoukai.or.jp/", "内容": "社会医療法人松涛会　安岡病院【1:病院】【診療科目:内科_脳神経内科_呼吸器内科_緩和ケア内科_整形外科_皮膚科_リハビリテーション科】【一般病床数:80療養病床数:154精神病床数:0感染症病床数:0合計病床数:234】山口県下関市横野町３丁目１６番地３５号" }, "geometry": { "type": "Point", "coordinates": [ 130.909361, 34.034722 ] } },
{ "type": "Feature", "properties": { "ID": 3511353102610, "正式名称": "医療法人社団　季朋会　王司病院", "機関区分": 1, "都道府県コード": 35, "市区町村コード": 201, "所在地": "山口県下関市王司本町一丁目１８－２７", "緯度": 34.041139, "経度": 131.015306, "url": "https://www.iryou.teikyouseido.mhlw.go.jp/znk-web/juminkanja/S2430/initialize?prefCd=35&kikanCd=1353102610&kikanKbn=1", "url2": "http://www.kihoukai.or.jp/", "内容": "医療法人社団　季朋会　王司病院【1:病院】【診療科目:内科_循環器内科_消化器内科_腎臓内科_整形外科_皮膚科_泌尿器科_精神科_歯科_リハビリテーション科】【一般病床数:10療養病床数:167精神病床数:70感染症病床数:0合計病床数:247】山口県下関市王司本町一丁目１８－２７" }, "geometry": { "type": "Point", "coordinates": [ 131.015306, 34.041139 ] } },
{ "type": "Feature", "properties": { "ID": 3511353103040, "正式名称": "下関市立市民病院", "機関区分": 1, "都道府県コード": 35, "市区町村コード": 201, "所在地": "山口県下関市向洋町１丁目１３番１号", "緯度": 33.96625, "経度": 130.930361, "url": "https://www.iryou.teikyouseido.mhlw.go.jp/znk-web/juminkanja/S2430/initialize?prefCd=35&kikanCd=1353103040&kikanKbn=1", "url2": "https://shimonosekicity-hosp.jp/", "内容": "下関市立市民病院【1:病院】【診療科目:内科_血液内科_糖尿病・内分泌内科_呼吸器内科_循環器内科_消化器内科_腎臓内科_神経内科_ペインクリニック内科_緩和ケア内科_外科_脳神経外科_呼吸器外科_心臓血管外科_消化器外科_乳腺外科_整形外科_小児外科_産婦人科_眼科_耳鼻いんこう科_皮膚科_泌尿器科_精神科_歯科_歯科口腔外科_リウマチ科_リハビリテーション科_放射線診断科_放射線治療科_病理診断科_救急科_麻酔科】【一般病床数:376療養病床数:0精神病床数:0感染症病床数:6合計病床数:382】山口県下関市向洋町１丁目１３番１号" }, "geometry": { "type": "Point", "coordinates": [ 130.930361, 33.96625 ] } },
{ "type": "Feature", "properties": { "ID": 3511353103170, "正式名称": "医療法人社団　三陽会　前田内科病院", "機関区分": 1, "都道府県コード": 35, "市区町村コード": 201, "所在地": "山口県下関市川中豊町７丁目１番３９号", "緯度": 33.994611, "経度": 130.940083, "url": "https://www.iryou.teikyouseido.mhlw.go.jp/znk-web/juminkanja/S2430/initialize?prefCd=35&kikanCd=1353103170&kikanKbn=1", "url2": "http://www.sanyokai.or.jp/", "内容": "医療法人社団　三陽会　前田内科病院【1:病院】【診療科目:内科_循環器内科_腎臓内科】【一般病床数:0療養病床数:43精神病床数:0感染症病床数:0合計病床数:43】山口県下関市川中豊町７丁目１番３９号" }, "geometry": { "type": "Point", "coordinates": [ 130.940083, 33.994611 ] } },
{ "type": "Feature", "properties": { "ID": 3511353103330, "正式名称": "社会福祉法人恩賜財団済生会支部山口県済生会下関総合病院", "機関区分": 1, "都道府県コード": 35, "市区町村コード": 201, "所在地": "山口県下関市安岡町８丁目５番１号", "緯度": 34.031306, "経度": 130.931056, "url": "https://www.iryou.teikyouseido.mhlw.go.jp/znk-web/juminkanja/S2430/initialize?prefCd=35&kikanCd=1353103330&kikanKbn=1", "url2": "https://www.simo.saiseikai.or.jp/index.html", "内容": "社会福祉法人恩賜財団済生会支部山口県済生会下関総合病院【1:病院】【診療科目:内科_呼吸器内科_循環器内科_消化器内科_腎臓内科_神経内科_緩和ケア内科_外科_脳神経外科_呼吸器外科_心臓血管外科_消化器外科_肛門外科_整形外科_形成外科_美容外科_小児科_小児外科_産婦人科_眼科_耳鼻いんこう科_皮膚科_泌尿器科_歯科口腔外科_リハビリテーション科_放射線科_病理診断科_麻酔科】【一般病床数:373療養病床数:0精神病床数:0感染症病床数:0合計病床数:373】山口県下関市安岡町８丁目５番１号" }, "geometry": { "type": "Point", "coordinates": [ 130.931056, 34.031306 ] } },
{ "type": "Feature", "properties": { "ID": 3511355100290, "正式名称": "周防大島町立大島病院", "機関区分": 1, "都道府県コード": 35, "市区町村コード": 305, "所在地": "山口県大島郡周防大島町大字小松１４１５番地１", "緯度": 33.943556, "経度": 132.187556, "url": "https://www.iryou.teikyouseido.mhlw.go.jp/znk-web/juminkanja/S2430/initialize?prefCd=35&kikanCd=1355100290&kikanKbn=1", "url2": "https://www.kouei.so.ecomas.jp/facilities/osma/", "内容": "周防大島町立大島病院【1:病院】【診療科目:内科_外科_脳神経外科_整形外科_発達小児科_産婦人科_眼科_耳鼻いんこう科_皮膚科_泌尿器科_リハビリテーション科】【一般病床数:39療養病床数:60精神病床数:0感染症病床数:0合計病床数:99】山口県大島郡周防大島町大字小松１４１５番地１" }, "geometry": { "type": "Point", "coordinates": [ 132.187556, 33.943556 ] } },
{ "type": "Feature", "properties": { "ID": 3511355100320, "正式名称": "周防大島町立東和病院", "機関区分": 1, "都道府県コード": 35, "市区町村コード": 305, "所在地": "山口県大島郡周防大島町西方５７１番地１", "緯度": 33.895056, "経度": 132.332917, "url": "https://www.iryou.teikyouseido.mhlw.go.jp/znk-web/juminkanja/S2430/initialize?prefCd=35&kikanCd=1355100320&kikanKbn=1", "url2": "http://www.kouei.so.ecomas.jp/towa/", "内容": "周防大島町立東和病院【1:病院】【診療科目:内科_呼吸器内科_循環器内科_外科_整形外科_発達小児科_眼科_耳鼻いんこう科_皮膚科_泌尿器科_リハビリテーション科_放射線科_病理診断科】【一般病床数:39療養病床数:60精神病床数:0感染症病床数:0合計病床数:99】山口県大島郡周防大島町西方５７１番地１" }, "geometry": { "type": "Point", "coordinates": [ 132.332917, 33.895056 ] } },
{ "type": "Feature", "properties": { "ID": 3511355100450, "正式名称": "日良居病院", "機関区分": 1, "都道府県コード": 35, "市区町村コード": 305, "所在地": "山口県大島郡周防大島町大字土居１４２６－１", "緯度": 33.918306, "経度": 132.298833, "url": "https://www.iryou.teikyouseido.mhlw.go.jp/znk-web/juminkanja/S2430/initialize?prefCd=35&kikanCd=1355100450&kikanKbn=1", "url2": "https://www.hirai-hospital.com", "内容": "日良居病院【1:病院】【診療科目:精神科_歯科】【一般病床数:0療養病床数:0精神病床数:132感染症病床数:0合計病床数:132】山口県大島郡周防大島町大字土居１４２６－１" }, "geometry": { "type": "Point", "coordinates": [ 132.298833, 33.918306 ] } },
{ "type": "Feature", "properties": { "ID": 3511355200350, "正式名称": "独立行政法人　国立病院機構　岩国医療センター", "機関区分": 1, "都道府県コード": 35, "市区町村コード": 208, "所在地": "山口県岩国市愛宕町１－１－１", "緯度": 34.143361, "経度": 132.2035, "url": "https://www.iryou.teikyouseido.mhlw.go.jp/znk-web/juminkanja/S2430/initialize?prefCd=35&kikanCd=1355200350&kikanKbn=1", "url2": "https://iwakuni.hosp.go.jp/", "内容": "独立行政法人　国立病院機構　岩国医療センター【1:病院】【診療科目:内科_血液内科_糖尿病・内分泌内科_呼吸器内科_循環器内科_消化器内科_腎臓内科_肝臓内科_神経内科_外科_脳神経外科_心臓血管外科_消化器外科_乳腺外科_胸部外科_整形外科_形成外科_小児科_小児外科_小児循環器科_産科_婦人科_眼科_耳鼻いんこう科_皮膚科_泌尿器科_精神科_リハビリテーション科_放射線科_病理診断科_救急科_麻酔科】【一般病床数:484療養病床数:0精神病床数:0感染症病床数:0合計病床数:484】山口県岩国市愛宕町１－１－１" }, "geometry": { "type": "Point", "coordinates": [ 132.2035, 34.143361 ] } },
{ "type": "Feature", "properties": { "ID": 3511355200510, "正式名称": "医療法人岩国病院", "機関区分": 1, "都道府県コード": 35, "市区町村コード": 208, "所在地": "山口県岩国市岩国３－２－７", "緯度": 34.163333, "経度": 132.183861, "url": "https://www.iryou.teikyouseido.mhlw.go.jp/znk-web/juminkanja/S2430/initialize?prefCd=35&kikanCd=1355200510&kikanKbn=1", "url2": "https://xn--vcsv5k9wyg03a.jp/", "内容": "医療法人岩国病院【1:病院】【診療科目:内科_消化器内科_神経内科_整形外科_小児科_産婦人科_リハビリテーション科】【一般病床数:41療養病床数:0精神病床数:0感染症病床数:0合計病床数:41】山口県岩国市岩国３－２－７" }, "geometry": { "type": "Point", "coordinates": [ 132.183861, 34.163333 ] } },
{ "type": "Feature", "properties": { "ID": 3511355200640, "正式名称": "医療法人　錦病院", "機関区分": 1, "都道府県コード": 35, "市区町村コード": 208, "所在地": "山口県岩国市錦見７－１５－７", "緯度": 34.159833, "経度": 132.186667, "url": "https://www.iryou.teikyouseido.mhlw.go.jp/znk-web/juminkanja/S2430/initialize?prefCd=35&kikanCd=1355200640&kikanKbn=1", "url2": "https://www.nishiki-hosp.com/", "内容": "医療法人　錦病院【1:病院】【診療科目:内科_外科_消化器外科_乳腺外科_肛門外科_整形外科_放射線科】【一般病床数:40療養病床数:0精神病床数:0感染症病床数:0合計病床数:40】山口県岩国市錦見７－１５－７" }, "geometry": { "type": "Point", "coordinates": [ 132.186667, 34.159833 ] } },
{ "type": "Feature", "properties": { "ID": 3511355200800, "正式名称": "医療法人社団　千寿会　岩国第一病院", "機関区分": 1, "都道府県コード": 35, "市区町村コード": 208, "所在地": "山口県岩国市岩国１－２０－４９", "緯度": 34.167083, "経度": 132.180806, "url": "https://www.iryou.teikyouseido.mhlw.go.jp/znk-web/juminkanja/S2430/initialize?prefCd=35&kikanCd=1355200800&kikanKbn=1", "url2": "http://www.iwakuni-daiichi-hosp.jp/", "内容": "医療法人社団　千寿会　岩国第一病院【1:病院】【診療科目:内科_呼吸器内科_漢方内科_リハビリテーション科】【一般病床数:0療養病床数:47精神病床数:0感染症病床数:0合計病床数:47】山口県岩国市岩国１－２０－４９" }, "geometry": { "type": "Point", "coordinates": [ 132.180806, 34.167083 ] } },
{ "type": "Feature", "properties": { "ID": 3511355201070, "正式名称": "医療法人光風会　岩国中央病院", "機関区分": 1, "都道府県コード": 35, "市区町村コード": 208, "所在地": "山口県岩国市今津町４－１５－３", "緯度": 34.163861, "経度": 132.214278, "url": "https://www.iryou.teikyouseido.mhlw.go.jp/znk-web/juminkanja/S2430/initialize?prefCd=35&kikanCd=1355201070&kikanKbn=1", "url2": null, "内容": "医療法人光風会　岩国中央病院【1:病院】【診療科目:糖尿病内科_呼吸器内科_消化器内科_腎臓内科_人工透析内科_血管外科_消化器外科_乳腺外科_肛門外科_腫瘍外科_内視鏡外科_整形外科_放射線診断科_臨床検査科_麻酔科】【一般病床数:22療養病床数:0精神病床数:0感染症病床数:0合計病床数:22】山口県岩国市今津町４－１５－３" }, "geometry": { "type": "Point", "coordinates": [ 132.214278, 34.163861 ] } },
{ "type": "Feature", "properties": { "ID": 3511355201100, "正式名称": "医療法人南和会　千鳥ヶ丘病院", "機関区分": 1, "都道府県コード": 35, "市区町村コード": 208, "所在地": "山口県岩国市由宇町千鳥ヶ丘１丁目１番１号", "緯度": 34.036333, "経度": 132.21275, "url": "https://www.iryou.teikyouseido.mhlw.go.jp/znk-web/juminkanja/S2430/initialize?prefCd=35&kikanCd=1355201100&kikanKbn=1", "url2": "http://www.nanwakai.jp/chidori_hos/", "内容": "医療法人南和会　千鳥ヶ丘病院【1:病院】【診療科目:神経内科_精神科_神経科】【一般病床数:0療養病床数:0精神病床数:270感染症病床数:0合計病床数:270】山口県岩国市由宇町千鳥ヶ丘１丁目１番１号" }, "geometry": { "type": "Point", "coordinates": [ 132.21275, 34.036333 ] } },
{ "type": "Feature", "properties": { "ID": 3511355201230, "正式名称": "岩国市立錦中央医院", "機関区分": 1, "都道府県コード": 35, "市区町村コード": 208, "所在地": "山口県岩国市錦町広瀬１０７２番地１", "緯度": 34.261889, "経度": 131.954444, "url": "https://www.iryou.teikyouseido.mhlw.go.jp/znk-web/juminkanja/S2430/initialize?prefCd=35&kikanCd=1355201230&kikanKbn=1", "url2": "http://www.nishiki.org", "内容": "岩国市立錦中央医院【1:病院】【診療科目:内科_外科_脳神経外科_整形外科_眼科_耳鼻いんこう科_皮膚科_泌尿器科】【一般病床数:19療養病床数:0精神病床数:0感染症病床数:0合計病床数:19】山口県岩国市錦町広瀬１０７２番地１" }, "geometry": { "type": "Point", "coordinates": [ 131.954444, 34.261889 ] } },
{ "type": "Feature", "properties": { "ID": 3511355201360, "正式名称": "岩国市立美和病院", "機関区分": 1, "都道府県コード": 35, "市区町村コード": 208, "所在地": "山口県岩国市美和町渋前１３８３番地１", "緯度": 34.222313, "経度": 132.093445, "url": "https://www.iryou.teikyouseido.mhlw.go.jp/znk-web/juminkanja/S2430/initialize?prefCd=35&kikanCd=1355201360&kikanKbn=1", "url2": "https://miwahospital.org/", "内容": "岩国市立美和病院【1:病院】【診療科目:内科_外科_整形外科_小児科_眼科_皮膚科】【一般病床数:45療養病床数:0精神病床数:0感染症病床数:0合計病床数:45】山口県岩国市美和町渋前１３８３番地１" }, "geometry": { "type": "Point", "coordinates": [ 132.093445, 34.222313 ] } },
{ "type": "Feature", "properties": { "ID": 3511355201490, "正式名称": "医療法人　岩国みなみ病院", "機関区分": 1, "都道府県コード": 35, "市区町村コード": 208, "所在地": "山口県岩国市南岩国町２－７７－２３", "緯度": 34.138694, "経度": 132.192833, "url": "https://www.iryou.teikyouseido.mhlw.go.jp/znk-web/juminkanja/S2430/initialize?prefCd=35&kikanCd=1355201490&kikanKbn=1", "url2": "http://www.iwakuni-minami.or.jp/", "内容": "医療法人　岩国みなみ病院【1:病院】【診療科目:内科_呼吸器内科_消化器内科_外科_呼吸器外科_消化器外科_リハビリテーション科_放射線科】【一般病床数:45療養病床数:0精神病床数:0感染症病床数:0合計病床数:45】山口県岩国市南岩国町２－７７－２３" }, "geometry": { "type": "Point", "coordinates": [ 132.192833, 34.138694 ] } },
{ "type": "Feature", "properties": { "ID": 3511355201520, "正式名称": "特定医療法人南和会　みどり病院", "機関区分": 1, "都道府県コード": 35, "市区町村コード": 208, "所在地": "山口県岩国市由宇町３５９番地１", "緯度": 34.027444, "経度": 132.154333, "url": "https://www.iryou.teikyouseido.mhlw.go.jp/znk-web/juminkanja/S2430/initialize?prefCd=35&kikanCd=1355201520&kikanKbn=1", "url2": "http://www.nannwakai.jp/midori_hos", "内容": "特定医療法人南和会　みどり病院【1:病院】【診療科目:内科_リハビリテーション科】【一般病床数:0療養病床数:120精神病床数:0感染症病床数:0合計病床数:120】山口県岩国市由宇町３５９番地１" }, "geometry": { "type": "Point", "coordinates": [ 132.154333, 34.027444 ] } },
{ "type": "Feature", "properties": { "ID": 3511355201650, "正式名称": "岩国市医療センター医師会病院", "機関区分": 1, "都道府県コード": 35, "市区町村コード": 208, "所在地": "山口県岩国市室の木町３丁目６－１２", "緯度": 34.171194, "経度": 132.205722, "url": "https://www.iryou.teikyouseido.mhlw.go.jp/znk-web/juminkanja/S2430/initialize?prefCd=35&kikanCd=1355201650&kikanKbn=1", "url2": "http://www.iwakuni-med.jp", "内容": "岩国市医療センター医師会病院【1:病院】【診療科目:糖尿病・内分泌内科_脳神経内科_消化器内科_腎臓内科_人工透析内科_ペインクリニック内科_緩和ケア内科_脳神経外科_整形外科_小児科_泌尿器科_リハビリテーション科_放射線診断科_麻酔科】【一般病床数:181療養病床数:0精神病床数:0感染症病床数:0合計病床数:181】山口県岩国市室の木町３丁目６－１２" }, "geometry": { "type": "Point", "coordinates": [ 132.205722, 34.171194 ] } },
{ "type": "Feature", "properties": { "ID": 3511355201780, "正式名称": "医療法人新生会　いしい記念病院", "機関区分": 1, "都道府県コード": 35, "市区町村コード": 208, "所在地": "山口県岩国市多田三丁目１０２－１", "緯度": 34.181472, "経度": 132.166472, "url": "https://www.iryou.teikyouseido.mhlw.go.jp/znk-web/juminkanja/S2430/initialize?prefCd=35&kikanCd=1355201780&kikanKbn=1", "url2": "http://www.i-shinseikai.or.jp", "内容": "医療法人新生会　いしい記念病院【1:病院】【診療科目:内科_糖尿病内科_呼吸器内科_消化器内科_精神科_リハビリテーション科_放射線科】【一般病床数:0療養病床数:60精神病床数:147感染症病床数:0合計病床数:207】山口県岩国市多田三丁目１０２－１" }, "geometry": { "type": "Point", "coordinates": [ 132.166472, 34.181472 ] } },
{ "type": "Feature", "properties": { "ID": 3511355300120, "正式名称": "医療法人社団青山会　リフレまえだ病院", "機関区分": 1, "都道府県コード": 35, "市区町村コード": 208, "所在地": "山口県岩国市玖珂町１８８７番地", "緯度": 34.103833, "経度": 132.106444, "url": "https://www.iryou.teikyouseido.mhlw.go.jp/znk-web/juminkanja/S2430/initialize?prefCd=35&kikanCd=1355300120&kikanKbn=1", "url2": "https://refre-maeda.jp/", "内容": "医療法人社団青山会　リフレまえだ病院【1:病院】【診療科目:内科_精神科_心療内科_放射線科】【一般病床数:0療養病床数:0精神病床数:108感染症病床数:0合計病床数:108】山口県岩国市玖珂町１８８７番地" }, "geometry": { "type": "Point", "coordinates": [ 132.106444, 34.103833 ] } },
{ "type": "Feature", "properties": { "ID": 3511355300380, "正式名称": "医療法人玖玉会　玖珂中央病院", "機関区分": 1, "都道府県コード": 35, "市区町村コード": 208, "所在地": "山口県岩国市玖珂町１４４８番地", "緯度": 34.104306, "経度": 132.097, "url": "https://www.iryou.teikyouseido.mhlw.go.jp/znk-web/juminkanja/S2430/initialize?prefCd=35&kikanCd=1355300380&kikanKbn=1", "url2": "https://www.kuga-c-hosp.jp/", "内容": "医療法人玖玉会　玖珂中央病院【1:病院】【診療科目:内科_循環器内科_消化器内科_リハビリテーション科】【一般病床数:0療養病床数:148精神病床数:0感染症病床数:0合計病床数:148】山口県岩国市玖珂町１４４８番地" }, "geometry": { "type": "Point", "coordinates": [ 132.097, 34.104306 ] } },
{ "type": "Feature", "properties": { "ID": 3511355300410, "正式名称": "医療法人山口平成会　山口平成病院", "機関区分": 1, "都道府県コード": 35, "市区町村コード": 208, "所在地": "山口県岩国市玖珂町１１３４０番地", "緯度": 34.102111, "経度": 132.059167, "url": "https://www.iryou.teikyouseido.mhlw.go.jp/znk-web/juminkanja/S2430/initialize?prefCd=35&kikanCd=1355300410&kikanKbn=1", "url2": "http://yamaguchihp.jp/", "内容": "医療法人山口平成会　山口平成病院【1:病院】【診療科目:内科_呼吸器内科_循環器内科_消化器内科_リハビリテーション科】【一般病床数:0療養病床数:140精神病床数:0感染症病床数:0合計病床数:140】山口県岩国市玖珂町１１３４０番地" }, "geometry": { "type": "Point", "coordinates": [ 132.059167, 34.102111 ] } },
{ "type": "Feature", "properties": { "ID": 3511355300540, "正式名称": "医療法人全生会　周防病院", "機関区分": 1, "都道府県コード": 35, "市区町村コード": 208, "所在地": "山口県岩国市周東町上久原１２３番地", "緯度": 34.076583, "経度": 132.073111, "url": "https://www.iryou.teikyouseido.mhlw.go.jp/znk-web/juminkanja/S2430/initialize?prefCd=35&kikanCd=1355300540&kikanKbn=1", "url2": null, "内容": "医療法人全生会　周防病院【1:病院】【診療科目:内科_呼吸器内科_循環器内科_消化器内科_神経内科_リハビリテーション科_放射線科】【一般病床数:0療養病床数:120精神病床数:0感染症病床数:0合計病床数:120】山口県岩国市周東町上久原１２３番地" }, "geometry": { "type": "Point", "coordinates": [ 132.073111, 34.076583 ] } },
{ "type": "Feature", "properties": { "ID": 3511355300670, "正式名称": "医療法人清志会　藤政病院", "機関区分": 1, "都道府県コード": 35, "市区町村コード": 208, "所在地": "山口県岩国市周東町下久原２４０３番地１", "緯度": 34.093583, "経度": 132.05025, "url": "https://www.iryou.teikyouseido.mhlw.go.jp/znk-web/juminkanja/S2430/initialize?prefCd=35&kikanCd=1355300670&kikanKbn=1", "url2": "http://fujimasahosp.sakura.ne.jp", "内容": "医療法人清志会　藤政病院【1:病院】【診療科目:内科_消化器内科_外科_整形外科_歯科_矯正歯科_歯科口腔外科_小児歯科】【一般病床数:40療養病床数:0精神病床数:0感染症病床数:0合計病床数:40】山口県岩国市周東町下久原２４０３番地１" }, "geometry": { "type": "Point", "coordinates": [ 132.05025, 34.093583 ] } },
{ "type": "Feature", "properties": { "ID": 3511355400150, "正式名称": "医療法人恵愛会柳井病院", "機関区分": 1, "都道府県コード": 35, "市区町村コード": 212, "所在地": "山口県柳井市柳井１９１０－１", "緯度": 33.964028, "経度": 132.126083, "url": "https://www.iryou.teikyouseido.mhlw.go.jp/znk-web/juminkanja/S2430/initialize?prefCd=35&kikanCd=1355400150&kikanKbn=1", "url2": "http://www.keiaikai.jp", "内容": "医療法人恵愛会柳井病院【1:病院】【診療科目:内科_精神科】【一般病床数:0療養病床数:0精神病床数:298感染症病床数:0合計病床数:298】山口県柳井市柳井１９１０－１" }, "geometry": { "type": "Point", "coordinates": [ 132.126083, 33.964028 ] } },
{ "type": "Feature", "properties": { "ID": 3511355400280, "正式名称": "独立行政法人国立病院機構柳井医療センター", "機関区分": 1, "都道府県コード": 35, "市区町村コード": 212, "所在地": "山口県柳井市伊保庄９５", "緯度": 33.912333, "経度": 132.128, "url": "https://www.iryou.teikyouseido.mhlw.go.jp/znk-web/juminkanja/S2430/initialize?prefCd=35&kikanCd=1355400280&kikanKbn=1", "url2": "https://yanai.hosp.go.jp/", "内容": "独立行政法人国立病院機構柳井医療センター【1:病院】【診療科目:内科_脳神経内科_呼吸器内科_循環器内科_外科_整形外科_皮膚科_泌尿器科】【一般病床数:280療養病床数:0精神病床数:0感染症病床数:0合計病床数:280】山口県柳井市伊保庄９５" }, "geometry": { "type": "Point", "coordinates": [ 132.128, 33.912333 ] } },
{ "type": "Feature", "properties": { "ID": 3511355400310, "正式名称": "山口県厚生農業協同組合連合会　周東総合病院", "機関区分": 1, "都道府県コード": 35, "市区町村コード": 212, "所在地": "山口県柳井市古開作１０００－１", "緯度": 33.958806, "経度": 132.095833, "url": "https://www.iryou.teikyouseido.mhlw.go.jp/znk-web/juminkanja/S2430/initialize?prefCd=35&kikanCd=1355400310&kikanKbn=1", "url2": "https://shuto-hp.jp/", "内容": "山口県厚生農業協同組合連合会　周東総合病院【1:病院】【診療科目:内科_脳神経内科_循環器内科_消化器内科_血液内科・糖尿病内分泌内科_外科_脳神経外科_心臓血管外科_消化器外科_乳腺外科_整形外科_小児科_産婦人科_眼科_耳鼻いんこう科_皮膚科_泌尿器科_精神科_歯科口腔外科_リハビリテーション科_放射線科_病理診断科_麻酔科】【一般病床数:328療養病床数:0精神病床数:0感染症病床数:0合計病床数:328】山口県柳井市古開作１０００－１" }, "geometry": { "type": "Point", "coordinates": [ 132.095833, 33.958806 ] } },
{ "type": "Feature", "properties": { "ID": 3511355400440, "正式名称": "光市立大和総合病院", "機関区分": 1, "都道府県コード": 35, "市区町村コード": 210, "所在地": "山口県光市大字岩田９７４番地", "緯度": 33.982556, "経度": 131.999778, "url": "https://www.iryou.teikyouseido.mhlw.go.jp/znk-web/juminkanja/S2430/initialize?prefCd=35&kikanCd=1355400440&kikanKbn=1", "url2": "https://h-yamato-hosp.jp/", "内容": "光市立大和総合病院【1:病院】【診療科目:内科_内分泌内科_脳神経内科_呼吸器内科_循環器内科_消化器内科_外科_脳神経外科_整形外科_小児科_婦人科_眼科_耳鼻いんこう科_泌尿器科_歯科_歯科口腔外科_小児歯科_リハビリテーション科_放射線科】【一般病床数:40療養病床数:203精神病床数:0感染症病床数:0合計病床数:243】山口県光市大字岩田９７４番地" }, "geometry": { "type": "Point", "coordinates": [ 131.999778, 33.982556 ] } },
{ "type": "Feature", "properties": { "ID": 3511355400570, "正式名称": "光輝病院", "機関区分": 1, "都道府県コード": 35, "市区町村コード": 344, "所在地": "山口県熊毛郡平生町大字佐賀１０００２－７７", "緯度": 33.893389, "経度": 132.105722, "url": "https://www.iryou.teikyouseido.mhlw.go.jp/znk-web/juminkanja/S2430/initialize?prefCd=35&kikanCd=1355400570&kikanKbn=1", "url2": "https://koukikai-group.or.jp/", "内容": "光輝病院【1:病院】【診療科目:内科_外科_脳神経外科_整形外科_眼科_耳鼻いんこう科_皮膚科_泌尿器科_精神科_歯科】【一般病床数:0療養病床数:212精神病床数:0感染症病床数:0合計病床数:212】山口県熊毛郡平生町大字佐賀１０００２－７７" }, "geometry": { "type": "Point", "coordinates": [ 132.105722, 33.893389 ] } },
{ "type": "Feature", "properties": { "ID": 3511355400730, "正式名称": "医療法人松栄会　坂本病院", "機関区分": 1, "都道府県コード": 35, "市区町村コード": 212, "所在地": "山口県柳井市余田３６２６－２", "緯度": 33.959083, "経度": 132.066611, "url": "https://www.iryou.teikyouseido.mhlw.go.jp/znk-web/juminkanja/S2430/initialize?prefCd=35&kikanCd=1355400730&kikanKbn=1", "url2": "http://www.shoueikai-sakamotn.com", "内容": "医療法人松栄会　坂本病院【1:病院】【診療科目:内科_呼吸器内科_循環器内科_消化器内科_小児科】【一般病床数:0療養病床数:100精神病床数:0感染症病床数:0合計病床数:100】山口県柳井市余田３６２６－２" }, "geometry": { "type": "Point", "coordinates": [ 132.066611, 33.959083 ] } },
{ "type": "Feature", "properties": { "ID": 3511355400860, "正式名称": "周防大島町立橘医院", "機関区分": 1, "都道府県コード": 35, "市区町村コード": 305, "所在地": "山口県大島郡周防大島町大字西安下庄３９２０番地１７", "緯度": 33.897889, "経度": 132.280417, "url": "https://www.iryou.teikyouseido.mhlw.go.jp/znk-web/juminkanja/S2430/initialize?prefCd=35&kikanCd=1355400860&kikanKbn=1", "url2": "http://www.kouei.so.ecomas.jp/tcbn/", "内容": "周防大島町立橘医院【1:病院】【診療科目:内科_整形外科_耳鼻いんこう科_皮膚科_歯科】【一般病床数:0療養病床数:0精神病床数:0感染症病床数:0合計病床数:0】山口県大島郡周防大島町大字西安下庄３９２０番地１７" }, "geometry": { "type": "Point", "coordinates": [ 132.280417, 33.897889 ] } },
{ "type": "Feature", "properties": { "ID": 3511355500180, "正式名称": "医療法人愛命会　泉原病院", "機関区分": 1, "都道府県コード": 35, "市区町村コード": 215, "所在地": "山口県周南市泉原町１０－１", "緯度": 34.053639, "経度": 131.822278, "url": "https://www.iryou.teikyouseido.mhlw.go.jp/znk-web/juminkanja/S2430/initialize?prefCd=35&kikanCd=1355500180&kikanKbn=1", "url2": "https://www.aimeikai.jp/izumihara-hospital/", "内容": "医療法人愛命会　泉原病院【1:病院】【診療科目:精神科_神経科_歯科】【一般病床数:0療養病床数:0精神病床数:265感染症病床数:0合計病床数:265】山口県周南市泉原町１０－１" }, "geometry": { "type": "Point", "coordinates": [ 131.822278, 34.053639 ] } },
{ "type": "Feature", "properties": { "ID": 3511355500210, "正式名称": "医療法人社団共愛会　徳山静養院", "機関区分": 1, "都道府県コード": 35, "市区町村コード": 215, "所在地": "山口県周南市五月町１３番１号", "緯度": 34.037694, "経度": 131.830472, "url": "https://www.iryou.teikyouseido.mhlw.go.jp/znk-web/juminkanja/S2430/initialize?prefCd=35&kikanCd=1355500210&kikanKbn=1", "url2": "http://seiyouin.jp/html/", "内容": "医療法人社団共愛会　徳山静養院【1:病院】【診療科目:精神科】【一般病床数:0療養病床数:0精神病床数:140感染症病床数:0合計病床数:140】山口県周南市五月町１３番１号" }, "geometry": { "type": "Point", "coordinates": [ 131.830472, 34.037694 ] } },
{ "type": "Feature", "properties": { "ID": 3511355500500, "正式名称": "医療法人仁徳会　周南病院", "機関区分": 1, "都道府県コード": 35, "市区町村コード": 215, "所在地": "山口県周南市御幸通２－８", "緯度": 34.052445, "経度": 131.805359, "url": "https://www.iryou.teikyouseido.mhlw.go.jp/znk-web/juminkanja/S2430/initialize?prefCd=35&kikanCd=1355500500&kikanKbn=1", "url2": "https://shunan-hospital.info", "内容": "医療法人仁徳会　周南病院【1:病院】【診療科目:内科_脳神経内科_精神科_アレルギー科_リハビリテーション科_麻酔科】【一般病床数:0療養病床数:56精神病床数:0感染症病床数:0合計病床数:56】山口県周南市御幸通２－８" }, "geometry": { "type": "Point", "coordinates": [ 131.805359, 34.052445 ] } },
{ "type": "Feature", "properties": { "ID": 3511355500630, "正式名称": "徳山病院", "機関区分": 1, "都道府県コード": 35, "市区町村コード": 215, "所在地": "山口県周南市南浦山町５番１４号", "緯度": 34.068778, "経度": 131.791194, "url": "https://www.iryou.teikyouseido.mhlw.go.jp/znk-web/juminkanja/S2430/initialize?prefCd=35&kikanCd=1355500630&kikanKbn=1", "url2": "http://www.tokuyama-hp.jp", "内容": "徳山病院【1:病院】【診療科目:内科_循環器内科_消化器内科_形成外科_皮膚科_リウマチ科_リハビリテーション科_放射線科】【一般病床数:78療養病床数:0精神病床数:0感染症病床数:0合計病床数:78】山口県周南市南浦山町５番１４号" }, "geometry": { "type": "Point", "coordinates": [ 131.791194, 34.068778 ] } },
{ "type": "Feature", "properties": { "ID": 3511355500760, "正式名称": "鼓ケ浦こども医療福祉センター", "機関区分": 1, "都道府県コード": 35, "市区町村コード": 215, "所在地": "山口県周南市大字久米７５２番地４", "緯度": 34.037639, "経度": 131.84925, "url": "https://www.iryou.teikyouseido.mhlw.go.jp/znk-web/juminkanja/S2430/initialize?prefCd=35&kikanCd=1355500760&kikanKbn=1", "url2": "http://tsudumi.jp", "内容": "鼓ケ浦こども医療福祉センター【1:病院】【診療科目:脳神経内科_整形外科_小児科_耳鼻いんこう科_歯科_リハビリテーション科】【一般病床数:100療養病床数:0精神病床数:0感染症病床数:0合計病床数:100】山口県周南市大字久米７５２番地４" }, "geometry": { "type": "Point", "coordinates": [ 131.84925, 34.037639 ] } },
{ "type": "Feature", "properties": { "ID": 3511355500890, "正式名称": "医療法人社団諍友会田中病院", "機関区分": 1, "都道府県コード": 35, "市区町村コード": 215, "所在地": "山口県周南市三番町１－１２", "緯度": 34.053167, "経度": 131.810611, "url": "https://www.iryou.teikyouseido.mhlw.go.jp/znk-web/juminkanja/S2430/initialize?prefCd=35&kikanCd=1355500890&kikanKbn=1", "url2": "www.tanaka-hospital.jp", "内容": "医療法人社団諍友会田中病院【1:病院】【診療科目:産婦人科】【一般病床数:52療養病床数:0精神病床数:0感染症病床数:0合計病床数:52】山口県周南市三番町１－１２" }, "geometry": { "type": "Point", "coordinates": [ 131.810611, 34.053167 ] } },
{ "type": "Feature", "properties": { "ID": 3511355500920, "正式名称": "医療法人治徳会　湯野温泉病院", "機関区分": 1, "都道府県コード": 35, "市区町村コード": 215, "所在地": "山口県周南市大字湯野４２１７－２", "緯度": 34.094111, "経度": 131.67625, "url": "https://www.iryou.teikyouseido.mhlw.go.jp/znk-web/juminkanja/S2430/initialize?prefCd=35&kikanCd=1355500920&kikanKbn=1", "url2": "http://www.chitokukai.com", "内容": "医療法人治徳会　湯野温泉病院【1:病院】【診療科目:内科_リハビリテーション科】【一般病床数:0療養病床数:161精神病床数:0感染症病床数:0合計病床数:161】山口県周南市大字湯野４２１７－２" }, "geometry": { "type": "Point", "coordinates": [ 131.67625, 34.094111 ] } },
{ "type": "Feature", "properties": { "ID": 3511355501060, "正式名称": "独立行政法人地域医療機能推進機構徳山中央病院", "機関区分": 1, "都道府県コード": 35, "市区町村コード": 215, "所在地": "山口県周南市孝田町１番１号", "緯度": 34.047556, "経度": 131.834333, "url": "https://www.iryou.teikyouseido.mhlw.go.jp/znk-web/juminkanja/S2430/initialize?prefCd=35&kikanCd=1355501060&kikanKbn=1", "url2": "https://tokuyama.jcho.go.jp", "内容": "独立行政法人地域医療機能推進機構徳山中央病院【1:病院】【診療科目:内科_血液内科_糖尿病・内分泌内科_脳神経内科_呼吸器内科_循環器内科_消化器内科_ペインクリニック内科_緩和ケア内科_外科_脳神経外科_呼吸器外科_心臓血管外科_乳腺外科_整形外科_形成外科_小児科_小児外科_産婦人科_眼科_耳鼻いんこう科_皮膚科_泌尿器科_精神科_歯科_歯科口腔外科_リウマチ科_リハビリテーション科_放射線科_放射線治療科_病理診断科_臨床検査科_救急科_麻酔科】【一般病床数:507療養病床数:0精神病床数:0感染症病床数:12合計病床数:519】山口県周南市孝田町１番１号" }, "geometry": { "type": "Point", "coordinates": [ 131.834333, 34.047556 ] } },
{ "type": "Feature", "properties": { "ID": 3511355501190, "正式名称": "黒川病院", "機関区分": 1, "都道府県コード": 35, "市区町村コード": 215, "所在地": "山口県周南市五月町８番１９号", "緯度": 34.037056, "経度": 131.829167, "url": "https://www.iryou.teikyouseido.mhlw.go.jp/znk-web/juminkanja/S2430/initialize?prefCd=35&kikanCd=1355501190&kikanKbn=1", "url2": "http://kurokawa-hospital.jp/", "内容": "黒川病院【1:病院】【診療科目:外科_脳神経外科_整形外科_形成外科_リハビリテーション科_放射線科_麻酔科】【一般病床数:50療養病床数:0精神病床数:0感染症病床数:0合計病床数:50】山口県周南市五月町８番１９号" }, "geometry": { "type": "Point", "coordinates": [ 131.829167, 34.037056 ] } },
{ "type": "Feature", "properties": { "ID": 3511355501510, "正式名称": "医療法人緑山会　下松中央病院", "機関区分": 1, "都道府県コード": 35, "市区町村コード": 207, "所在地": "山口県下松市古川町３－１－１", "緯度": 34.0075, "経度": 131.872194, "url": "https://www.iryou.teikyouseido.mhlw.go.jp/znk-web/juminkanja/S2430/initialize?prefCd=35&kikanCd=1355501510&kikanKbn=1", "url2": "http://ryokuzankai.jp", "内容": "医療法人緑山会　下松中央病院【1:病院】【診療科目:内科_呼吸器内科_循環器内科_外科_整形外科_婦人科_歯科_リハビリテーション科】【一般病床数:28療養病床数:109精神病床数:0感染症病床数:0合計病床数:137】山口県下松市古川町３－１－１" }, "geometry": { "type": "Point", "coordinates": [ 131.872194, 34.0075 ] } },
{ "type": "Feature", "properties": { "ID": 3511355501770, "正式名称": "下松病院", "機関区分": 1, "都道府県コード": 35, "市区町村コード": 207, "所在地": "山口県下松市新川二丁目１番１号", "緯度": 34.008694, "経度": 131.863111, "url": "https://www.iryou.teikyouseido.mhlw.go.jp/znk-web/juminkanja/S2430/initialize?prefCd=35&kikanCd=1355501770&kikanKbn=1", "url2": "http://seikoukai.jp/", "内容": "下松病院【1:病院】【診療科目:内科_呼吸器内科_循環器内科_消化器内科_腎臓内科_リハビリテーション科】【一般病床数:0療養病床数:51精神病床数:0感染症病床数:0合計病床数:51】山口県下松市新川二丁目１番１号" }, "geometry": { "type": "Point", "coordinates": [ 131.863111, 34.008694 ] } },
{ "type": "Feature", "properties": { "ID": 3511355501930, "正式名称": "医療法人愛命会　大田病院", "機関区分": 1, "都道府県コード": 35, "市区町村コード": 210, "所在地": "山口県光市島田５－３－１", "緯度": 33.980139, "経度": 131.939722, "url": "https://www.iryou.teikyouseido.mhlw.go.jp/znk-web/juminkanja/S2430/initialize?prefCd=35&kikanCd=1355501930&kikanKbn=1", "url2": "http://www.ohta-hp.jp/", "内容": "医療法人愛命会　大田病院【1:病院】【診療科目:精神科_神経科】【一般病床数:96療養病床数:108精神病床数:204感染症病床数:0合計病床数:204】山口県光市島田５－３－１" }, "geometry": { "type": "Point", "coordinates": [ 131.939722, 33.980139 ] } },
{ "type": "Feature", "properties": { "ID": 3511355502070, "正式名称": "光市立光総合病院", "機関区分": 1, "都道府県コード": 35, "市区町村コード": 210, "所在地": "山口県光市光ケ丘６番１号", "緯度": 33.970972, "経度": 131.918083, "url": "https://www.iryou.teikyouseido.mhlw.go.jp/znk-web/juminkanja/S2430/initialize?prefCd=35&kikanCd=1355502070&kikanKbn=1", "url2": "http://hikari-hosp.jp/", "内容": "光市立光総合病院【1:病院】【診療科目:内科_内分泌内科_呼吸器内科_循環器内科_消化器内科_緩和ケア内科_外科_脳神経外科_整形外科_小児科_婦人科_眼科_耳鼻いんこう科_皮膚科_泌尿器科_精神科_リハビリテーション科_放射線科_麻酔科】【一般病床数:210療養病床数:0精神病床数:0感染症病床数:0合計病床数:210】山口県光市光ケ丘６番１号" }, "geometry": { "type": "Point", "coordinates": [ 131.918083, 33.970972 ] } },
{ "type": "Feature", "properties": { "ID": 3511355502100, "正式名称": "医療法人至誠会梅田病院", "機関区分": 1, "都道府県コード": 35, "市区町村コード": 210, "所在地": "山口県光市虹ケ浜３－６－１", "緯度": 33.972694, "経度": 131.916139, "url": "https://www.iryou.teikyouseido.mhlw.go.jp/znk-web/juminkanja/S2430/initialize?prefCd=35&kikanCd=1355502100&kikanKbn=1", "url2": "http://www.umeda-hospital.or.jp/", "内容": "医療法人至誠会梅田病院【1:病院】【診療科目:肛門外科_小児科_産婦人科】【一般病床数:34療養病床数:0精神病床数:0感染症病床数:0合計病床数:34】山口県光市虹ケ浜３－６－１" }, "geometry": { "type": "Point", "coordinates": [ 131.916139, 33.972694 ] } },
{ "type": "Feature", "properties": { "ID": 3511355502230, "正式名称": "医療法人社団陽光会　光中央病院", "機関区分": 1, "都道府県コード": 35, "市区町村コード": 210, "所在地": "山口県光市島田２－２２－１６", "緯度": 33.970528, "経度": 131.933639, "url": "https://www.iryou.teikyouseido.mhlw.go.jp/znk-web/juminkanja/S2430/initialize?prefCd=35&kikanCd=1355502230&kikanKbn=1", "url2": "http://www.hch.or.jp/", "内容": "医療法人社団陽光会　光中央病院【1:病院】【診療科目:内科_呼吸器内科_消化器内科_内視鏡内科_外科_脳神経外科_乳腺外科_肛門外科_整形外科_アレルギー科_リハビリテーション科_放射線科_麻酔科】【一般病床数:40療養病床数:58精神病床数:0感染症病床数:0合計病床数:98】山口県光市島田２－２２－１６" }, "geometry": { "type": "Point", "coordinates": [ 131.933639, 33.970528 ] } },
{ "type": "Feature", "properties": { "ID": 3511355502360, "正式名称": "周南市立新南陽市民病院", "機関区分": 1, "都道府県コード": 35, "市区町村コード": 215, "所在地": "山口県周南市宮の前２－３－１５", "緯度": 34.072556, "経度": 131.764833, "url": "https://www.iryou.teikyouseido.mhlw.go.jp/znk-web/juminkanja/S2430/initialize?prefCd=35&kikanCd=1355502360&kikanKbn=1", "url2": "http://www.city-hp.or.jp/", "内容": "周南市立新南陽市民病院【1:病院】【診療科目:内科_外科_脳神経外科_整形外科_眼科_泌尿器科】【一般病床数:150療養病床数:0精神病床数:0感染症病床数:0合計病床数:150】山口県周南市宮の前２－３－１５" }, "geometry": { "type": "Point", "coordinates": [ 131.764833, 34.072556 ] } },
{ "type": "Feature", "properties": { "ID": 3511355502520, "正式名称": "医療法人社団生和会　周南リハビリテーション病院", "機関区分": 1, "都道府県コード": 35, "市区町村コード": 215, "所在地": "山口県周南市大字湯野４２７８番地１", "緯度": 34.090111, "経度": 131.674139, "url": "https://www.iryou.teikyouseido.mhlw.go.jp/znk-web/juminkanja/S2430/initialize?prefCd=35&kikanCd=1355502520&kikanKbn=1", "url2": "http://www.shunan-rh.jp", "内容": "医療法人社団生和会　周南リハビリテーション病院【1:病院】【診療科目:内科_呼吸器内科_神経内科_整形外科_皮膚科_リハビリテーション科】【一般病床数:166療養病床数:44精神病床数:0感染症病床数:0合計病床数:210】山口県周南市大字湯野４２７８番地１" }, "geometry": { "type": "Point", "coordinates": [ 131.674139, 34.090111 ] } },
{ "type": "Feature", "properties": { "ID": 3511355502780, "正式名称": "医療法人　緑山会　周南高原病院", "機関区分": 1, "都道府県コード": 35, "市区町村コード": 215, "所在地": "山口県周南市大字須々万本郷２９－１", "緯度": 34.123778, "経度": 131.858306, "url": "https://www.iryou.teikyouseido.mhlw.go.jp/znk-web/juminkanja/S2430/initialize?prefCd=35&kikanCd=1355502780&kikanKbn=1", "url2": "http://ryokuzankai.jp/", "内容": "医療法人　緑山会　周南高原病院【1:病院】【診療科目:内科_循環器内科_消化器内科_神経内科_整形外科_リハビリテーション科】【一般病床数:0療養病床数:115精神病床数:0感染症病床数:0合計病床数:115】山口県周南市大字須々万本郷２９－１" }, "geometry": { "type": "Point", "coordinates": [ 131.858306, 34.123778 ] } },
{ "type": "Feature", "properties": { "ID": 3511355502810, "正式名称": "社会医療法人同仁会　周南記念病院", "機関区分": 1, "都道府県コード": 35, "市区町村コード": 207, "所在地": "山口県下松市生野屋南１丁目１０－１", "緯度": 34.032583, "経度": 131.876722, "url": "https://www.iryou.teikyouseido.mhlw.go.jp/znk-web/juminkanja/S2430/initialize?prefCd=35&kikanCd=1355502810&kikanKbn=1", "url2": "shunan-kinen.jp", "内容": "社会医療法人同仁会　周南記念病院【1:病院】【診療科目:内科_血液内科_糖尿病・内分泌内科_呼吸器内科_循環器内科_消化器内科_神経内科_外科_脳神経外科_呼吸器外科_血管外科_消化器外科_乳腺外科_大腸・肛門外科_整形外科_形成外科_小児科_耳鼻いんこう科_泌尿器科_アレルギー科_リウマチ科_リハビリテーション科_放射線科_麻酔科】【一般病床数:200療養病床数:50精神病床数:0感染症病床数:0合計病床数:250】山口県下松市生野屋南１丁目１０－１" }, "geometry": { "type": "Point", "coordinates": [ 131.876722, 34.032583 ] } },
{ "type": "Feature", "properties": { "ID": 3511355502940, "正式名称": "医療法人三生会　みちがみ病院", "機関区分": 1, "都道府県コード": 35, "市区町村コード": 210, "所在地": "山口県光市光ケ丘　２番　５号", "緯度": 33.979167, "経度": 131.921583, "url": "https://www.iryou.teikyouseido.mhlw.go.jp/znk-web/juminkanja/S2430/initialize?prefCd=35&kikanCd=1355502940&kikanKbn=1", "url2": "https://www.michigami.or.jp/", "内容": "医療法人三生会　みちがみ病院【1:病院】【診療科目:内科_漢方内科_小児科_産科_婦人科】【一般病床数:30療養病床数:0精神病床数:0感染症病床数:0合計病床数:30】山口県光市光ケ丘　２番　５号" }, "geometry": { "type": "Point", "coordinates": [ 131.921583, 33.979167 ] } },
{ "type": "Feature", "properties": { "ID": 3511355600110, "正式名称": "医療法人惠愛会防府保養院", "機関区分": 1, "都道府県コード": 35, "市区町村コード": 206, "所在地": "山口県防府市岩畠一丁目２番１号", "緯度": 34.056694, "経度": 131.593056, "url": "https://www.iryou.teikyouseido.mhlw.go.jp/znk-web/juminkanja/S2430/initialize?prefCd=35&kikanCd=1355600110&kikanKbn=1", "url2": "https://hofu-hoyoin.or.jp/", "内容": "医療法人惠愛会防府保養院【1:病院】【診療科目:精神科_神経科】【一般病床数:0療養病床数:0精神病床数:100感染症病床数:0合計病床数:100】山口県防府市岩畠一丁目２番１号" }, "geometry": { "type": "Point", "coordinates": [ 131.593056, 34.056694 ] } },
{ "type": "Feature", "properties": { "ID": 3511355600530, "正式名称": "医療法人　神徳会　三田尻病院", "機関区分": 1, "都道府県コード": 35, "市区町村コード": 206, "所在地": "山口県防府市お茶屋町３－２７", "緯度": 34.046583, "経度": 131.573722, "url": "https://www.iryou.teikyouseido.mhlw.go.jp/znk-web/juminkanja/S2430/initialize?prefCd=35&kikanCd=1355600530&kikanKbn=1", "url2": "https://mitajiri.net", "内容": "医療法人　神徳会　三田尻病院【1:病院】【診療科目:内科_血液内科_糖尿病内科_脳神経内科_呼吸器内科_循環器内科_消化器内科_腎臓内科_人工透析内科_外科_脳神経外科_血管外科_乳腺外科_整形外科_小児科_眼科_泌尿器科_歯科_歯科口腔外科_アレルギー科_放射線科】【一般病床数:128療養病床数:0精神病床数:0感染症病床数:0合計病床数:128】山口県防府市お茶屋町３－２７" }, "geometry": { "type": "Point", "coordinates": [ 131.573722, 34.046583 ] } },
{ "type": "Feature", "properties": { "ID": 3511355600790, "正式名称": "桑陽病院", "機関区分": 1, "都道府県コード": 35, "市区町村コード": 206, "所在地": "山口県防府市車塚町３－２０", "緯度": 34.0525, "経度": 131.574361, "url": "https://www.iryou.teikyouseido.mhlw.go.jp/znk-web/juminkanja/S2430/initialize?prefCd=35&kikanCd=1355600790&kikanKbn=1", "url2": "http://soyo.or.jp", "内容": "桑陽病院【1:病院】【診療科目:内科_糖尿病・内分泌内科_循環器内科_消化器内科_整形外科_泌尿器科_リハビリテーション科_放射線科】【一般病床数:57療養病床数:42精神病床数:0感染症病床数:0合計病床数:99】山口県防府市車塚町３－２０" }, "geometry": { "type": "Point", "coordinates": [ 131.574361, 34.0525 ] } },
{ "type": "Feature", "properties": { "ID": 3511355600820, "正式名称": "まつもと整形救急外科病院", "機関区分": 1, "都道府県コード": 35, "市区町村コード": 206, "所在地": "山口県防府市天神２－１－４４", "緯度": 34.056972, "経度": 131.57275, "url": "https://www.iryou.teikyouseido.mhlw.go.jp/znk-web/juminkanja/S2430/initialize?prefCd=35&kikanCd=1355600820&kikanKbn=1", "url2": "http://www.megaegg.ne.jp/~nbmatmto/", "内容": "まつもと整形救急外科病院【1:病院】【診療科目:内科_外科_脳神経外科_整形外科_形成外科_リウマチ科_リハビリテーション科_放射線科_救急科】【一般病床数:80療養病床数:0精神病床数:0感染症病床数:0合計病床数:80】山口県防府市天神２－１－４４" }, "geometry": { "type": "Point", "coordinates": [ 131.57275, 34.056972 ] } },
{ "type": "Feature", "properties": { "ID": 3511355600950, "正式名称": "医療法人和同会　防府リハビリテーション病院", "機関区分": 1, "都道府県コード": 35, "市区町村コード": 206, "所在地": "山口県防府市大字台道１６３４番地の１", "緯度": 34.069417, "経度": 131.493583, "url": "https://www.iryou.teikyouseido.mhlw.go.jp/znk-web/juminkanja/S2430/initialize?prefCd=35&kikanCd=1355600950&kikanKbn=1", "url2": "http://www.hofureha.jp/", "内容": "医療法人和同会　防府リハビリテーション病院【1:病院】【診療科目:内科_呼吸器内科_循環器内科_神経内科_整形外科_眼科_歯科_リハビリテーション科】【一般病床数:0療養病床数:261精神病床数:0感染症病床数:0合計病床数:261】山口県防府市大字台道１６３４番地の１" }, "geometry": { "type": "Point", "coordinates": [ 131.493583, 34.069417 ] } },
{ "type": "Feature", "properties": { "ID": 3511355601090, "正式名称": "一般財団法人防府消化器病センター防府胃腸病院", "機関区分": 1, "都道府県コード": 35, "市区町村コード": 206, "所在地": "山口県防府市駅南町１４－３３", "緯度": 34.050917, "経度": 131.564083, "url": "https://www.iryou.teikyouseido.mhlw.go.jp/znk-web/juminkanja/S2430/initialize?prefCd=35&kikanCd=1355601090&kikanKbn=1", "url2": "http://www.hofu-icho.or.jp", "内容": "一般財団法人防府消化器病センター防府胃腸病院【1:病院】【診療科目:内科_糖尿病内科_内分泌内科_消化器内科_外科_消化器外科_リハビリテーション科_放射線科】【一般病床数:108療養病床数:0精神病床数:0感染症病床数:0合計病床数:108】山口県防府市駅南町１４－３３" }, "geometry": { "type": "Point", "coordinates": [ 131.564083, 34.050917 ] } },
{ "type": "Feature", "properties": { "ID": 3511355601120, "正式名称": "山口県立総合医療センター", "機関区分": 1, "都道府県コード": 35, "市区町村コード": 206, "所在地": "山口県防府市大崎１００７７番地", "緯度": 34.066167, "経度": 131.542444, "url": "https://www.iryou.teikyouseido.mhlw.go.jp/znk-web/juminkanja/S2430/initialize?prefCd=35&kikanCd=1355601120&kikanKbn=1", "url2": "https://www.ymghp.jp", "内容": "山口県立総合医療センター【1:病院】【診療科目:内科_血液内科_糖尿病・内分泌内科_脳神経内科_呼吸器内科_循環器内科_消化器内科_腎臓内科_肝臓内科_外科_脳神経外科_呼吸器外科_心臓血管外科_消化器外科_乳腺外科_頭頸部外科_整形外科_形成外科_小児科_小児外科_新生児内科_産婦人科_産婦人科（生殖医療）_眼科_耳鼻いんこう科_皮膚科_泌尿器科_神経科_歯科_歯科口腔外科_リハビリテーション科_放射線科_放射線治療科_病理診断科_救急科_麻酔科】【一般病床数:490療養病床数:0精神病床数:0感染症病床数:14合計病床数:504】山口県防府市大崎１００７７番地" }, "geometry": { "type": "Point", "coordinates": [ 131.542444, 34.066167 ] } },
{ "type": "Feature", "properties": { "ID": 3511355601380, "正式名称": "医療法人博愛会　山口博愛病院", "機関区分": 1, "都道府県コード": 35, "市区町村コード": 206, "所在地": "山口県防府市お茶屋町２番１２号", "緯度": 34.047694, "経度": 131.572639, "url": "https://www.iryou.teikyouseido.mhlw.go.jp/znk-web/juminkanja/S2430/initialize?prefCd=35&kikanCd=1355601380&kikanKbn=1", "url2": "http://hakuai.net/", "内容": "医療法人博愛会　山口博愛病院【1:病院】【診療科目:内科_血液内科_糖尿病・代謝内科_呼吸器内科_循環器内科_消化器内科_神経内科_外科_整形外科_皮膚科_アレルギー科_放射線科】【一般病床数:53療養病床数:45精神病床数:0感染症病床数:0合計病床数:98】山口県防府市お茶屋町２番１２号" }, "geometry": { "type": "Point", "coordinates": [ 131.572639, 34.047694 ] } },
{ "type": "Feature", "properties": { "ID": 3511355601410, "正式名称": "医療法人　康淳会　緑町三祐病院", "機関区分": 1, "都道府県コード": 35, "市区町村コード": 206, "所在地": "山口県防府市緑町一丁目５番２９号", "緯度": 34.054667, "経度": 131.57825, "url": "https://www.iryou.teikyouseido.mhlw.go.jp/znk-web/juminkanja/S2430/initialize?prefCd=35&kikanCd=1355601410&kikanKbn=1", "url2": "https://www.midorimachi-sanyu.jp/", "内容": "医療法人　康淳会　緑町三祐病院【1:病院】【診療科目:内科_消化器内科_外科_整形外科_眼科_皮膚科_リハビリテーション科】【一般病床数:0療養病床数:86精神病床数:0感染症病床数:0合計病床数:86】山口県防府市緑町一丁目５番２９号" }, "geometry": { "type": "Point", "coordinates": [ 131.57825, 34.054667 ] } },
{ "type": "Feature", "properties": { "ID": 3511355601540, "正式名称": "医療法人貴和会　防府病院", "機関区分": 1, "都道府県コード": 35, "市区町村コード": 206, "所在地": "山口県防府市大字高井９６１番地", "緯度": 34.072981, "経度": 131.549247, "url": "https://www.iryou.teikyouseido.mhlw.go.jp/znk-web/juminkanja/S2430/initialize?prefCd=35&kikanCd=1355601540&kikanKbn=1", "url2": "http://kiwakai.net/", "内容": "医療法人貴和会　防府病院【1:病院】【診療科目:精神科_神経科_歯科_麻酔科】【一般病床数:0療養病床数:0精神病床数:157感染症病床数:0合計病床数:157】山口県防府市大字高井９６１番地" }, "geometry": { "type": "Point", "coordinates": [ 131.549247, 34.072981 ] } },
{ "type": "Feature", "properties": { "ID": 3511355700140, "正式名称": "医療法人和同会吉南病院", "機関区分": 1, "都道府県コード": 35, "市区町村コード": 203, "所在地": "山口県山口市鋳銭司３３８１", "緯度": 34.076111, "経度": 131.461389, "url": "https://www.iryou.teikyouseido.mhlw.go.jp/znk-web/juminkanja/S2430/initialize?prefCd=35&kikanCd=1355700140&kikanKbn=1", "url2": "https://www.kitunan.jp", "内容": "医療法人和同会吉南病院【1:病院】【診療科目:内科_精神科_歯科】【一般病床数:0療養病床数:0精神病床数:342感染症病床数:0合計病床数:342】山口県山口市鋳銭司３３８１" }, "geometry": { "type": "Point", "coordinates": [ 131.461389, 34.076111 ] } },
{ "type": "Feature", "properties": { "ID": 3511355700270, "正式名称": "医療法人祐圭会山口よしき病院", "機関区分": 1, "都道府県コード": 35, "市区町村コード": 203, "所在地": "山口県山口市吉敷佐畑四丁目９番１号", "緯度": 34.167556, "経度": 131.426139, "url": "https://www.iryou.teikyouseido.mhlw.go.jp/znk-web/juminkanja/S2430/initialize?prefCd=35&kikanCd=1355700270&kikanKbn=1", "url2": "https://www.yamaguchiyoshiki-hp.com", "内容": "医療法人祐圭会山口よしき病院【1:病院】【診療科目:内科_精神科_心療内科】【一般病床数:0療養病床数:0精神病床数:197感染症病床数:0合計病床数:197】山口県山口市吉敷佐畑四丁目９番１号" }, "geometry": { "type": "Point", "coordinates": [ 131.426139, 34.167556 ] } },
{ "type": "Feature", "properties": { "ID": 3511355700300, "正式名称": "医療法人　仁保病院", "機関区分": 1, "都道府県コード": 35, "市区町村コード": 203, "所在地": "山口県山口市仁保下郷１９１５－１", "緯度": 34.174472, "経度": 131.520667, "url": "https://www.iryou.teikyouseido.mhlw.go.jp/znk-web/juminkanja/S2430/initialize?prefCd=35&kikanCd=1355700300&kikanKbn=1", "url2": "http://niho-hp.jp", "内容": "医療法人　仁保病院【1:病院】【診療科目:内科_脳神経内科_老年内科_皮膚科_精神科_老年精神科】【一般病床数:0療養病床数:0精神病床数:223感染症病床数:0合計病床数:223】山口県山口市仁保下郷１９１５－１" }, "geometry": { "type": "Point", "coordinates": [ 131.520667, 34.174472 ] } },
{ "type": "Feature", "properties": { "ID": 3511355700560, "正式名称": "綜合病院　山口赤十字病院", "機関区分": 1, "都道府県コード": 35, "市区町村コード": 203, "所在地": "山口県山口市八幡馬場　５３－１", "緯度": 34.18475, "経度": 131.482583, "url": "https://www.iryou.teikyouseido.mhlw.go.jp/znk-web/juminkanja/S2430/initialize?prefCd=35&kikanCd=1355700560&kikanKbn=1", "url2": "http://www.yamaguchi-redcross.jp/", "内容": "綜合病院　山口赤十字病院【1:病院】【診療科目:内科_糖尿病・内分泌内科_脳神経内科_呼吸器内科_循環器内科_消化器内科_腎臓内科_緩和ケア内科_膠原病内科_外科_脳神経外科_気管食道外科_乳腺外科_整形外科_小児科_産婦人科_眼科_耳鼻いんこう科_皮膚科_泌尿器科_精神科_歯科口腔外科_リハビリテーション科_放射線科_麻酔科】【一般病床数:327療養病床数:0精神病床数:0感染症病床数:0合計病床数:327】山口県山口市八幡馬場　５３－１" }, "geometry": { "type": "Point", "coordinates": [ 131.482583, 34.18475 ] } },
{ "type": "Feature", "properties": { "ID": 3511355700690, "正式名称": "社会福祉法人恩賜財団済生会支部山口県済生会山口総合病院", "機関区分": 1, "都道府県コード": 35, "市区町村コード": 203, "所在地": "山口県山口市緑町２－１１", "緯度": 34.171222, "経度": 131.467139, "url": "https://www.iryou.teikyouseido.mhlw.go.jp/znk-web/juminkanja/S2430/initialize?prefCd=35&kikanCd=1355700690&kikanKbn=1", "url2": "http://www.yamaguchi-saiseikai.jp/", "内容": "社会福祉法人恩賜財団済生会支部山口県済生会山口総合病院【1:病院】【診療科目:内科_血液内科_糖尿病・内分泌内科_脳神経内科_呼吸器内科_循環器内科_消化器内科_腎臓内科_外科_脳神経外科_呼吸器外科_心臓血管外科_消化器外科_乳腺外科_整形外科_小児科_産婦人科_眼科_耳鼻いんこう科_皮膚科_泌尿器科_精神科_アレルギー科_リウマチ科_リハビリテーション科_放射線科_麻酔科】【一般病床数:279療養病床数:0精神病床数:0感染症病床数:0合計病床数:279】山口県山口市緑町２－１１" }, "geometry": { "type": "Point", "coordinates": [ 131.467139, 34.171222 ] } },
{ "type": "Feature", "properties": { "ID": 3511355700850, "正式名称": "医療法人樹一会　山口病院", "機関区分": 1, "都道府県コード": 35, "市区町村コード": 203, "所在地": "山口県山口市駅通り２－１０－７", "緯度": 34.174694, "経度": 131.479639, "url": "https://www.iryou.teikyouseido.mhlw.go.jp/znk-web/juminkanja/S2430/initialize?prefCd=35&kikanCd=1355700850&kikanKbn=1", "url2": "http://www.yamaguchibyouin.jp/", "内容": "医療法人樹一会　山口病院【1:病院】【診療科目:内科_呼吸器内科_循環器内科_胃腸内科_外科_肛門外科_整形外科_皮膚科_泌尿器科_リハビリテーション科_放射線科】【一般病床数:0療養病床数:79精神病床数:0感染症病床数:0合計病床数:79】山口県山口市駅通り２－１０－７" }, "geometry": { "type": "Point", "coordinates": [ 131.479639, 34.174694 ] } },
{ "type": "Feature", "properties": { "ID": 3511355700980, "正式名称": "医療法人雄樹会　おか整形外科病院", "機関区分": 1, "都道府県コード": 35, "市区町村コード": 203, "所在地": "山口県山口市中河原町　２－１４", "緯度": 34.17825, "経度": 131.475722, "url": "https://www.iryou.teikyouseido.mhlw.go.jp/znk-web/juminkanja/S2430/initialize?prefCd=35&kikanCd=1355700980&kikanKbn=1", "url2": "https://oka-hospital.com/", "内容": "医療法人雄樹会　おか整形外科病院【1:病院】【診療科目:内科_整形外科_リウマチ科_リハビリテーション科_麻酔科】【一般病床数:0療養病床数:29精神病床数:0感染症病床数:0合計病床数:29】山口県山口市中河原町　２－１４" }, "geometry": { "type": "Point", "coordinates": [ 131.475722, 34.17825 ] } },
{ "type": "Feature", "properties": { "ID": 3511355701020, "正式名称": "医療法人社団水生会　柴田病院", "機関区分": 1, "都道府県コード": 35, "市区町村コード": 203, "所在地": "山口県山口市大内矢田北五丁目１１番２１号", "緯度": 34.154944, "経度": 131.509361, "url": "https://www.iryou.teikyouseido.mhlw.go.jp/znk-web/juminkanja/S2430/initialize?prefCd=35&kikanCd=1355701020&kikanKbn=1", "url2": "http://www.suiseikai.org", "内容": "医療法人社団水生会　柴田病院【1:病院】【診療科目:内科_呼吸器内科_循環器内科_消化器内科_神経内科_外科_消化器外科_肛門外科_整形外科_眼科_リハビリテーション科】【一般病床数:60療養病床数:0精神病床数:0感染症病床数:0合計病床数:60】山口県山口市大内矢田北五丁目１１番２１号" }, "geometry": { "type": "Point", "coordinates": [ 131.509361, 34.154944 ] } },
{ "type": "Feature", "properties": { "ID": 3511355701150, "正式名称": "医療法人社団曙会佐々木医院メディカルプラザ", "機関区分": 1, "都道府県コード": 35, "市区町村コード": 203, "所在地": "山口県山口市泉都町９－１３", "緯度": 34.166528, "経度": 131.4615, "url": "https://www.iryou.teikyouseido.mhlw.go.jp/znk-web/juminkanja/S2430/initialize?prefCd=35&kikanCd=1355701150&kikanKbn=1", "url2": "http://sasaki-geka.jp/", "内容": "医療法人社団曙会佐々木医院メディカルプラザ【1:病院】【診療科目:内科_消化器内科_外科_乳腺外科_肛門外科_整形外科_リハビリテーション科】【一般病床数:0療養病床数:0精神病床数:0感染症病床数:0合計病床数:0】山口県山口市泉都町９－１３" }, "geometry": { "type": "Point", "coordinates": [ 131.4615, 34.166528 ] } },
{ "type": "Feature", "properties": { "ID": 3511355701280, "正式名称": "医療法人　社団若宮会　山口若宮病院", "機関区分": 1, "都道府県コード": 35, "市区町村コード": 203, "所在地": "山口県山口市下小鯖１５２２", "緯度": 34.137556, "経度": 131.517694, "url": "https://www.iryou.teikyouseido.mhlw.go.jp/znk-web/juminkanja/S2430/initialize?prefCd=35&kikanCd=1355701280&kikanKbn=1", "url2": "http://wakamiyakai.jp/", "内容": "医療法人　社団若宮会　山口若宮病院【1:病院】【診療科目:内科_循環器内科_消化器内科_リハビリテーション科】【一般病床数:0療養病床数:155精神病床数:0感染症病床数:0合計病床数:155】山口県山口市下小鯖１５２２" }, "geometry": { "type": "Point", "coordinates": [ 131.517694, 34.137556 ] } },
{ "type": "Feature", "properties": { "ID": 3511355701310, "正式名称": "山口県厚生農業協同組合連合会　小郡第一総合病院", "機関区分": 1, "都道府県コード": 35, "市区町村コード": 203, "所在地": "山口県山口市小郡中央通８－１１", "緯度": 34.103306, "経度": 131.396972, "url": "https://www.iryou.teikyouseido.mhlw.go.jp/znk-web/juminkanja/S2430/initialize?prefCd=35&kikanCd=1355701310&kikanKbn=1", "url2": "http://www.ogoridaiichi.jp/", "内容": "山口県厚生農業協同組合連合会　小郡第一総合病院【1:病院】【診療科目:内科_血液内科_糖尿病内科_脳神経内科_呼吸器内科_循環器内科_消化器内科_外科_脳神経外科_整形外科_小児科_産婦人科_眼科_耳鼻いんこう科_泌尿器科_リハビリテーション科_病理診断科_麻酔科】【一般病床数:182療養病床数:0精神病床数:0感染症病床数:0合計病床数:182】山口県山口市小郡中央通８－１１" }, "geometry": { "type": "Point", "coordinates": [ 131.396972, 34.103306 ] } },
{ "type": "Feature", "properties": { "ID": 3511355701570, "正式名称": "医療法人協愛会阿知須共立病院", "機関区分": 1, "都道府県コード": 35, "市区町村コード": 203, "所在地": "山口県山口市阿知須４８４１－１", "緯度": 34.011306, "経度": 131.355667, "url": "https://www.iryou.teikyouseido.mhlw.go.jp/znk-web/juminkanja/S2430/initialize?prefCd=35&kikanCd=1355701570&kikanKbn=1", "url2": "https://www.kyoai.or.jp", "内容": "医療法人協愛会阿知須共立病院【1:病院】【診療科目:内科_糖尿病内科_内分泌内科_呼吸器内科_循環器内科_消化器内科_腎臓内科_肝臓内科_内視鏡内科_外科_脳神経外科_呼吸器外科_血管外科_消化器外科_乳腺外科_整形外科_リハビリテーション科_放射線科】【一般病床数:45療養病床数:90精神病床数:0感染症病床数:0合計病床数:135】山口県山口市阿知須４８４１－１" }, "geometry": { "type": "Point", "coordinates": [ 131.355667, 34.011306 ] } },
{ "type": "Feature", "properties": { "ID": 3511355701600, "正式名称": "医療法人社団向陽会阿知須同仁病院", "機関区分": 1, "都道府県コード": 35, "市区町村コード": 203, "所在地": "山口県山口市阿知須４２４１－４", "緯度": 34.010056, "経度": 131.360306, "url": "https://www.iryou.teikyouseido.mhlw.go.jp/znk-web/juminkanja/S2430/initialize?prefCd=35&kikanCd=1355701600&kikanKbn=1", "url2": "www.ajisudohjin.com", "内容": "医療法人社団向陽会阿知須同仁病院【1:病院】【診療科目:内科_呼吸器内科_循環器内科_消化器内科_外科_脳神経外科_整形外科_リハビリテーション科_放射線科_麻酔科】【一般病床数:30療養病床数:48精神病床数:0感染症病床数:0合計病床数:78】山口県山口市阿知須４２４１－４" }, "geometry": { "type": "Point", "coordinates": [ 131.360306, 34.010056 ] } },
{ "type": "Feature", "properties": { "ID": 3511355701730, "正式名称": "医療法人和同会　山口リハビリテーション病院", "機関区分": 1, "都道府県コード": 35, "市区町村コード": 203, "所在地": "山口県山口市黒川　３３８０", "緯度": 34.132, "経度": 131.438389, "url": "https://www.iryou.teikyouseido.mhlw.go.jp/znk-web/juminkanja/S2430/initialize?prefCd=35&kikanCd=1355701730&kikanKbn=1", "url2": "https://www.yamariha.com/", "内容": "医療法人和同会　山口リハビリテーション病院【1:病院】【診療科目:内科_脳神経内科_循環器内科_整形外科_小児科_歯科_リハビリテーション科】【一般病床数:0療養病床数:180精神病床数:0感染症病床数:0合計病床数:180】山口県山口市黒川　３３８０" }, "geometry": { "type": "Point", "coordinates": [ 131.438389, 34.132 ] } },
{ "type": "Feature", "properties": { "ID": 3511355701860, "正式名称": "小郡まきはら病院", "機関区分": 1, "都道府県コード": 35, "市区町村コード": 203, "所在地": "山口県山口市小郡若草町３－４", "緯度": 34.086611, "経度": 131.394083, "url": "https://www.iryou.teikyouseido.mhlw.go.jp/znk-web/juminkanja/S2430/initialize?prefCd=35&kikanCd=1355701860&kikanKbn=1", "url2": "https://www.makihara.or.jp/", "内容": "小郡まきはら病院【1:病院】【診療科目:精神科】【一般病床数:0療養病床数:0精神病床数:114感染症病床数:0合計病床数:114】山口県山口市小郡若草町３－４" }, "geometry": { "type": "Point", "coordinates": [ 131.394083, 34.086611 ] } },
{ "type": "Feature", "properties": { "ID": 3511355701990, "正式名称": "林病院", "機関区分": 1, "都道府県コード": 35, "市区町村コード": 203, "所在地": "山口県山口市小郡下郷７５１－４", "緯度": 34.100417, "経度": 131.392889, "url": "https://www.iryou.teikyouseido.mhlw.go.jp/znk-web/juminkanja/S2430/initialize?prefCd=35&kikanCd=1355701990&kikanKbn=1", "url2": "http://www.hp-hayashi.or.jp", "内容": "林病院【1:病院】【診療科目:内科_脳神経内科_循環器内科_消化器内科_外科_消化器外科_肛門外科_整形外科_リハビリテーション科_放射線科】【一般病床数:20療養病床数:30精神病床数:0感染症病床数:0合計病床数:50】山口県山口市小郡下郷７５１－４" }, "geometry": { "type": "Point", "coordinates": [ 131.392889, 34.100417 ] } },
{ "type": "Feature", "properties": { "ID": 3511355702030, "正式名称": "社会福祉法人恩賜財団済生会支部山口県済生会湯田温泉病院", "機関区分": 1, "都道府県コード": 35, "市区町村コード": 203, "所在地": "山口県山口市朝倉町４番５５号", "緯度": 34.175972, "経度": 131.452889, "url": "https://www.iryou.teikyouseido.mhlw.go.jp/znk-web/juminkanja/S2430/initialize?prefCd=35&kikanCd=1355702030&kikanKbn=1", "url2": "http://saiseikai-care-y.jp/", "内容": "社会福祉法人恩賜財団済生会支部山口県済生会湯田温泉病院【1:病院】【診療科目:内科_外科_整形外科_リハビリテーション科_放射線科】【一般病床数:0療養病床数:142精神病床数:0感染症病床数:0合計病床数:142】山口県山口市朝倉町４番５５号" }, "geometry": { "type": "Point", "coordinates": [ 131.452889, 34.175972 ] } },
{ "type": "Feature", "properties": { "ID": 3511355800170, "正式名称": "地方独立行政法人　山口県立病院機構　山口県立こころの医療センター", "機関区分": 1, "都道府県コード": 35, "市区町村コード": 202, "所在地": "山口県宇部市大字東岐波４００４－２", "緯度": 33.975639, "経度": 131.343167, "url": "https://www.iryou.teikyouseido.mhlw.go.jp/znk-web/juminkanja/S2430/initialize?prefCd=35&kikanCd=1355800170&kikanKbn=1", "url2": "https://www.y-kokoro.jp/", "内容": "地方独立行政法人　山口県立病院機構　山口県立こころの医療センター【1:病院】【診療科目:精神科】【一般病床数:0療養病床数:0精神病床数:180感染症病床数:0合計病床数:180】山口県宇部市大字東岐波４００４－２" }, "geometry": { "type": "Point", "coordinates": [ 131.343167, 33.975639 ] } },
{ "type": "Feature", "properties": { "ID": 3511355800200, "正式名称": "医療法人厚仁会西宇部病院", "機関区分": 1, "都道府県コード": 35, "市区町村コード": 202, "所在地": "山口県宇部市大字際波２４８－１", "緯度": 34.010861, "経度": 131.219056, "url": "https://www.iryou.teikyouseido.mhlw.go.jp/znk-web/juminkanja/S2430/initialize?prefCd=35&kikanCd=1355800200&kikanKbn=1", "url2": null, "内容": "医療法人厚仁会西宇部病院【1:病院】【診療科目:内科_皮膚科_精神科_神経科_歯科_矯正歯科_小児歯科】【一般病床数:0療養病床数:0精神病床数:209感染症病床数:0合計病床数:209】山口県宇部市大字際波２４８－１" }, "geometry": { "type": "Point", "coordinates": [ 131.219056, 34.010861 ] } },
{ "type": "Feature", "properties": { "ID": 3511355800330, "正式名称": "医療法人和同会片倉病院", "機関区分": 1, "都道府県コード": 35, "市区町村コード": 202, "所在地": "山口県宇部市大字西岐波２２９－３", "緯度": 33.966499, "経度": 131.303323, "url": "https://www.iryou.teikyouseido.mhlw.go.jp/znk-web/juminkanja/S2430/initialize?prefCd=35&kikanCd=1355800330&kikanKbn=1", "url2": "http://www.wadokai.or.jp/katakura/", "内容": "医療法人和同会片倉病院【1:病院】【診療科目:精神科_神経科_歯科】【一般病床数:0療養病床数:0精神病床数:229感染症病床数:0合計病床数:229】山口県宇部市大字西岐波２２９－３" }, "geometry": { "type": "Point", "coordinates": [ 131.303323, 33.966499 ] } },
{ "type": "Feature", "properties": { "ID": 3511355800460, "正式名称": "独立行政法人国立病院機構　山口宇部医療センター", "機関区分": 1, "都道府県コード": 35, "市区町村コード": 202, "所在地": "山口県宇部市東岐波６８５番地", "緯度": 33.979028, "経度": 131.344583, "url": "https://www.iryou.teikyouseido.mhlw.go.jp/znk-web/juminkanja/S2430/initialize?prefCd=35&kikanCd=1355800460&kikanKbn=1", "url2": "http://www.yamaguchi-hosp.jp", "内容": "独立行政法人国立病院機構　山口宇部医療センター【1:病院】【診療科目:内科_呼吸器内科_循環器内科_消化器内科_神経内科_腫瘍内科_緩和ケア内科_外科_呼吸器外科_整形外科_乳腺・消化器外科_小児科_耳鼻いんこう科_皮膚科_精神科_歯科_リハビリテーション科_放射線科_病理診断科_臨床検査科】【一般病床数:335療養病床数:0精神病床数:0感染症病床数:0合計病床数:365】山口県宇部市東岐波６８５番地" }, "geometry": { "type": "Point", "coordinates": [ 131.344583, 33.979028 ] } },
{ "type": "Feature", "properties": { "ID": 3511355800590, "正式名称": "山口大学医学部附属病院", "機関区分": 1, "都道府県コード": 35, "市区町村コード": 202, "所在地": "山口県宇部市南小串１丁目１番１号", "緯度": 33.959389, "経度": 131.249417, "url": "https://www.iryou.teikyouseido.mhlw.go.jp/znk-web/juminkanja/S2430/initialize?prefCd=35&kikanCd=1355800590&kikanKbn=1", "url2": "http://www.yamaguchi-u.ac.jp/hosp/", "内容": "山口大学医学部附属病院【1:病院】【診療科目:内科_脳神経内科_呼吸器内科_循環器内科_消化器内科_外科_脳神経外科_呼吸器外科_心臓血管外科_消化器外科_整形外科_形成外科_小児科_小児外科_産婦人科_眼科_耳鼻いんこう科_皮膚科_泌尿器科_精神科_心療内科_歯科口腔外科_アレルギー科_リウマチ科_リハビリテーション科_放射線科_病理診断科_臨床検査科_救急科_麻酔科】【一般病床数:712療養病床数:0精神病床数:33感染症病床数:0合計病床数:745】山口県宇部市南小串１丁目１番１号" }, "geometry": { "type": "Point", "coordinates": [ 131.249417, 33.959389 ] } },
{ "type": "Feature", "properties": { "ID": 3511355800620, "正式名称": "社会医療法人いち樹会　尾中病院", "機関区分": 1, "都道府県コード": 35, "市区町村コード": 202, "所在地": "山口県宇部市寿町１－３－２８", "緯度": 33.953556, "経度": 131.248639, "url": "https://www.iryou.teikyouseido.mhlw.go.jp/znk-web/juminkanja/S2430/initialize?prefCd=35&kikanCd=1355800620&kikanKbn=1", "url2": "http://www.onaka.or.jp", "内容": "社会医療法人いち樹会　尾中病院【1:病院】【診療科目:内科_循環器内科_消化器内科_外科_脳神経外科_整形外科_皮膚科_リハビリテーション科】【一般病床数:60療養病床数:50精神病床数:0感染症病床数:0合計病床数:110】山口県宇部市寿町１－３－２８" }, "geometry": { "type": "Point", "coordinates": [ 131.248639, 33.953556 ] } },
{ "type": "Feature", "properties": { "ID": 3511355800750, "正式名称": "医療法人博愛会　宇部記念病院", "機関区分": 1, "都道府県コード": 35, "市区町村コード": 202, "所在地": "山口県宇部市上町１－４－１１", "緯度": 33.95875, "経度": 131.239833, "url": "https://www.iryou.teikyouseido.mhlw.go.jp/znk-web/juminkanja/S2430/initialize?prefCd=35&kikanCd=1355800750&kikanKbn=1", "url2": "http://hakuaikai-net.or.jp/", "内容": "医療法人博愛会　宇部記念病院【1:病院】【診療科目:内科_脳神経内科_呼吸器内科_循環器内科_消化器内科_外科_脳神経外科_消化器外科_整形外科_皮膚科_泌尿器科_歯科_リウマチ科_リハビリテーション科_放射線科_麻酔科】【一般病床数:128療養病床数:62精神病床数:0感染症病床数:0合計病床数:190】山口県宇部市上町１－４－１１" }, "geometry": { "type": "Point", "coordinates": [ 131.239833, 33.95875 ] } },
{ "type": "Feature", "properties": { "ID": 3511355800880, "正式名称": "医療法人社団宇部中央病院", "機関区分": 1, "都道府県コード": 35, "市区町村コード": 202, "所在地": "山口県宇部市大字西岐波７５０", "緯度": 33.966556, "経度": 131.330472, "url": "https://www.iryou.teikyouseido.mhlw.go.jp/znk-web/juminkanja/S2430/initialize?prefCd=35&kikanCd=1355800880&kikanKbn=1", "url2": "http:/www.ube-hp.or.jp", "内容": "医療法人社団宇部中央病院【1:病院】【診療科目:内科_糖尿病内科_脳神経内科_呼吸器内科_循環器内科_消化器内科_外科_脳外科_消化器外科_整形外科_産婦人科_眼科_耳鼻いんこう科_皮膚科_泌尿器科_歯科_歯科口腔外科_リハビリテーション科_放射線科_病理診断科_救急科_麻酔科】【一般病床数:374療養病床数:0精神病床数:0感染症病床数:0合計病床数:374】山口県宇部市大字西岐波７５０" }, "geometry": { "type": "Point", "coordinates": [ 131.330472, 33.966556 ] } },
{ "type": "Feature", "properties": { "ID": 3511355801050, "正式名称": "医療法人聖比留会　セントヒル病院", "機関区分": 1, "都道府県コード": 35, "市区町村コード": 202, "所在地": "山口県宇部市今村北３丁目７番１８号", "緯度": 33.963917, "経度": 131.304722, "url": "https://www.iryou.teikyouseido.mhlw.go.jp/znk-web/juminkanja/S2430/initialize?prefCd=35&kikanCd=1355801050&kikanKbn=1", "url2": "https://www.sthill-hp.or.jp/st/", "内容": "医療法人聖比留会　セントヒル病院【1:病院】【診療科目:内科_呼吸器内科_循環器内科_消化器内科_腎臓内科_人工透析内科_漢方内科_外科_脳神経外科_消化器外科_乳腺外科_ペインクリニック外科_整形外科_泌尿器科_リハビリテーション科_放射線診断科】【一般病床数:101療養病床数:83精神病床数:0感染症病床数:0合計病床数:184】山口県宇部市今村北３丁目７番１８号" }, "geometry": { "type": "Point", "coordinates": [ 131.304722, 33.963917 ] } },
{ "type": "Feature", "properties": { "ID": 3511355801180, "正式名称": "医療法人和同会　宇部リハビリテーション病院", "機関区分": 1, "都道府県コード": 35, "市区町村コード": 202, "所在地": "山口県宇部市大字西岐波２２９－３", "緯度": 33.967, "経度": 131.302444, "url": "https://www.iryou.teikyouseido.mhlw.go.jp/znk-web/juminkanja/S2430/initialize?prefCd=35&kikanCd=1355801180&kikanKbn=1", "url2": "http://www.ubereha.jp/", "内容": "医療法人和同会　宇部リハビリテーション病院【1:病院】【診療科目:内科_神経内科_小児科_眼科_耳鼻いんこう科_皮膚科_精神科_リハビリテーション科_放射線科】【一般病床数:0療養病床数:232精神病床数:0感染症病床数:0合計病床数:232】山口県宇部市大字西岐波２２９－３" }, "geometry": { "type": "Point", "coordinates": [ 131.302444, 33.967 ] } },
{ "type": "Feature", "properties": { "ID": 3511355801210, "正式名称": "医療法人社団　泉仁会　宇部第一病院", "機関区分": 1, "都道府県コード": 35, "市区町村コード": 202, "所在地": "山口県宇部市大字木田字中山田　４０番地２０", "緯度": 34.062417, "経度": 131.28125, "url": "https://www.iryou.teikyouseido.mhlw.go.jp/znk-web/juminkanja/S2430/initialize?prefCd=35&kikanCd=1355801210&kikanKbn=1", "url2": "http://www.senjinkai.jp", "内容": "医療法人社団　泉仁会　宇部第一病院【1:病院】【診療科目:内科_脳神経内科_消化器内科_神経内科_外科_脳神経外科_整形外科_精神科_歯科_リハビリテーション科_放射線科】【一般病床数:0療養病床数:160精神病床数:0感染症病床数:0合計病床数:160】山口県宇部市大字木田字中山田　４０番地２０" }, "geometry": { "type": "Point", "coordinates": [ 131.28125, 34.062417 ] } },
{ "type": "Feature", "properties": { "ID": 3511355801340, "正式名称": "医療法人社団清冨会サンポプラ病院", "機関区分": 1, "都道府県コード": 35, "市区町村コード": 202, "所在地": "山口県宇部市明治町一丁目７番７号", "緯度": 33.943694, "経度": 131.251833, "url": "https://www.iryou.teikyouseido.mhlw.go.jp/znk-web/juminkanja/S2430/initialize?prefCd=35&kikanCd=1355801340&kikanKbn=1", "url2": "http://www.sanpopura.jp/", "内容": "医療法人社団清冨会サンポプラ病院【1:病院】【診療科目:内科_循環器内科_消化器内科_腎臓内科】【一般病床数:0療養病床数:42精神病床数:0感染症病床数:0合計病床数:42】山口県宇部市明治町一丁目７番７号" }, "geometry": { "type": "Point", "coordinates": [ 131.251833, 33.943694 ] } },
{ "type": "Feature", "properties": { "ID": 3511355801470, "正式名称": "医療法人太白会　シーサイド病院", "機関区分": 1, "都道府県コード": 35, "市区町村コード": 202, "所在地": "山口県宇部市東岐波丸尾４３２２－１", "緯度": 33.966306, "経度": 131.351056, "url": "https://www.iryou.teikyouseido.mhlw.go.jp/znk-web/juminkanja/S2430/initialize?prefCd=35&kikanCd=1355801470&kikanKbn=1", "url2": "www.c-able.ne.jp/seaside/", "内容": "医療法人太白会　シーサイド病院【1:病院】【診療科目:内科_呼吸器内科_循環器内科_アレルギー科_リハビリテーション科_放射線科】【一般病床数:0療養病床数:155精神病床数:0感染症病床数:0合計病床数:155】山口県宇部市東岐波丸尾４３２２－１" }, "geometry": { "type": "Point", "coordinates": [ 131.351056, 33.966306 ] } },
{ "type": "Feature", "properties": { "ID": 3511355801760, "正式名称": "医療生活協同組合　健文会　宇部協立病院", "機関区分": 1, "都道府県コード": 35, "市区町村コード": 202, "所在地": "山口県宇部市五十目山町１６－２３", "緯度": 33.937583, "経度": 131.266444, "url": "https://www.iryou.teikyouseido.mhlw.go.jp/znk-web/juminkanja/S2430/initialize?prefCd=35&kikanCd=1355801760&kikanKbn=1", "url2": "http://www.mcoop-kenbun.jp/", "内容": "医療生活協同組合　健文会　宇部協立病院【1:病院】【診療科目:内科_糖尿病・内分泌内科_呼吸器内科_循環器内科_消化器内科_神経内科_総合診療科_外科_肛門外科_整形外科_精神科_リウマチ科_リハビリテーション科_放射線科】【一般病床数:105療養病床数:54精神病床数:0感染症病床数:0合計病床数:159】山口県宇部市五十目山町１６－２３" }, "geometry": { "type": "Point", "coordinates": [ 131.266444, 33.937583 ] } },
{ "type": "Feature", "properties": { "ID": 3511355801890, "正式名称": "医療法人（社団）心和会　小野田心和園", "機関区分": 1, "都道府県コード": 35, "市区町村コード": 216, "所在地": "山口県山陽小野田市丸河内９５９－２", "緯度": 33.980028, "経度": 131.188361, "url": "https://www.iryou.teikyouseido.mhlw.go.jp/znk-web/juminkanja/S2430/initialize?prefCd=35&kikanCd=1355801890&kikanKbn=1", "url2": "https://www.onoda-shinwaen.or.jp", "内容": "医療法人（社団）心和会　小野田心和園【1:病院】【診療科目:精神科】【一般病床数:0療養病床数:0精神病床数:124感染症病床数:0合計病床数:155】山口県山陽小野田市丸河内９５９－２" }, "geometry": { "type": "Point", "coordinates": [ 131.188361, 33.980028 ] } },
{ "type": "Feature", "properties": { "ID": 3511355801920, "正式名称": "独立行政法人労働者健康安全機構　山口労災病院", "機関区分": 1, "都道府県コード": 35, "市区町村コード": 216, "所在地": "山口県山陽小野田市大字小野田１３１５－４", "緯度": 33.986306, "経度": 131.184639, "url": "https://www.iryou.teikyouseido.mhlw.go.jp/znk-web/juminkanja/S2430/initialize?prefCd=35&kikanCd=1355801920&kikanKbn=1", "url2": "http://www.yamaguchih.johas.go.jp", "内容": "独立行政法人労働者健康安全機構　山口労災病院【1:病院】【診療科目:内科_循環器内科_消化器内科_外科_脳神経外科_消化器外科_整形外科_小児科_産婦人科_眼科_耳鼻いんこう科_皮膚科_泌尿器科_精神科_歯科口腔外科_リハビリテーション科_放射線科_救急科_麻酔科】【一般病床数:308療養病床数:0精神病床数:0感染症病床数:0合計病床数:308】山口県山陽小野田市大字小野田１３１５－４" }, "geometry": { "type": "Point", "coordinates": [ 131.184639, 33.986306 ] } },
{ "type": "Feature", "properties": { "ID": 3511355802060, "正式名称": "山陽小野田市民病院", "機関区分": 1, "都道府県コード": 35, "市区町村コード": 216, "所在地": "山口県山陽小野田市大字東高泊１８６３番地１", "緯度": 33.998444, "経度": 131.177861, "url": "https://www.iryou.teikyouseido.mhlw.go.jp/znk-web/juminkanja/S2430/initialize?prefCd=35&kikanCd=1355802060&kikanKbn=1", "url2": "https://sanyo-onoda-city-hosp.jp/", "内容": "山陽小野田市民病院【1:病院】【診療科目:内科_脳神経内科_外科_脳神経外科_整形外科_小児科_産婦人科_眼科_耳鼻いんこう科_皮膚科_泌尿器科_精神科_歯科口腔外科_リハビリテーション科_放射線科_麻酔科】【一般病床数:199療養病床数:0精神病床数:0感染症病床数:0合計病床数:199】山口県山陽小野田市大字東高泊１８６３番地１" }, "geometry": { "type": "Point", "coordinates": [ 131.177861, 33.998444 ] } },
{ "type": "Feature", "properties": { "ID": 3511355802190, "正式名称": "小野田赤十字病院", "機関区分": 1, "都道府県コード": 35, "市区町村コード": 216, "所在地": "山口県山陽小野田市大字小野田３７００番地", "緯度": 33.954583, "経度": 131.184472, "url": "https://www.iryou.teikyouseido.mhlw.go.jp/znk-web/juminkanja/S2430/initialize?prefCd=35&kikanCd=1355802190&kikanKbn=1", "url2": "http://www.onoda-redcross-hosp.jp", "内容": "小野田赤十字病院【1:病院】【診療科目:内科_脳神経内科_呼吸器内科_循環器内科_消化器内科_外科_整形外科_眼科_皮膚科_リハビリテーション科_麻酔科】【一般病床数:40療養病床数:6精神病床数:0感染症病床数:0合計病床数:46】山口県山陽小野田市大字小野田３７００番地" }, "geometry": { "type": "Point", "coordinates": [ 131.184472, 33.954583 ] } },
{ "type": "Feature", "properties": { "ID": 3511355802220, "正式名称": "医療法人社団長明会　長沢病院", "機関区分": 1, "都道府県コード": 35, "市区町村コード": 216, "所在地": "山口県山陽小野田市中央一丁目５番２６号", "緯度": 33.976111, "経度": 131.17775, "url": "https://www.iryou.teikyouseido.mhlw.go.jp/znk-web/juminkanja/S2430/initialize?prefCd=35&kikanCd=1355802220&kikanKbn=1", "url2": "https://www.nagasawa-hp.com", "内容": "医療法人社団長明会　長沢病院【1:病院】【診療科目:内科_循環器内科_胃腸内科_リハビリテーション科】【一般病床数:0療養病床数:60精神病床数:0感染症病床数:0合計病床数:60】山口県山陽小野田市中央一丁目５番２６号" }, "geometry": { "type": "Point", "coordinates": [ 131.17775, 33.976111 ] } },
{ "type": "Feature", "properties": { "ID": 3511355802480, "正式名称": "医療法人社団輝斉会　森田病院", "機関区分": 1, "都道府県コード": 35, "市区町村コード": 216, "所在地": "山口県山陽小野田市赤崎二丁目１０番１号", "緯度": 33.961917, "経度": 131.174056, "url": "https://www.iryou.teikyouseido.mhlw.go.jp/znk-web/juminkanja/S2430/initialize?prefCd=35&kikanCd=1355802480&kikanKbn=1", "url2": null, "内容": "医療法人社団輝斉会　森田病院【1:病院】【診療科目:内科_外科_整形外科_小児科_リハビリテーション科_放射線科_麻酔科】【一般病床数:0療養病床数:36精神病床数:0感染症病床数:0合計病床数:36】山口県山陽小野田市赤崎二丁目１０番１号" }, "geometry": { "type": "Point", "coordinates": [ 131.174056, 33.961917 ] } },
{ "type": "Feature", "properties": { "ID": 3511355802770, "正式名称": "医療法人聖比留会　厚南セントヒル病院", "機関区分": 1, "都道府県コード": 35, "市区町村コード": 202, "所在地": "山口県宇部市大字妻崎開作１０８番地", "緯度": 33.978444, "経度": 131.217083, "url": "https://www.iryou.teikyouseido.mhlw.go.jp/znk-web/juminkanja/S2430/initialize?prefCd=35&kikanCd=1355802770&kikanKbn=1", "url2": "http://www.sthill-hp.or.jp/k_st/", "内容": "医療法人聖比留会　厚南セントヒル病院【1:病院】【診療科目:内科_循環器内科_消化器内科_脳神経外科_泌尿器科_放射線科_放射線治療科】【一般病床数:40療養病床数:40精神病床数:0感染症病床数:0合計病床数:80】山口県宇部市大字妻崎開作１０８番地" }, "geometry": { "type": "Point", "coordinates": [ 131.217083, 33.978444 ] } },
{ "type": "Feature", "properties": { "ID": 3511355802930, "正式名称": "美祢市立美東病院", "機関区分": 1, "都道府県コード": 35, "市区町村コード": 213, "所在地": "山口県美祢市美東町大田３８００番地", "緯度": 34.220833, "経度": 131.339778, "url": "https://www.iryou.teikyouseido.mhlw.go.jp/znk-web/juminkanja/S2430/initialize?prefCd=35&kikanCd=1355802930&kikanKbn=1", "url2": "http://www.mine-city-hosp.jp/mitou/", "内容": "美祢市立美東病院【1:病院】【診療科目:内科_外科_整形外科_婦人科_眼科_耳鼻いんこう科_皮膚科_リハビリテーション科】【一般病床数:60療養病床数:40精神病床数:0感染症病床数:0合計病床数:100】山口県美祢市美東町大田３８００番地" }, "geometry": { "type": "Point", "coordinates": [ 131.339778, 34.220833 ] } },
{ "type": "Feature", "properties": { "ID": 3511355803070, "正式名称": "医療法人信和会　高嶺病院", "機関区分": 1, "都道府県コード": 35, "市区町村コード": 202, "所在地": "山口県宇部市大字善和１８７番地の２", "緯度": 34.008056, "経度": 131.285778, "url": "https://www.iryou.teikyouseido.mhlw.go.jp/znk-web/juminkanja/S2430/initialize?prefCd=35&kikanCd=1355803070&kikanKbn=1", "url2": "https://koryohp.com/", "内容": "医療法人信和会　高嶺病院【1:病院】【診療科目:内科_精神科_神経科_心療内科_歯科】【一般病床数:0療養病床数:0精神病床数:127感染症病床数:0合計病床数:127】山口県宇部市大字善和１８７番地の２" }, "geometry": { "type": "Point", "coordinates": [ 131.285778, 34.008056 ] } },
{ "type": "Feature", "properties": { "ID": 3511355803100, "正式名称": "医療法人仁心会　宇部仁心会病院", "機関区分": 1, "都道府県コード": 35, "市区町村コード": 202, "所在地": "山口県宇部市寿町三丁目２番２６号", "緯度": 33.951778, "経度": 131.253139, "url": "https://www.iryou.teikyouseido.mhlw.go.jp/znk-web/juminkanja/S2430/initialize?prefCd=35&kikanCd=1355803100&kikanKbn=1", "url2": "http://www.jinsinkai.or.jp", "内容": "医療法人仁心会　宇部仁心会病院【1:病院】【診療科目:内科_循環器内科_心臓内科_腎臓内科】【一般病床数:22療養病床数:25精神病床数:0感染症病床数:0合計病床数:47】山口県宇部市寿町三丁目２番２６号" }, "geometry": { "type": "Point", "coordinates": [ 131.253139, 33.951778 ] } },
{ "type": "Feature", "properties": { "ID": 3511355803230, "正式名称": "医療法人　和同会　宇部西リハビリテーション病院", "機関区分": 1, "都道府県コード": 35, "市区町村コード": 202, "所在地": "山口県宇部市大字沖ノ旦７９７番地", "緯度": 33.996333, "経度": 131.224472, "url": "https://www.iryou.teikyouseido.mhlw.go.jp/znk-web/juminkanja/S2430/initialize?prefCd=35&kikanCd=1355803230&kikanKbn=1", "url2": "https://www.ubenishireha.jp", "内容": "医療法人　和同会　宇部西リハビリテーション病院【1:病院】【診療科目:内科_循環器内科_消化器内科_神経内科_脳神経外科_リハビリテーション科_放射線科】【一般病床数:0療養病床数:250精神病床数:0感染症病床数:0合計病床数:250】山口県宇部市大字沖ノ旦７９７番地" }, "geometry": { "type": "Point", "coordinates": [ 131.224472, 33.996333 ] } },
{ "type": "Feature", "properties": { "ID": 3511355900100, "正式名称": "医療法人扶老会　扶老会病院", "機関区分": 1, "都道府県コード": 35, "市区町村コード": 202, "所在地": "山口県宇部市船木８３３番地", "緯度": 34.048806, "経度": 131.192, "url": "https://www.iryou.teikyouseido.mhlw.go.jp/znk-web/juminkanja/S2430/initialize?prefCd=35&kikanCd=1355900100&kikanKbn=1", "url2": "http://www.furoukai.jp", "内容": "医療法人扶老会　扶老会病院【1:病院】【診療科目:内科_神経内科_精神科_リハビリテーション科】【一般病床数:0療養病床数:0精神病床数:274感染症病床数:0合計病床数:274】山口県宇部市船木８３３番地" }, "geometry": { "type": "Point", "coordinates": [ 131.192, 34.048806 ] } },
{ "type": "Feature", "properties": { "ID": 3511356000140, "正式名称": "下関市立豊田中央病院", "機関区分": 1, "都道府県コード": 35, "市区町村コード": 201, "所在地": "山口県下関市豊田町大字矢田３６５番地１", "緯度": 34.200778, "経度": 131.072278, "url": "https://www.iryou.teikyouseido.mhlw.go.jp/znk-web/juminkanja/S2430/initialize?prefCd=35&kikanCd=1356000140&kikanKbn=1", "url2": "https://www.city.shimonoseki.lg.jp/site/toyotabyoin/", "内容": "下関市立豊田中央病院【1:病院】【診療科目:内科_外科_脳神経外科_整形外科_小児科_眼科_皮膚科_泌尿器科_リハビリテーション科】【一般病床数:60療養病床数:11精神病床数:0感染症病床数:0合計病床数:71】山口県下関市豊田町大字矢田３６５番地１" }, "geometry": { "type": "Point", "coordinates": [ 131.072278, 34.200778 ] } },
{ "type": "Feature", "properties": { "ID": 3511356100590, "正式名称": "山口県済生会豊浦病院", "機関区分": 1, "都道府県コード": 35, "市区町村コード": 201, "所在地": "山口県下関市豊浦町小串１０００７番３", "緯度": 34.169556, "経度": 130.926472, "url": "https://www.iryou.teikyouseido.mhlw.go.jp/znk-web/juminkanja/S2430/initialize?prefCd=35&kikanCd=1356100590&kikanKbn=1", "url2": "http://www.toyoura-saiseikai.jp/", "内容": "山口県済生会豊浦病院【1:病院】【診療科目:内科_循環器内科_消化器内科_神経内科_外科_脳神経外科_整形外科_小児科_産婦人科_眼科_耳鼻いんこう科_皮膚科_泌尿器科_心療内科_リハビリテーション科_麻酔科】【一般病床数:189療養病床数:86精神病床数:0感染症病床数:0合計病床数:275】山口県下関市豊浦町小串１０００７番３" }, "geometry": { "type": "Point", "coordinates": [ 130.926472, 34.169556 ] } },
{ "type": "Feature", "properties": { "ID": 3511356100620, "正式名称": "医療法人　光の会　重本病院", "機関区分": 1, "都道府県コード": 35, "市区町村コード": 201, "所在地": "山口県下関市豊浦町大字黒井１００９７番地の５０", "緯度": 34.116806, "経度": 130.929778, "url": "https://www.iryou.teikyouseido.mhlw.go.jp/znk-web/juminkanja/S2430/initialize?prefCd=35&kikanCd=1356100620&kikanKbn=1", "url2": "http://www.shigemoto.or.jp", "内容": "医療法人　光の会　重本病院【1:病院】【診療科目:内科_精神科_神経科_心療内科】【一般病床数:0療養病床数:0精神病床数:214感染症病床数:0合計病床数:214】山口県下関市豊浦町大字黒井１００９７番地の５０" }, "geometry": { "type": "Point", "coordinates": [ 130.929778, 34.116806 ] } },
{ "type": "Feature", "properties": { "ID": 3511356200100, "正式名称": "医療法人社団豊美会　田代台病院", "機関区分": 1, "都道府県コード": 35, "市区町村コード": 213, "所在地": "山口県美祢市美東町真名２９４１", "緯度": 34.175167, "経度": 131.330417, "url": "https://www.iryou.teikyouseido.mhlw.go.jp/znk-web/juminkanja/S2430/initialize?prefCd=35&kikanCd=1356200100&kikanKbn=1", "url2": "tashirodai-hospital.or.jp", "内容": "医療法人社団豊美会　田代台病院【1:病院】【診療科目:内科_神経内科_精神科】【一般病床数:0療養病床数:0精神病床数:247感染症病床数:0合計病床数:247】山口県美祢市美東町真名２９４１" }, "geometry": { "type": "Point", "coordinates": [ 131.330417, 34.175167 ] } },
{ "type": "Feature", "properties": { "ID": 3511356200360, "正式名称": "美祢市立病院", "機関区分": 1, "都道府県コード": 35, "市区町村コード": 213, "所在地": "山口県美祢市大嶺町東分１１３１３－１", "緯度": 34.171778, "経度": 131.199889, "url": "https://www.iryou.teikyouseido.mhlw.go.jp/znk-web/juminkanja/S2430/initialize?prefCd=35&kikanCd=1356200360&kikanKbn=1", "url2": "http://www.mine-city-hosp.jp/mineshiritsu/", "内容": "美祢市立病院【1:病院】【診療科目:内科_外科_脳神経外科_整形外科_小児科_眼科_耳鼻いんこう科_皮膚科_泌尿器科_精神科_リハビリテーション科】【一般病床数:75療養病床数:40精神病床数:0感染症病床数:0合計病床数:115】山口県美祢市大嶺町東分１１３１３－１" }, "geometry": { "type": "Point", "coordinates": [ 131.199889, 34.171778 ] } },
{ "type": "Feature", "properties": { "ID": 3511356300130, "正式名称": "医療法人生山会斎木病院", "機関区分": 1, "都道府県コード": 35, "市区町村コード": 211, "所在地": "山口県長門市東深川西新開町１３４", "緯度": 34.388333, "経度": 131.196667, "url": "https://www.iryou.teikyouseido.mhlw.go.jp/znk-web/juminkanja/S2430/initialize?prefCd=35&kikanCd=1356300130&kikanKbn=1", "url2": "www.shouzankai-saiki.com/", "内容": "医療法人生山会斎木病院【1:病院】【診療科目:内科_血液内科_糖尿病内科_循環器内科_消化器内科_神経内科_外科_消化器外科_整形外科_婦人科_泌尿器科_精神科_リウマチ科】【一般病床数:46療養病床数:37精神病床数:0感染症病床数:0合計病床数:83】山口県長門市東深川西新開町１３４" }, "geometry": { "type": "Point", "coordinates": [ 131.196667, 34.388333 ] } },
{ "type": "Feature", "properties": { "ID": 3511356300260, "正式名称": "山口県厚生農業協同組合連合会長門総合病院", "機関区分": 1, "都道府県コード": 35, "市区町村コード": 211, "所在地": "山口県長門市東深川８５", "緯度": 34.374056, "経度": 131.195583, "url": "https://www.iryou.teikyouseido.mhlw.go.jp/znk-web/juminkanja/S2430/initialize?prefCd=35&kikanCd=1356300260&kikanKbn=1", "url2": "https://www.nagato-hp.jp/", "内容": "山口県厚生農業協同組合連合会長門総合病院【1:病院】【診療科目:内科_脳神経内科_循環器内科_外科_脳神経外科_消化器外科_整形外科_小児科_産婦人科_眼科_耳鼻いんこう科_皮膚科_泌尿器科_リウマチ科_リハビリテーション科_放射線科_病理診断科_麻酔科】【一般病床数:199療養病床数:53精神病床数:0感染症病床数:8合計病床数:260】山口県長門市東深川８５" }, "geometry": { "type": "Point", "coordinates": [ 131.195583, 34.374056 ] } },
{ "type": "Feature", "properties": { "ID": 3511356300420, "正式名称": "医療法人社団成蹊会　岡田病院", "機関区分": 1, "都道府県コード": 35, "市区町村コード": 211, "所在地": "山口県長門市東深川８８８番地", "緯度": 34.376694, "経度": 131.186167, "url": "https://www.iryou.teikyouseido.mhlw.go.jp/znk-web/juminkanja/S2430/initialize?prefCd=35&kikanCd=1356300420&kikanKbn=1", "url2": "http://seikeikai-okada.or.jp/indexhtml", "内容": "医療法人社団成蹊会　岡田病院【1:病院】【診療科目:内科_循環器内科_消化器内科_神経内科_外科_脳神経外科_肛門外科_整形外科_皮膚科_泌尿器科_リウマチ科_リハビリテーション科_放射線科_麻酔科】【一般病床数:83療養病床数:38精神病床数:0感染症病床数:0合計病床数:121】山口県長門市東深川８８８番地" }, "geometry": { "type": "Point", "coordinates": [ 131.186167, 34.376694 ] } },
{ "type": "Feature", "properties": { "ID": 3511356300550, "正式名称": "医療法人杏祐会　三隅病院", "機関区分": 1, "都道府県コード": 35, "市区町村コード": 211, "所在地": "山口県長門市三隅中３２４２", "緯度": 34.370528, "経度": 131.257917, "url": "https://www.iryou.teikyouseido.mhlw.go.jp/znk-web/juminkanja/S2430/initialize?prefCd=35&kikanCd=1356300550&kikanKbn=1", "url2": "http://r.goope.jp/misumihp", "内容": "医療法人杏祐会　三隅病院【1:病院】【診療科目:内科_精神科_神経科_歯科】【一般病床数:0療養病床数:0精神病床数:180感染症病床数:0合計病床数:180】山口県長門市三隅中３２４２" }, "geometry": { "type": "Point", "coordinates": [ 131.257917, 34.370528 ] } },
{ "type": "Feature", "properties": { "ID": 3511356300680, "正式名称": "医療法人社団　　福寿会　福永病院", "機関区分": 1, "都道府県コード": 35, "市区町村コード": 211, "所在地": "山口県長門市日置中２４９０番地", "緯度": 34.381, "経度": 131.105889, "url": "https://www.iryou.teikyouseido.mhlw.go.jp/znk-web/juminkanja/S2430/initialize?prefCd=35&kikanCd=1356300680&kikanKbn=1", "url2": "http://nagato-fukujyukai.or.jp/", "内容": "医療法人社団　　福寿会　福永病院【1:病院】【診療科目:内科_精神科_心療内科】【一般病床数:0療養病床数:0精神病床数:138感染症病床数:0合計病床数:138】山口県長門市日置中２４９０番地" }, "geometry": { "type": "Point", "coordinates": [ 131.105889, 34.381 ] } },
{ "type": "Feature", "properties": { "ID": 3511356400450, "正式名称": "玉木病院", "機関区分": 1, "都道府県コード": 35, "市区町村コード": 204, "所在地": "山口県萩市瓦町１", "緯度": 34.411667, "経度": 131.396028, "url": "https://www.iryou.teikyouseido.mhlw.go.jp/znk-web/juminkanja/S2430/initialize?prefCd=35&kikanCd=1356400450&kikanKbn=1", "url2": "http//:www.tamaki-hp.jp", "内容": "玉木病院【1:病院】【診療科目:内科_循環器内科_消化器内科_外科_脳神経外科_肛門外科_整形外科_小児科_皮膚科_泌尿器科_リハビリテーション科_放射線科】【一般病床数:40療養病床数:111精神病床数:0感染症病床数:0合計病床数:151】山口県萩市瓦町１" }, "geometry": { "type": "Point", "coordinates": [ 131.396028, 34.411667 ] } },
{ "type": "Feature", "properties": { "ID": 3511356400740, "正式名称": "医療法人社団　慈生会　萩慈生病院", "機関区分": 1, "都道府県コード": 35, "市区町村コード": 204, "所在地": "山口県萩市大字山田４１４７－１", "緯度": 34.399944, "経度": 131.381, "url": "https://www.iryou.teikyouseido.mhlw.go.jp/znk-web/juminkanja/S2430/initialize?prefCd=35&kikanCd=1356400740&kikanKbn=1", "url2": "http://hagi-jiseikai.or.jp/", "内容": "医療法人社団　慈生会　萩慈生病院【1:病院】【診療科目:内科_神経内科_リハビリテーション科】【一般病床数:0療養病床数:144精神病床数:0感染症病床数:0合計病床数:144】山口県萩市大字山田４１４７－１" }, "geometry": { "type": "Point", "coordinates": [ 131.381, 34.399944 ] } },
{ "type": "Feature", "properties": { "ID": 3511356400870, "正式名称": "萩むらた病院", "機関区分": 1, "都道府県コード": 35, "市区町村コード": 204, "所在地": "山口県萩市大字今古萩町字今古萩町３０番地の１", "緯度": 34.416722, "経度": 131.401583, "url": "https://www.iryou.teikyouseido.mhlw.go.jp/znk-web/juminkanja/S2430/initialize?prefCd=35&kikanCd=1356400870&kikanKbn=1", "url2": "www.hagi-murata.com", "内容": "萩むらた病院【1:病院】【診療科目:内科_循環器内科_外科_胃腸外科_肛門外科_整形外科_泌尿器科_人工透析_リウマチ科_リハビリテーション科】【一般病床数:16療養病床数:60精神病床数:0感染症病床数:0合計病床数:76】山口県萩市大字今古萩町字今古萩町３０番地の１" }, "geometry": { "type": "Point", "coordinates": [ 131.401583, 34.416722 ] } },
{ "type": "Feature", "properties": { "ID": 3511356400900, "正式名称": "医療法人医誠会　都志見病院", "機関区分": 1, "都道府県コード": 35, "市区町村コード": 204, "所在地": "山口県萩市大字江向４１３番地１", "緯度": 34.406528, "経度": 131.401139, "url": "https://www.iryou.teikyouseido.mhlw.go.jp/znk-web/juminkanja/S2430/initialize?prefCd=35&kikanCd=1356400900&kikanKbn=1", "url2": "www.tsushimi.jp", "内容": "医療法人医誠会　都志見病院【1:病院】【診療科目:内科_脳神経内科_循環器内科_消化器内科_外科_脳神経外科_呼吸器外科_心臓血管外科_消化器外科_整形外科_形成外科_眼科_耳鼻いんこう科_皮膚科_泌尿器科_リウマチ科_リハビリテーション科_放射線科_麻酔科】【一般病床数:175療養病床数:59精神病床数:0感染症病床数:0合計病床数:234】山口県萩市大字江向４１３番地１" }, "geometry": { "type": "Point", "coordinates": [ 131.401139, 34.406528 ] } },
{ "type": "Feature", "properties": { "ID": 3511356401040, "正式名称": "萩市民病院", "機関区分": 1, "都道府県コード": 35, "市区町村コード": 204, "所在地": "山口県萩市大字椿３４６０番地３", "緯度": 34.396833, "経度": 131.394139, "url": "https://www.iryou.teikyouseido.mhlw.go.jp/znk-web/juminkanja/S2430/initialize?prefCd=35&kikanCd=1356401040&kikanKbn=1", "url2": "http://hagicvhp.jp/", "内容": "萩市民病院【1:病院】【診療科目:内科_呼吸器内科_循環器内科_消化器内科_神経内科_外科_整形外科_小児科_リハビリテーション科_放射線科】【一般病床数:100療養病床数:0精神病床数:0感染症病床数:0合計病床数:100】山口県萩市大字椿３４６０番地３" }, "geometry": { "type": "Point", "coordinates": [ 131.394139, 34.396833 ] } },
{ "type": "Feature", "properties": { "ID": 3511356401170, "正式名称": "医療法人　全眞会　　全眞会病院", "機関区分": 1, "都道府県コード": 35, "市区町村コード": 204, "所在地": "山口県萩市山田西沖田４８０７－３", "緯度": 34.405694, "経度": 131.383167, "url": "https://www.iryou.teikyouseido.mhlw.go.jp/znk-web/juminkanja/S2430/initialize?prefCd=35&kikanCd=1356401170&kikanKbn=1", "url2": "https://zenshinkai.sakura.ne.jp/", "内容": "医療法人　全眞会　　全眞会病院【1:病院】【診療科目:内科_呼吸器内科_循環器内科_消化器内科_リハビリテーション科_放射線科】【一般病床数:0療養病床数:54精神病床数:0感染症病床数:0合計病床数:54】山口県萩市山田西沖田４８０７－３" }, "geometry": { "type": "Point", "coordinates": [ 131.383167, 34.405694 ] } },
{ "type": "Feature", "properties": { "ID": 3511356401200, "正式名称": "医療法人水の木会　萩病院", "機関区分": 1, "都道府県コード": 35, "市区町村コード": 204, "所在地": "山口県萩市大字堀内２７８番地", "緯度": 34.411083, "経度": 131.390444, "url": "https://www.iryou.teikyouseido.mhlw.go.jp/znk-web/juminkanja/S2430/initialize?prefCd=35&kikanCd=1356401200&kikanKbn=1", "url2": "http://www.mizunoki.jp/hagi_area/hagibyou/", "内容": "医療法人水の木会　萩病院【1:病院】【診療科目:内科_神経内科_精神科_心療内科】【一般病床数:0療養病床数:0精神病床数:186感染症病床数:0合計病床数:186】山口県萩市大字堀内２７８番地" }, "geometry": { "type": "Point", "coordinates": [ 131.390444, 34.411083 ] } }
]
}
