{
"type": "FeatureCollection",
"name": "geo_35_幼稚園",
"crs": { "type": "name", "properties": { "name": "urn:ogc:def:crs:EPSG::6668" } },
"features": [
{ "type": "Feature", "properties": { "P29_001": "35203", "P29_002": "A135110000012", "P29_003": "16011", "P29_004": "山口大学教育学部附属幼稚園", "P29_005": "山口県山口市白石3-1-2", "P29_006": "1", "P29_007": "0", "P29_008": "00", "P29_009": null }, "geometry": { "type": "Point", "coordinates": [ 131.469958023126992, 34.180917664274332 ] } },
{ "type": "Feature", "properties": { "P29_001": "35201", "P29_002": "A135210000010", "P29_003": "16011", "P29_004": "下関市立第一幼稚園", "P29_005": "山口県下関市貴船町3-11-12", "P29_006": "3", "P29_007": "0", "P29_008": "00", "P29_009": null }, "geometry": { "type": "Point", "coordinates": [ 130.940517886808692, 33.968627944649803 ] } },
{ "type": "Feature", "properties": { "P29_001": "35201", "P29_002": "A135210000038", "P29_003": "16011", "P29_004": "下関市立小月幼稚園", "P29_005": "山口県下関市小月宮の町15-20", "P29_006": "3", "P29_007": "0", "P29_008": "00", "P29_009": null }, "geometry": { "type": "Point", "coordinates": [ 131.041421080114901, 34.07187870302441 ] } },
{ "type": "Feature", "properties": { "P29_001": "35201", "P29_002": "A135210000056", "P29_003": "16011", "P29_004": "下関市立清末幼稚園", "P29_005": "山口県下関市清末西町1-6-1", "P29_006": "3", "P29_007": "0", "P29_008": "00", "P29_009": null }, "geometry": { "type": "Point", "coordinates": [ 131.020026438228399, 34.063747873077688 ] } },
{ "type": "Feature", "properties": { "P29_001": "35201", "P29_002": "A135210000074", "P29_003": "16011", "P29_004": "下関市立川中幼稚園", "P29_005": "山口県下関市伊倉本町21-1", "P29_006": "3", "P29_007": "0", "P29_008": "00", "P29_009": null }, "geometry": { "type": "Point", "coordinates": [ 130.934184328960356, 34.004007738177336 ] } },
{ "type": "Feature", "properties": { "P29_001": "35203", "P29_002": "A135210000092", "P29_003": "16011", "P29_004": "山口市立小鯖幼稚園", "P29_005": "山口県山口市下小鯖2519", "P29_006": "3", "P29_007": "0", "P29_008": "00", "P29_009": null }, "geometry": { "type": "Point", "coordinates": [ 131.524477168000146, 34.127312937631956 ] } },
{ "type": "Feature", "properties": { "P29_001": "35203", "P29_002": "A135210000109", "P29_003": "16011", "P29_004": "山口市立仁保幼稚園", "P29_005": "山口県山口市仁保中郷82", "P29_006": "3", "P29_007": "0", "P29_008": "00", "P29_009": null }, "geometry": { "type": "Point", "coordinates": [ 131.555634348125722, 34.213305600208074 ] } },
{ "type": "Feature", "properties": { "P29_001": "35203", "P29_002": "A135210000118", "P29_003": "16011", "P29_004": "山口市立吉敷幼稚園", "P29_005": "山口県山口市吉敷佐畑4-6-1", "P29_006": "3", "P29_007": "0", "P29_008": "00", "P29_009": null }, "geometry": { "type": "Point", "coordinates": [ 131.429607002371853, 34.168350995657654 ] } },
{ "type": "Feature", "properties": { "P29_001": "35203", "P29_002": "A135210000136", "P29_003": "16011", "P29_004": "山口市立平川幼稚園", "P29_005": "山口県山口市黒川1210-1", "P29_006": "3", "P29_007": "0", "P29_008": "00", "P29_009": null }, "geometry": { "type": "Point", "coordinates": [ 131.456984281045237, 34.14157692150178 ] } },
{ "type": "Feature", "properties": { "P29_001": "35203", "P29_002": "A135210000145", "P29_003": "16011", "P29_004": "山口市立宮野幼稚園", "P29_005": "山口県山口市宮野下3000-1", "P29_006": "3", "P29_007": "0", "P29_008": "00", "P29_009": null }, "geometry": { "type": "Point", "coordinates": [ 131.505173430041282, 34.199196266192907 ] } },
{ "type": "Feature", "properties": { "P29_001": "35203", "P29_002": "A135210000163", "P29_003": "16011", "P29_004": "山口市立大内幼稚園", "P29_005": "山口県山口市大内矢田北1-11-24", "P29_006": "3", "P29_007": "0", "P29_008": "00", "P29_009": null }, "geometry": { "type": "Point", "coordinates": [ 131.501286727358234, 34.158648310045983 ] } },
{ "type": "Feature", "properties": { "P29_001": "35215", "P29_002": "A135210000172", "P29_003": "16011", "P29_004": "周南市立桜田幼稚園", "P29_005": "山口県周南市大字戸田2533-1", "P29_006": "3", "P29_007": "0", "P29_008": "00", "P29_009": null }, "geometry": { "type": "Point", "coordinates": [ 131.689087709653705, 34.078193529869672 ] } },
{ "type": "Feature", "properties": { "P29_001": "35215", "P29_002": "A135210000181", "P29_003": "16011", "P29_004": "周南市立菊川幼稚園", "P29_005": "山口県周南市大字下上88-1", "P29_006": "3", "P29_007": "0", "P29_008": "00", "P29_009": null }, "geometry": { "type": "Point", "coordinates": [ 131.784241995916631, 34.08863199998693 ] } },
{ "type": "Feature", "properties": { "P29_001": "35215", "P29_002": "A135210000190", "P29_003": "16011", "P29_004": "周南市立須々万幼稚園", "P29_005": "山口県周南市大字須々万本郷710", "P29_006": "3", "P29_007": "0", "P29_008": "00", "P29_009": null }, "geometry": { "type": "Point", "coordinates": [ 131.870118750404373, 34.120308748953384 ] } },
{ "type": "Feature", "properties": { "P29_001": "35210", "P29_002": "A135210000207", "P29_003": "16011", "P29_004": "光市立やよい幼稚園", "P29_005": "山口県光市三井5-9-2", "P29_006": "3", "P29_007": "0", "P29_008": "00", "P29_009": null }, "geometry": { "type": "Point", "coordinates": [ 131.952857754022148, 33.990246258931215 ] } },
{ "type": "Feature", "properties": { "P29_001": "35208", "P29_002": "A135210000216", "P29_003": "16011", "P29_004": "岩国市立玖珂幼稚園", "P29_005": "山口県岩国市玖珂町539", "P29_006": "3", "P29_007": "0", "P29_008": "00", "P29_009": null }, "geometry": { "type": "Point", "coordinates": [ 132.081777256850188, 34.09588949817585 ] } },
{ "type": "Feature", "properties": { "P29_001": "35341", "P29_002": "A135210000225", "P29_003": "16011", "P29_004": "上関町立室津幼稚園", "P29_005": "山口県熊毛郡上関町室津924", "P29_006": "3", "P29_007": "0", "P29_008": "00", "P29_009": null }, "geometry": { "type": "Point", "coordinates": [ 132.117117000543431, 33.832652996272813 ] } },
{ "type": "Feature", "properties": { "P29_001": "35344", "P29_002": "A135210000234", "P29_003": "16011", "P29_004": "平生町立平生幼稚園", "P29_005": "山口県熊毛郡平生町大字大野南92-2", "P29_006": "3", "P29_007": "0", "P29_008": "00", "P29_009": null }, "geometry": { "type": "Point", "coordinates": [ 132.076751652609232, 33.93312437218902 ] } },
{ "type": "Feature", "properties": { "P29_001": "35215", "P29_002": "A135210000243", "P29_003": "16011", "P29_004": "周南市立八代幼稚園", "P29_005": "山口県周南市大字八代10877-3", "P29_006": "3", "P29_007": "0", "P29_008": "00", "P29_009": null }, "geometry": { "type": "Point", "coordinates": [ 131.937041188446642, 34.087794537670256 ] } },
{ "type": "Feature", "properties": { "P29_001": "35215", "P29_002": "A135210000252", "P29_003": "16011", "P29_004": "周南市立富田東幼稚園", "P29_005": "山口県周南市桶川町2-2", "P29_006": "3", "P29_007": "0", "P29_008": "00", "P29_009": null }, "geometry": { "type": "Point", "coordinates": [ 131.774979999305032, 34.070957997632725 ] } },
{ "type": "Feature", "properties": { "P29_001": "35216", "P29_002": "A135210000270", "P29_003": "16011", "P29_004": "山陽小野田市立埴生幼稚園", "P29_005": "山口県山陽小野田市大字埴生972-1", "P29_006": "3", "P29_007": "0", "P29_008": "00", "P29_009": null }, "geometry": { "type": "Point", "coordinates": [ 131.086128995725403, 34.040241004327555 ] } },
{ "type": "Feature", "properties": { "P29_001": "35201", "P29_002": "A135210000289", "P29_003": "16011", "P29_004": "下関市立豊東幼稚園", "P29_005": "山口県下関市菊川町大字上大野10020-1", "P29_006": "3", "P29_007": "0", "P29_008": "00", "P29_009": null }, "geometry": { "type": "Point", "coordinates": [ 131.05016798843829, 34.114967451274026 ] } },
{ "type": "Feature", "properties": { "P29_001": "35211", "P29_002": "A135210000298", "P29_003": "16011", "P29_004": "長門市立宗頭幼稚園", "P29_005": "山口県長門市三隅上3225-1", "P29_006": "3", "P29_007": "0", "P29_008": "00", "P29_009": null }, "geometry": { "type": "Point", "coordinates": [ 131.299032759143671, 34.350460723379427 ] } },
{ "type": "Feature", "properties": { "P29_001": "35215", "P29_002": "A135210000314", "P29_003": "16011", "P29_004": "周南市立大津島幼稚園", "P29_005": "山口県周南市大字大津島1964-1", "P29_006": "3", "P29_007": "0", "P29_008": "00", "P29_009": null }, "geometry": { "type": "Point", "coordinates": [ 131.718805002226333, 33.991132999661694 ] } },
{ "type": "Feature", "properties": { "P29_001": "35201", "P29_002": "A135210000323", "P29_003": "16011", "P29_004": "下関市立内日幼稚園", "P29_005": "山口県下関市大字内日下字坂本1031", "P29_006": "3", "P29_007": "0", "P29_008": "00", "P29_009": null }, "geometry": { "type": "Point", "coordinates": [ 130.970563998152045, 34.101060003052147 ] } },
{ "type": "Feature", "properties": { "P29_001": "35201", "P29_002": "A135310000018", "P29_003": "16011", "P29_004": "下関短期大学付属第一幼稚園", "P29_005": "山口県下関市桜山町1-1", "P29_006": "4", "P29_007": "0", "P29_008": "00", "P29_009": null }, "geometry": { "type": "Point", "coordinates": [ 130.92198582831125, 33.961330436407607 ] } },
{ "type": "Feature", "properties": { "P29_001": "35201", "P29_002": "A135310000027", "P29_003": "16011", "P29_004": "梅光学院幼稚園", "P29_005": "山口県下関市大学町3-10-30", "P29_006": "4", "P29_007": "0", "P29_008": "00", "P29_009": null }, "geometry": { "type": "Point", "coordinates": [ 130.935612003396926, 33.991507000495048 ] } },
{ "type": "Feature", "properties": { "P29_001": "35201", "P29_002": "A135310000036", "P29_003": "16011", "P29_004": "下関天使幼稚園", "P29_005": "山口県下関市細江町1-9-15", "P29_006": "4", "P29_007": "0", "P29_008": "00", "P29_009": null }, "geometry": { "type": "Point", "coordinates": [ 130.930636837740309, 33.953100590271831 ] } },
{ "type": "Feature", "properties": { "P29_001": "35201", "P29_002": "A135310000045", "P29_003": "16011", "P29_004": "暁の星幼稚園", "P29_005": "山口県下関市上田中町2-10-14", "P29_006": "4", "P29_007": "0", "P29_008": "00", "P29_009": null }, "geometry": { "type": "Point", "coordinates": [ 130.940648286111468, 33.963541482972722 ] } },
{ "type": "Feature", "properties": { "P29_001": "35201", "P29_002": "A135310000054", "P29_003": "16011", "P29_004": "めぐみ幼稚園", "P29_005": "山口県下関市上田中町2-13-26", "P29_006": "4", "P29_007": "0", "P29_008": "00", "P29_009": null }, "geometry": { "type": "Point", "coordinates": [ 130.941007836064159, 33.964769746706025 ] } },
{ "type": "Feature", "properties": { "P29_001": "35201", "P29_002": "A135310000063", "P29_003": "16011", "P29_004": "海の星幼稚園", "P29_005": "山口県下関市長府金屋浜町8-8", "P29_006": "4", "P29_007": "0", "P29_008": "00", "P29_009": null }, "geometry": { "type": "Point", "coordinates": [ 130.991436994342592, 34.000936996880711 ] } },
{ "type": "Feature", "properties": { "P29_001": "35201", "P29_002": "A135310000072", "P29_003": "16011", "P29_004": "泉幼稚園", "P29_005": "山口県下関市山の田南町13-12", "P29_006": "4", "P29_007": "0", "P29_008": "00", "P29_009": null }, "geometry": { "type": "Point", "coordinates": [ 130.925326261661837, 33.986019332829578 ] } },
{ "type": "Feature", "properties": { "P29_001": "35201", "P29_002": "A135310000081", "P29_003": "16011", "P29_004": "もみじ幼稚園", "P29_005": "山口県下関市長府侍町1-10-1", "P29_006": "4", "P29_007": "0", "P29_008": "00", "P29_009": null }, "geometry": { "type": "Point", "coordinates": [ 130.98721500233907, 33.993481997222112 ] } },
{ "type": "Feature", "properties": { "P29_001": "35201", "P29_002": "A135310000090", "P29_003": "16011", "P29_004": "安岡幼稚園", "P29_005": "山口県下関市富任町6-1-23", "P29_006": "4", "P29_007": "0", "P29_008": "00", "P29_009": null }, "geometry": { "type": "Point", "coordinates": [ 130.922805253841915, 34.021874995099054 ] } },
{ "type": "Feature", "properties": { "P29_001": "35201", "P29_002": "A135310000107", "P29_003": "16011", "P29_004": "福王幼稚園", "P29_005": "山口県下関市一の宮本町2-9-14", "P29_006": "4", "P29_007": "0", "P29_008": "00", "P29_009": null }, "geometry": { "type": "Point", "coordinates": [ 130.953258603834939, 33.99987136821008 ] } },
{ "type": "Feature", "properties": { "P29_001": "35201", "P29_002": "A135310000116", "P29_003": "16011", "P29_004": "いちょう幼稚園", "P29_005": "山口県下関市安岡町1-10-7", "P29_006": "4", "P29_007": "0", "P29_008": "00", "P29_009": null }, "geometry": { "type": "Point", "coordinates": [ 130.913041749965316, 34.028528473068278 ] } },
{ "type": "Feature", "properties": { "P29_001": "35201", "P29_002": "A135310000125", "P29_003": "16011", "P29_004": "下関短期大学付属第二幼稚園", "P29_005": "山口県下関市彦島塩浜町2-2-21", "P29_006": "4", "P29_007": "0", "P29_008": "00", "P29_009": null }, "geometry": { "type": "Point", "coordinates": [ 130.90558200087338, 33.919669995455102 ] } },
{ "type": "Feature", "properties": { "P29_001": "35201", "P29_002": "A135310000134", "P29_003": "16011", "P29_004": "下関国際高等学校付属幼稚園", "P29_005": "山口県下関市大字伊倉字四方山7", "P29_006": "4", "P29_007": "0", "P29_008": "00", "P29_009": null }, "geometry": { "type": "Point", "coordinates": [ 130.94442200228832, 34.003664002218343 ] } },
{ "type": "Feature", "properties": { "P29_001": "35202", "P29_002": "A135310000143", "P29_003": "16011", "P29_004": "宇部フロンティア大学付属幼稚園", "P29_005": "山口県宇部市文京町7-5", "P29_006": "4", "P29_007": "0", "P29_008": "00", "P29_009": null }, "geometry": { "type": "Point", "coordinates": [ 131.230153375341672, 33.972842190674328 ] } },
{ "type": "Feature", "properties": { "P29_001": "35202", "P29_002": "A135310000152", "P29_003": "16011", "P29_004": "慈光幼稚園", "P29_005": "山口県宇部市松山町1-11-27", "P29_006": "4", "P29_007": "0", "P29_008": "00", "P29_009": null }, "geometry": { "type": "Point", "coordinates": [ 131.252759011090603, 33.94803893232249 ] } },
{ "type": "Feature", "properties": { "P29_001": "35202", "P29_002": "A135310000161", "P29_003": "16011", "P29_004": "宇部さゆり幼稚園", "P29_005": "山口県宇部市寿町2-2-22", "P29_006": "4", "P29_007": "0", "P29_008": "00", "P29_009": null }, "geometry": { "type": "Point", "coordinates": [ 131.250911822878635, 33.953090573305062 ] } },
{ "type": "Feature", "properties": { "P29_001": "35202", "P29_002": "A135310000170", "P29_003": "16011", "P29_004": "小松原幼稚園", "P29_005": "山口県宇部市小松原町1-5-11", "P29_006": "4", "P29_007": "0", "P29_008": "00", "P29_009": null }, "geometry": { "type": "Point", "coordinates": [ 131.241024940014967, 33.965082002577155 ] } },
{ "type": "Feature", "properties": { "P29_001": "35202", "P29_002": "A135310000189", "P29_003": "16011", "P29_004": "中央幼稚園", "P29_005": "山口県宇部市西梶返1-13-3　覚宝寺", "P29_006": "4", "P29_007": "0", "P29_008": "00", "P29_009": null }, "geometry": { "type": "Point", "coordinates": [ 131.260115025126055, 33.956566000943255 ] } },
{ "type": "Feature", "properties": { "P29_001": "35202", "P29_002": "A135310000198", "P29_003": "16011", "P29_004": "光華幼稚園", "P29_005": "山口県宇部市昭和町1-2-31", "P29_006": "4", "P29_007": "0", "P29_008": "00", "P29_009": null }, "geometry": { "type": "Point", "coordinates": [ 131.253489208961327, 33.943866317126997 ] } },
{ "type": "Feature", "properties": { "P29_001": "35202", "P29_002": "A135310000205", "P29_003": "16011", "P29_004": "西宇部小百合幼稚園", "P29_005": "山口県宇部市西宇部北2-1-13", "P29_006": "4", "P29_007": "0", "P29_008": "00", "P29_009": null }, "geometry": { "type": "Point", "coordinates": [ 131.225257855413048, 34.003427481339692 ] } },
{ "type": "Feature", "properties": { "P29_001": "35202", "P29_002": "A135310000214", "P29_003": "16011", "P29_004": "宇部幼稚園", "P29_005": "山口県宇部市明治町1-10-3", "P29_006": "4", "P29_007": "0", "P29_008": "00", "P29_009": null }, "geometry": { "type": "Point", "coordinates": [ 131.249940999643371, 33.944376000946612 ] } },
{ "type": "Feature", "properties": { "P29_001": "35202", "P29_002": "A135310000223", "P29_003": "16011", "P29_004": "聖和幼稚園", "P29_005": "山口県宇部市岬町3-1-35", "P29_006": "4", "P29_007": "0", "P29_008": "00", "P29_009": null }, "geometry": { "type": "Point", "coordinates": [ 131.266800614022884, 33.933554355826026 ] } },
{ "type": "Feature", "properties": { "P29_001": "35202", "P29_002": "A135310000232", "P29_003": "16011", "P29_004": "厚東幼稚園", "P29_005": "山口県宇部市大字棚井739", "P29_006": "4", "P29_007": "0", "P29_008": "00", "P29_009": null }, "geometry": { "type": "Point", "coordinates": [ 131.240480003702089, 34.017970002370134 ] } },
{ "type": "Feature", "properties": { "P29_001": "35202", "P29_002": "A135310000241", "P29_003": "16011", "P29_004": "精華幼稚園", "P29_005": "山口県宇部市居能町2-1-44", "P29_006": "4", "P29_007": "0", "P29_008": "00", "P29_009": null }, "geometry": { "type": "Point", "coordinates": [ 131.231632195823948, 33.967609358251622 ] } },
{ "type": "Feature", "properties": { "P29_001": "35202", "P29_002": "A135310000250", "P29_003": "16011", "P29_004": "明光幼稚園", "P29_005": "山口県宇部市大字西岐波4428-3", "P29_006": "4", "P29_007": "0", "P29_008": "00", "P29_009": null }, "geometry": { "type": "Point", "coordinates": [ 131.295386060804333, 33.945539402851963 ] } },
{ "type": "Feature", "properties": { "P29_001": "35202", "P29_002": "A135310000269", "P29_003": "16011", "P29_004": "たちばな幼稚園", "P29_005": "山口県宇部市今村南1-11-8", "P29_006": "4", "P29_007": "0", "P29_008": "00", "P29_009": null }, "geometry": { "type": "Point", "coordinates": [ 131.30319305313526, 33.952435642781673 ] } },
{ "type": "Feature", "properties": { "P29_001": "35202", "P29_002": "A135310000278", "P29_003": "16011", "P29_004": "第二慈光幼稚園", "P29_005": "山口県宇部市上野中町2-1", "P29_006": "4", "P29_007": "0", "P29_008": "00", "P29_009": null }, "geometry": { "type": "Point", "coordinates": [ 131.272508251328588, 33.95339211653512 ] } },
{ "type": "Feature", "properties": { "P29_001": "35202", "P29_002": "A135310000287", "P29_003": "16011", "P29_004": "若蔦幼稚園", "P29_005": "山口県宇部市西岐波区鬼ヶ石1812", "P29_006": "4", "P29_007": "0", "P29_008": "00", "P29_009": null }, "geometry": { "type": "Point", "coordinates": [ 131.315229973040005, 33.954870623575331 ] } },
{ "type": "Feature", "properties": { "P29_001": "35202", "P29_002": "A135310000296", "P29_003": "16011", "P29_004": "恩田幼稚園", "P29_005": "山口県宇部市則貞2-7-47", "P29_006": "4", "P29_007": "0", "P29_008": "00", "P29_009": null }, "geometry": { "type": "Point", "coordinates": [ 131.277506925662692, 33.943744343021194 ] } },
{ "type": "Feature", "properties": { "P29_001": "35202", "P29_002": "A135310000303", "P29_003": "16011", "P29_004": "宇部鴻城高等学校附属幼稚園", "P29_005": "山口県宇部市大字際波字的場381", "P29_006": "4", "P29_007": "0", "P29_008": "00", "P29_009": null }, "geometry": { "type": "Point", "coordinates": [ 131.209073004496133, 34.001596999512913 ] } },
{ "type": "Feature", "properties": { "P29_001": "35202", "P29_002": "A135310000312", "P29_003": "16011", "P29_004": "小鳩幼稚園", "P29_005": "山口県宇部市大字東岐波字石川1315-1", "P29_006": "4", "P29_007": "0", "P29_008": "00", "P29_009": null }, "geometry": { "type": "Point", "coordinates": [ 131.347304414439776, 33.970324961928625 ] } },
{ "type": "Feature", "properties": { "P29_001": "35202", "P29_002": "A135310000321", "P29_003": "16011", "P29_004": "小羽山幼稚園", "P29_005": "山口県宇部市南小羽山町2-12-4", "P29_006": "4", "P29_007": "0", "P29_008": "00", "P29_009": null }, "geometry": { "type": "Point", "coordinates": [ 131.257266257666345, 33.977241381179631 ] } },
{ "type": "Feature", "properties": { "P29_001": "35202", "P29_002": "A135310000330", "P29_003": "16011", "P29_004": "原中央幼稚園", "P29_005": "山口県宇部市大字妻崎開作1119-2", "P29_006": "4", "P29_007": "0", "P29_008": "00", "P29_009": null }, "geometry": { "type": "Point", "coordinates": [ 131.209801435439829, 33.971632574549965 ] } },
{ "type": "Feature", "properties": { "P29_001": "35203", "P29_002": "A135310000358", "P29_003": "16011", "P29_004": "山口中央幼稚園", "P29_005": "山口県山口市中央4-2-2", "P29_006": "4", "P29_007": "0", "P29_008": "00", "P29_009": null }, "geometry": { "type": "Point", "coordinates": [ 131.471381176271137, 34.174882384555225 ] } },
{ "type": "Feature", "properties": { "P29_001": "35203", "P29_002": "A135310000367", "P29_003": "16011", "P29_004": "明星幼稚園", "P29_005": "山口県山口市野田170", "P29_006": "4", "P29_007": "0", "P29_008": "00", "P29_009": null }, "geometry": { "type": "Point", "coordinates": [ 131.480914038392825, 34.185442678786202 ] } },
{ "type": "Feature", "properties": { "P29_001": "35203", "P29_002": "A135310000376", "P29_003": "16011", "P29_004": "亀山幼稚園", "P29_005": "山口県山口市道場門前2-9-14", "P29_006": "4", "P29_007": "0", "P29_008": "00", "P29_009": null }, "geometry": { "type": "Point", "coordinates": [ 131.475839646459917, 34.173212665495768 ] } },
{ "type": "Feature", "properties": { "P29_001": "35203", "P29_002": "A135310000385", "P29_003": "16011", "P29_004": "湯田幼稚園", "P29_005": "山口県山口市湯田温泉1-3-2", "P29_006": "4", "P29_007": "0", "P29_008": "00", "P29_009": null }, "geometry": { "type": "Point", "coordinates": [ 131.461035064221988, 34.16533264891126 ] } },
{ "type": "Feature", "properties": { "P29_001": "35203", "P29_002": "A135310000394", "P29_003": "16011", "P29_004": "旭幼稚園", "P29_005": "山口県山口市矢原1121", "P29_006": "4", "P29_007": "0", "P29_008": "00", "P29_009": null }, "geometry": { "type": "Point", "coordinates": [ 131.44683255059735, 34.151638458459914 ] } },
{ "type": "Feature", "properties": { "P29_001": "35203", "P29_002": "A135310000401", "P29_003": "16011", "P29_004": "北双葉幼稚園", "P29_005": "山口県山口市名田島287", "P29_006": "4", "P29_007": "0", "P29_008": "00", "P29_009": null }, "geometry": { "type": "Point", "coordinates": [ 131.409183996700222, 34.088018996532085 ] } },
{ "type": "Feature", "properties": { "P29_001": "35203", "P29_002": "A135310000410", "P29_003": "16011", "P29_004": "西円寺幼稚園", "P29_005": "山口県山口市陶2963-1", "P29_006": "4", "P29_007": "0", "P29_008": "00", "P29_009": null }, "geometry": { "type": "Point", "coordinates": [ 131.429407847350745, 34.092058358369719 ] } },
{ "type": "Feature", "properties": { "P29_001": "35203", "P29_002": "A135310000429", "P29_003": "16011", "P29_004": "山口天使幼稚園", "P29_005": "山口県山口市亀山町4-2", "P29_006": "4", "P29_007": "0", "P29_008": "00", "P29_009": null }, "geometry": { "type": "Point", "coordinates": [ 131.472743594092378, 34.179992333137442 ] } },
{ "type": "Feature", "properties": { "P29_001": "35203", "P29_002": "A135310000438", "P29_003": "16011", "P29_004": "菅内幼稚園", "P29_005": "山口県山口市大内御堀3654-6", "P29_006": "4", "P29_007": "0", "P29_008": "00", "P29_009": null }, "geometry": { "type": "Point", "coordinates": [ 131.501108995060349, 34.139391002790092 ] } },
{ "type": "Feature", "properties": { "P29_001": "35215", "P29_002": "A135310000447", "P29_003": "16011", "P29_004": "旭ヶ丘幼稚園", "P29_005": "山口県周南市久米旭ヶ丘1008", "P29_006": "4", "P29_007": "0", "P29_008": "00", "P29_009": null }, "geometry": { "type": "Point", "coordinates": [ 131.845089696819684, 34.032634199641315 ] } },
{ "type": "Feature", "properties": { "P29_001": "35215", "P29_002": "A135310000456", "P29_003": "16011", "P29_004": "愛光幼稚園", "P29_005": "山口県周南市上御弓町3400-1", "P29_006": "4", "P29_007": "0", "P29_008": "00", "P29_009": null }, "geometry": { "type": "Point", "coordinates": [ 131.812679900653848, 34.051356214563057 ] } },
{ "type": "Feature", "properties": { "P29_001": "35215", "P29_002": "A135310000465", "P29_003": "16011", "P29_004": "徳山幼稚園", "P29_005": "山口県周南市権現町4-6", "P29_006": "4", "P29_007": "0", "P29_008": "00", "P29_009": null }, "geometry": { "type": "Point", "coordinates": [ 131.798229002495361, 34.056980995671417 ] } },
{ "type": "Feature", "properties": { "P29_001": "35215", "P29_002": "A135310000474", "P29_003": "16011", "P29_004": "河原幼稚園", "P29_005": "山口県周南市大字徳山5670-1", "P29_006": "4", "P29_007": "0", "P29_008": "00", "P29_009": null }, "geometry": { "type": "Point", "coordinates": [ 131.817870264314053, 34.058944737462035 ] } },
{ "type": "Feature", "properties": { "P29_001": "35215", "P29_002": "A135310000483", "P29_003": "16011", "P29_004": "蓮生・まこと幼稚園", "P29_005": "山口県周南市大字久米3920-1", "P29_006": "4", "P29_007": "0", "P29_008": "00", "P29_009": null }, "geometry": { "type": "Point", "coordinates": [ 131.831085497505029, 34.030835806963907 ] } },
{ "type": "Feature", "properties": { "P29_001": "35215", "P29_002": "A135310000492", "P29_003": "16011", "P29_004": "小さき花幼稚園", "P29_005": "山口県周南市三番町1-9-2", "P29_006": "4", "P29_007": "0", "P29_008": "00", "P29_009": null }, "geometry": { "type": "Point", "coordinates": [ 131.810635179982796, 34.054144255370439 ] } },
{ "type": "Feature", "properties": { "P29_001": "35215", "P29_002": "A135310000508", "P29_003": "16011", "P29_004": "徳山めぐみ幼稚園", "P29_005": "山口県周南市弥生町2-29", "P29_006": "4", "P29_007": "0", "P29_008": "00", "P29_009": null }, "geometry": { "type": "Point", "coordinates": [ 131.806562049271946, 34.057760804184596 ] } },
{ "type": "Feature", "properties": { "P29_001": "35215", "P29_002": "A135310000517", "P29_003": "16011", "P29_004": "周南小さき花幼稚園", "P29_005": "山口県周南市桜木1-9-1", "P29_006": "4", "P29_007": "0", "P29_008": "00", "P29_009": null }, "geometry": { "type": "Point", "coordinates": [ 131.83852004006522, 34.042017685875642 ] } },
{ "type": "Feature", "properties": { "P29_001": "35215", "P29_002": "A135310000526", "P29_003": "16011", "P29_004": "徳山中央幼稚園", "P29_005": "山口県周南市城ヶ丘3-18-22", "P29_006": "4", "P29_007": "0", "P29_008": "00", "P29_009": null }, "geometry": { "type": "Point", "coordinates": [ 131.845657353724249, 34.042282626235618 ] } },
{ "type": "Feature", "properties": { "P29_001": "35206", "P29_002": "A135310000535", "P29_003": "16011", "P29_004": "佐波幼稚園", "P29_005": "山口県防府市平和町6-20", "P29_006": "4", "P29_007": "0", "P29_008": "00", "P29_009": null }, "geometry": { "type": "Point", "coordinates": [ 131.563731784262188, 34.058447140928848 ] } },
{ "type": "Feature", "properties": { "P29_001": "35206", "P29_002": "A135310000544", "P29_003": "16011", "P29_004": "鞠生幼稚園", "P29_005": "山口県防府市華浦2-2-1", "P29_006": "4", "P29_007": "0", "P29_008": "00", "P29_009": null }, "geometry": { "type": "Point", "coordinates": [ 131.569031668048609, 34.041725687764732 ] } },
{ "type": "Feature", "properties": { "P29_001": "35206", "P29_002": "A135310000553", "P29_003": "16011", "P29_004": "双葉幼稚園", "P29_005": "山口県防府市東三田尻2-8-12", "P29_006": "4", "P29_007": "0", "P29_008": "00", "P29_009": null }, "geometry": { "type": "Point", "coordinates": [ 131.578156296802632, 34.046610200506237 ] } },
{ "type": "Feature", "properties": { "P29_001": "35206", "P29_002": "A135310000562", "P29_003": "16011", "P29_004": "松崎幼稚園", "P29_005": "山口県防府市天神2-5-22", "P29_006": "4", "P29_007": "0", "P29_008": "00", "P29_009": null }, "geometry": { "type": "Point", "coordinates": [ 131.574997376368145, 34.057557794204513 ] } },
{ "type": "Feature", "properties": { "P29_001": "35206", "P29_002": "A135310000571", "P29_003": "16011", "P29_004": "華城幼稚園", "P29_005": "山口県防府市華城中央2-1-28", "P29_006": "4", "P29_007": "0", "P29_008": "00", "P29_009": null }, "geometry": { "type": "Point", "coordinates": [ 131.545390058644614, 34.046373617200459 ] } },
{ "type": "Feature", "properties": { "P29_001": "35206", "P29_002": "A135310000580", "P29_003": "16011", "P29_004": "瑞祥幼稚園", "P29_005": "山口県防府市岩畠3-3-29", "P29_006": "4", "P29_007": "0", "P29_008": "00", "P29_009": null }, "geometry": { "type": "Point", "coordinates": [ 131.597307076082785, 34.061143003736248 ] } },
{ "type": "Feature", "properties": { "P29_001": "35206", "P29_002": "A135310000599", "P29_003": "16011", "P29_004": "中関幼稚園", "P29_005": "山口県防府市大字田島1360-1", "P29_006": "4", "P29_007": "0", "P29_008": "00", "P29_009": null }, "geometry": { "type": "Point", "coordinates": [ 131.550117462532, 34.018792231620708 ] } },
{ "type": "Feature", "properties": { "P29_001": "35206", "P29_002": "A135310000606", "P29_003": "16011", "P29_004": "えんしん幼稚園", "P29_005": "山口県防府市大字田島707-3", "P29_006": "4", "P29_007": "0", "P29_008": "00", "P29_009": null }, "geometry": { "type": "Point", "coordinates": [ 131.561342998048389, 34.024454000771257 ] } },
{ "type": "Feature", "properties": { "P29_001": "35206", "P29_002": "A135310000615", "P29_003": "16011", "P29_004": "暁の星幼稚園", "P29_005": "山口県防府市八王子1-26-27", "P29_006": "4", "P29_007": "0", "P29_008": "00", "P29_009": null }, "geometry": { "type": "Point", "coordinates": [ 131.565695453855682, 34.056689572717339 ] } },
{ "type": "Feature", "properties": { "P29_001": "35206", "P29_002": "A135310000624", "P29_003": "16011", "P29_004": "牟礼幼稚園", "P29_005": "山口県防府市牟礼今宿2-13-24", "P29_006": "4", "P29_007": "0", "P29_008": "00", "P29_009": null }, "geometry": { "type": "Point", "coordinates": [ 131.602950522158579, 34.053817298998716 ] } },
{ "type": "Feature", "properties": { "P29_001": "35206", "P29_002": "A135310000633", "P29_003": "16011", "P29_004": "右田幼稚園", "P29_005": "山口県防府市大字下右田赤金258-2", "P29_006": "4", "P29_007": "0", "P29_008": "00", "P29_009": null }, "geometry": { "type": "Point", "coordinates": [ 131.558639545314122, 34.073743935351324 ] } },
{ "type": "Feature", "properties": { "P29_001": "35206", "P29_002": "A135310000642", "P29_003": "16011", "P29_004": "東牟礼幼稚園", "P29_005": "山口県防府市牟礼上木部836-2", "P29_006": "4", "P29_007": "0", "P29_008": "00", "P29_009": null }, "geometry": { "type": "Point", "coordinates": [ 131.611781503382815, 34.065486769856307 ] } },
{ "type": "Feature", "properties": { "P29_001": "35206", "P29_002": "A135310000651", "P29_003": "16011", "P29_004": "玉祖幼稚園", "P29_005": "山口県防府市大字佐野337-1", "P29_006": "4", "P29_007": "0", "P29_008": "00", "P29_009": null }, "geometry": { "type": "Point", "coordinates": [ 131.525863996854724, 34.055064302265656 ] } },
{ "type": "Feature", "properties": { "P29_001": "35206", "P29_002": "A135310000660", "P29_003": "16011", "P29_004": "多々良幼稚園", "P29_005": "山口県防府市大字大崎10161-2", "P29_006": "4", "P29_007": "0", "P29_008": "00", "P29_009": null }, "geometry": { "type": "Point", "coordinates": [ 131.538715736103313, 34.062367330878743 ] } },
{ "type": "Feature", "properties": { "P29_001": "35206", "P29_002": "A135310000688", "P29_003": "16011", "P29_004": "西浦幼稚園", "P29_005": "山口県防府市大字西浦1871-3", "P29_006": "4", "P29_007": "0", "P29_008": "00", "P29_009": null }, "geometry": { "type": "Point", "coordinates": [ 131.521167858175431, 34.022080695714898 ] } },
{ "type": "Feature", "properties": { "P29_001": "35207", "P29_002": "A135310000697", "P29_003": "16011", "P29_004": "下松幼稚園", "P29_005": "山口県下松市大手町1-5-10", "P29_006": "4", "P29_007": "0", "P29_008": "00", "P29_009": null }, "geometry": { "type": "Point", "coordinates": [ 131.866697994445047, 34.011993997420241 ] } },
{ "type": "Feature", "properties": { "P29_001": "35207", "P29_002": "A135310000704", "P29_003": "16011", "P29_004": "鋼鈑幼稚園", "P29_005": "山口県下松市美里町1-9-1", "P29_006": "4", "P29_007": "0", "P29_008": "00", "P29_009": null }, "geometry": { "type": "Point", "coordinates": [ 131.864455342736278, 34.023685967793554 ] } },
{ "type": "Feature", "properties": { "P29_001": "35207", "P29_002": "A135310000713", "P29_003": "16011", "P29_004": "江口幼稚園", "P29_005": "山口県下松市大字東豊井字江口1059-17", "P29_006": "4", "P29_007": "0", "P29_008": "00", "P29_009": null }, "geometry": { "type": "Point", "coordinates": [ 131.877834328859564, 33.998522557222422 ] } },
{ "type": "Feature", "properties": { "P29_001": "35207", "P29_002": "A135310000722", "P29_003": "16011", "P29_004": "末光幼稚園", "P29_005": "山口県下松市桜町1-2-14", "P29_006": "4", "P29_007": "0", "P29_008": "00", "P29_009": null }, "geometry": { "type": "Point", "coordinates": [ 131.872211761510528, 34.017710399912531 ] } },
{ "type": "Feature", "properties": { "P29_001": "35207", "P29_002": "A135310000731", "P29_003": "16011", "P29_004": "下松慈光幼稚園", "P29_005": "山口県下松市大字西豊井773-1", "P29_006": "4", "P29_007": "0", "P29_008": "00", "P29_009": null }, "geometry": { "type": "Point", "coordinates": [ 131.872145413686951, 34.008713377141149 ] } },
{ "type": "Feature", "properties": { "P29_001": "35207", "P29_002": "A135310000740", "P29_003": "16011", "P29_004": "四恩幼稚園", "P29_005": "山口県下松市大字末武上1235", "P29_006": "4", "P29_007": "0", "P29_008": "00", "P29_009": null }, "geometry": { "type": "Point", "coordinates": [ 131.874137556890275, 34.037222991814282 ] } },
{ "type": "Feature", "properties": { "P29_001": "35207", "P29_002": "A135310000759", "P29_003": "16011", "P29_004": "下松暁の星幼稚園", "P29_005": "山口県下松市旗岡1-5-1", "P29_006": "4", "P29_007": "0", "P29_008": "00", "P29_009": null }, "geometry": { "type": "Point", "coordinates": [ 131.876802988314864, 34.010382297921851 ] } },
{ "type": "Feature", "properties": { "P29_001": "35207", "P29_002": "A135310000768", "P29_003": "16011", "P29_004": "第二四恩幼稚園", "P29_005": "山口県下松市生野屋西2-21-19", "P29_006": "4", "P29_007": "0", "P29_008": "00", "P29_009": null }, "geometry": { "type": "Point", "coordinates": [ 131.881874810919356, 34.037946316740069 ] } },
{ "type": "Feature", "properties": { "P29_001": "35208", "P29_002": "A135310000777", "P29_003": "16011", "P29_004": "藤河幼稚園", "P29_005": "山口県岩国市多田1257-1", "P29_006": "4", "P29_007": "0", "P29_008": "00", "P29_009": null }, "geometry": { "type": "Point", "coordinates": [ 132.165312706803149, 34.183001885544712 ] } },
{ "type": "Feature", "properties": { "P29_001": "35208", "P29_002": "A135310000786", "P29_003": "16011", "P29_004": "岩国幼稚園", "P29_005": "山口県岩国市岩国1-17-29", "P29_006": "4", "P29_007": "0", "P29_008": "00", "P29_009": null }, "geometry": { "type": "Point", "coordinates": [ 132.180794762625993, 34.166140223719438 ] } },
{ "type": "Feature", "properties": { "P29_001": "35208", "P29_002": "A135310000795", "P29_003": "16011", "P29_004": "岩国染香幼稚園", "P29_005": "山口県岩国市岩国2-6-32", "P29_006": "4", "P29_007": "0", "P29_008": "00", "P29_009": null }, "geometry": { "type": "Point", "coordinates": [ 132.179981682912654, 34.163787010297867 ] } },
{ "type": "Feature", "properties": { "P29_001": "35208", "P29_002": "A135310000802", "P29_003": "16011", "P29_004": "岩国東幼稚園", "P29_005": "山口県岩国市三笠町2-2-16", "P29_006": "4", "P29_007": "0", "P29_008": "00", "P29_009": null }, "geometry": { "type": "Point", "coordinates": [ 132.227963429900541, 34.167776262290843 ] } },
{ "type": "Feature", "properties": { "P29_001": "35208", "P29_002": "A135310000811", "P29_003": "16011", "P29_004": "岩国川下幼稚園", "P29_005": "山口県岩国市楠町3-2-30", "P29_006": "4", "P29_007": "0", "P29_008": "00", "P29_009": null }, "geometry": { "type": "Point", "coordinates": [ 132.211625995175439, 34.156804001893072 ] } },
{ "type": "Feature", "properties": { "P29_001": "35208", "P29_002": "A135310000820", "P29_003": "16011", "P29_004": "みはと幼稚園", "P29_005": "山口県岩国市新港町4-9-28", "P29_006": "4", "P29_007": "0", "P29_008": "00", "P29_009": null }, "geometry": { "type": "Point", "coordinates": [ 132.228817589179442, 34.188577512292873 ] } },
{ "type": "Feature", "properties": { "P29_001": "35208", "P29_002": "A135310000839", "P29_003": "16011", "P29_004": "今津幼稚園", "P29_005": "山口県岩国市今津町5-2-9", "P29_006": "4", "P29_007": "0", "P29_008": "00", "P29_009": null }, "geometry": { "type": "Point", "coordinates": [ 132.215119790842238, 34.162827028322482 ] } },
{ "type": "Feature", "properties": { "P29_001": "35208", "P29_002": "A135310000848", "P29_003": "16011", "P29_004": "顕真幼稚園", "P29_005": "山口県岩国市錦見5-7-28", "P29_006": "4", "P29_007": "0", "P29_008": "00", "P29_009": null }, "geometry": { "type": "Point", "coordinates": [ 132.189751233499265, 34.161804254548287 ] } },
{ "type": "Feature", "properties": { "P29_001": "35208", "P29_002": "A135310000857", "P29_003": "16011", "P29_004": "室木幼稚園", "P29_005": "山口県岩国市室の木町2-5-7", "P29_006": "4", "P29_007": "0", "P29_008": "00", "P29_009": null }, "geometry": { "type": "Point", "coordinates": [ 132.212225678739486, 34.175978902655558 ] } },
{ "type": "Feature", "properties": { "P29_001": "35208", "P29_002": "A135310000866", "P29_003": "16011", "P29_004": "藤生幼稚園", "P29_005": "山口県岩国市藤生町1-3-18", "P29_006": "4", "P29_007": "0", "P29_008": "00", "P29_009": null }, "geometry": { "type": "Point", "coordinates": [ 132.198388004347976, 34.115357003833502 ] } },
{ "type": "Feature", "properties": { "P29_001": "35208", "P29_002": "A135310000875", "P29_003": "16011", "P29_004": "光顔幼稚園", "P29_005": "山口県岩国市御庄1691", "P29_006": "4", "P29_007": "0", "P29_008": "00", "P29_009": null }, "geometry": { "type": "Point", "coordinates": [ 132.144287337613832, 34.165766875131702 ] } },
{ "type": "Feature", "properties": { "P29_001": "35208", "P29_002": "A135310000884", "P29_003": "16011", "P29_004": "岩国めぐみ幼稚園", "P29_005": "山口県岩国市元町2-8-8", "P29_006": "4", "P29_007": "0", "P29_008": "00", "P29_009": null }, "geometry": { "type": "Point", "coordinates": [ 132.228507155732075, 34.169915137105654 ] } },
{ "type": "Feature", "properties": { "P29_001": "35208", "P29_002": "A135310000893", "P29_003": "16011", "P29_004": "岩国中央幼稚園", "P29_005": "山口県岩国市尾津町2-7-1", "P29_006": "4", "P29_007": "0", "P29_008": "00", "P29_009": null }, "geometry": { "type": "Point", "coordinates": [ 132.208165789068062, 34.142715353132047 ] } },
{ "type": "Feature", "properties": { "P29_001": "35208", "P29_002": "A135310000900", "P29_003": "16011", "P29_004": "法寿幼稚園", "P29_005": "山口県岩国市車町1-9-22", "P29_006": "4", "P29_007": "0", "P29_008": "00", "P29_009": null }, "geometry": { "type": "Point", "coordinates": [ 132.218103569391502, 34.157728748712316 ] } },
{ "type": "Feature", "properties": { "P29_001": "35208", "P29_002": "A135310000919", "P29_003": "16011", "P29_004": "岩国聖母幼稚園", "P29_005": "山口県岩国市砂山町2-9-19", "P29_006": "4", "P29_007": "0", "P29_008": "00", "P29_009": null }, "geometry": { "type": "Point", "coordinates": [ 132.215482262973183, 34.175043082715902 ] } },
{ "type": "Feature", "properties": { "P29_001": "35208", "P29_002": "A135310000928", "P29_003": "16011", "P29_004": "岩国みのり幼稚園", "P29_005": "山口県岩国市通津2182-2", "P29_006": "4", "P29_007": "0", "P29_008": "00", "P29_009": null }, "geometry": { "type": "Point", "coordinates": [ 132.207798478467538, 34.075969667333339 ] } },
{ "type": "Feature", "properties": { "P29_001": "35208", "P29_002": "A135310000937", "P29_003": "16011", "P29_004": "北河内幼稚園", "P29_005": "山口県岩国市下454-26", "P29_006": "4", "P29_007": "0", "P29_008": "00", "P29_009": null }, "geometry": { "type": "Point", "coordinates": [ 132.092552999326017, 34.162588000440564 ] } },
{ "type": "Feature", "properties": { "P29_001": "35208", "P29_002": "A135310000946", "P29_003": "16011", "P29_004": "岩国南幼稚園", "P29_005": "山口県岩国市平田6-28-3", "P29_006": "4", "P29_007": "0", "P29_008": "00", "P29_009": null }, "geometry": { "type": "Point", "coordinates": [ 132.188594300469532, 34.13754451678016 ] } },
{ "type": "Feature", "properties": { "P29_001": "35208", "P29_002": "A135310000955", "P29_003": "16011", "P29_004": "灘幼稚園", "P29_005": "山口県岩国市藤生町2-27-18", "P29_006": "4", "P29_007": "0", "P29_008": "00", "P29_009": null }, "geometry": { "type": "Point", "coordinates": [ 132.196012739484104, 34.10863902526102 ] } },
{ "type": "Feature", "properties": { "P29_001": "35208", "P29_002": "A135310000964", "P29_003": "16011", "P29_004": "日照幼稚園", "P29_005": "山口県岩国市通津2766", "P29_006": "4", "P29_007": "0", "P29_008": "00", "P29_009": null }, "geometry": { "type": "Point", "coordinates": [ 132.20687961095436, 34.074159774454657 ] } },
{ "type": "Feature", "properties": { "P29_001": "35208", "P29_002": "A135310000973", "P29_003": "16011", "P29_004": "岩国むつみ幼稚園", "P29_005": "山口県岩国市通津2104-4", "P29_006": "4", "P29_007": "0", "P29_008": "00", "P29_009": null }, "geometry": { "type": "Point", "coordinates": [ 132.203929485294879, 34.077790075297166 ] } },
{ "type": "Feature", "properties": { "P29_001": "35216", "P29_002": "A135310000982", "P29_003": "16011", "P29_004": "小野田小百合幼稚園", "P29_005": "山口県山陽小野田市大字小野田1280-2", "P29_006": "4", "P29_007": "0", "P29_008": "00", "P29_009": null }, "geometry": { "type": "Point", "coordinates": [ 131.183372408851028, 33.978571207084983 ] } },
{ "type": "Feature", "properties": { "P29_001": "35216", "P29_002": "A135310000991", "P29_003": "16011", "P29_004": "るんびに幼稚園", "P29_005": "山口県山陽小野田市千代町1-6-10", "P29_006": "4", "P29_007": "0", "P29_008": "00", "P29_009": null }, "geometry": { "type": "Point", "coordinates": [ 131.178717413532212, 33.982713743874498 ] } },
{ "type": "Feature", "properties": { "P29_001": "35216", "P29_002": "A135310001008", "P29_003": "16011", "P29_004": "小野田めぐみ幼稚園", "P29_005": "山口県山陽小野田市稲荷町3-25", "P29_006": "4", "P29_007": "0", "P29_008": "00", "P29_009": null }, "geometry": { "type": "Point", "coordinates": [ 131.178011996891968, 33.98554000314315 ] } },
{ "type": "Feature", "properties": { "P29_001": "35216", "P29_002": "A135310001017", "P29_003": "16011", "P29_004": "高千帆小百合幼稚園", "P29_005": "山口県山陽小野田市くし山1-31-1", "P29_006": "4", "P29_007": "0", "P29_008": "00", "P29_009": null }, "geometry": { "type": "Point", "coordinates": [ 131.184788000526027, 34.011753997601971 ] } },
{ "type": "Feature", "properties": { "P29_001": "35216", "P29_002": "A135310001026", "P29_003": "16011", "P29_004": "第二るんびに幼稚園", "P29_005": "山口県山陽小野田市高千帆1-15-1", "P29_006": "4", "P29_007": "0", "P29_008": "00", "P29_009": null }, "geometry": { "type": "Point", "coordinates": [ 131.189248034972735, 34.018756233198538 ] } },
{ "type": "Feature", "properties": { "P29_001": "35210", "P29_002": "A135310001035", "P29_003": "16011", "P29_004": "聖光幼稚園", "P29_005": "山口県光市光井9-22-1", "P29_006": "4", "P29_007": "0", "P29_008": "00", "P29_009": null }, "geometry": { "type": "Point", "coordinates": [ 131.945512406423717, 33.960725358535598 ] } },
{ "type": "Feature", "properties": { "P29_001": "35210", "P29_002": "A135310001044", "P29_003": "16011", "P29_004": "光天使幼稚園", "P29_005": "山口県光市浅江3-2-15", "P29_006": "4", "P29_007": "0", "P29_008": "00", "P29_009": null }, "geometry": { "type": "Point", "coordinates": [ 131.923985280412779, 33.975927889242911 ] } },
{ "type": "Feature", "properties": { "P29_001": "35210", "P29_002": "A135310001053", "P29_003": "16011", "P29_004": "マリア幼稚園", "P29_005": "山口県光市室積松原21-37", "P29_006": "4", "P29_007": "0", "P29_008": "00", "P29_009": null }, "geometry": { "type": "Point", "coordinates": [ 131.96766248744774, 33.93935848682591 ] } },
{ "type": "Feature", "properties": { "P29_001": "35211", "P29_002": "A135310001062", "P29_003": "16011", "P29_004": "深川幼稚園", "P29_005": "山口県長門市東深川980-26", "P29_006": "4", "P29_007": "0", "P29_008": "00", "P29_009": null }, "geometry": { "type": "Point", "coordinates": [ 131.180899774352014, 34.372991597079448 ] } },
{ "type": "Feature", "properties": { "P29_001": "35211", "P29_002": "A135310001071", "P29_003": "16011", "P29_004": "あおい幼稚園", "P29_005": "山口県長門市仙崎446-1", "P29_006": "4", "P29_007": "0", "P29_008": "00", "P29_009": null }, "geometry": { "type": "Point", "coordinates": [ 131.198710767143751, 34.380477105806122 ] } },
{ "type": "Feature", "properties": { "P29_001": "35212", "P29_002": "A135310001080", "P29_003": "16011", "P29_004": "柳井幼稚園", "P29_005": "山口県柳井市姫田4-1", "P29_006": "4", "P29_007": "0", "P29_008": "00", "P29_009": null }, "geometry": { "type": "Point", "coordinates": [ 132.113162533947445, 33.970693023251812 ] } },
{ "type": "Feature", "properties": { "P29_001": "35212", "P29_002": "A135310001099", "P29_003": "16011", "P29_004": "柳美幼稚園", "P29_005": "山口県柳井市山根9-1", "P29_006": "4", "P29_007": "0", "P29_008": "00", "P29_009": null }, "geometry": { "type": "Point", "coordinates": [ 132.116149710497609, 33.968724038298426 ] } },
{ "type": "Feature", "properties": { "P29_001": "35212", "P29_002": "A135310001106", "P29_003": "16011", "P29_004": "新庄幼稚園", "P29_005": "山口県柳井市新庄825", "P29_006": "4", "P29_007": "0", "P29_008": "00", "P29_009": null }, "geometry": { "type": "Point", "coordinates": [ 132.090680753827456, 33.969094980680673 ] } },
{ "type": "Feature", "properties": { "P29_001": "35213", "P29_002": "A135310001115", "P29_003": "16011", "P29_004": "美祢幼稚園", "P29_005": "山口県美祢市大嶺町東分1853-2", "P29_006": "4", "P29_007": "0", "P29_008": "00", "P29_009": null }, "geometry": { "type": "Point", "coordinates": [ 131.205083380042851, 34.175709822405516 ] } },
{ "type": "Feature", "properties": { "P29_001": "35213", "P29_002": "A135310001124", "P29_003": "16011", "P29_004": "伊佐中央幼稚園", "P29_005": "山口県美祢市伊佐町伊佐3895-1", "P29_006": "4", "P29_007": "0", "P29_008": "00", "P29_009": null }, "geometry": { "type": "Point", "coordinates": [ 131.232672689620671, 34.168592636329699 ] } },
{ "type": "Feature", "properties": { "P29_001": "35305", "P29_002": "A135310001133", "P29_003": "16011", "P29_004": "久賀幼稚園", "P29_005": "山口県大島郡周防大島町久賀4719-1", "P29_006": "4", "P29_007": "0", "P29_008": "00", "P29_009": null }, "geometry": { "type": "Point", "coordinates": [ 132.267896737810332, 33.946705971968605 ] } },
{ "type": "Feature", "properties": { "P29_001": "35208", "P29_002": "A135310001142", "P29_003": "16011", "P29_004": "玖珂中央幼稚園", "P29_005": "山口県岩国市玖珂町5167-1", "P29_006": "4", "P29_007": "0", "P29_008": "00", "P29_009": null }, "geometry": { "type": "Point", "coordinates": [ 132.079979459067744, 34.088212007643818 ] } },
{ "type": "Feature", "properties": { "P29_001": "35208", "P29_002": "A135310001151", "P29_003": "16011", "P29_004": "瑞光幼稚園", "P29_005": "山口県岩国市錦町府谷195", "P29_006": "4", "P29_007": "0", "P29_008": "00", "P29_009": null }, "geometry": { "type": "Point", "coordinates": [ 131.968823995072114, 34.279669999075026 ] } },
{ "type": "Feature", "properties": { "P29_001": "35208", "P29_002": "A135310001160", "P29_003": "16011", "P29_004": "周東幼稚園", "P29_005": "山口県岩国市周東町下久原1152-20", "P29_006": "4", "P29_007": "0", "P29_008": "00", "P29_009": null }, "geometry": { "type": "Point", "coordinates": [ 132.053774672036013, 34.090178691224367 ] } },
{ "type": "Feature", "properties": { "P29_001": "35210", "P29_002": "A135310001179", "P29_003": "16011", "P29_004": "三輪幼稚園", "P29_005": "山口県光市大字三輪836", "P29_006": "4", "P29_007": "0", "P29_008": "00", "P29_009": null }, "geometry": { "type": "Point", "coordinates": [ 132.001939079621877, 33.979353949534598 ] } },
{ "type": "Feature", "properties": { "P29_001": "35210", "P29_002": "A135310001188", "P29_003": "16011", "P29_004": "束荷幼稚園", "P29_005": "山口県光市大字束荷1622", "P29_006": "4", "P29_007": "0", "P29_008": "00", "P29_009": null }, "geometry": { "type": "Point", "coordinates": [ 132.000194753009083, 34.008980945081845 ] } },
{ "type": "Feature", "properties": { "P29_001": "35210", "P29_002": "A135310001197", "P29_003": "16011", "P29_004": "光照幼稚園", "P29_005": "山口県光市塩田2942", "P29_006": "4", "P29_007": "0", "P29_008": "00", "P29_009": null }, "geometry": { "type": "Point", "coordinates": [ 132.025817996678001, 33.999908001642574 ] } },
{ "type": "Feature", "properties": { "P29_001": "35343", "P29_002": "A135310001204", "P29_003": "16011", "P29_004": "田布施幼稚園", "P29_005": "山口県熊毛郡田布施町下田布施941", "P29_006": "4", "P29_007": "0", "P29_008": "00", "P29_009": null }, "geometry": { "type": "Point", "coordinates": [ 132.040178568896039, 33.956797876846665 ] } },
{ "type": "Feature", "properties": { "P29_001": "35343", "P29_002": "A135310001213", "P29_003": "16011", "P29_004": "麻郷幼稚園", "P29_005": "山口県熊毛郡田布施町大字麻郷1760", "P29_006": "4", "P29_007": "0", "P29_008": "00", "P29_009": null }, "geometry": { "type": "Point", "coordinates": [ 132.046490386671479, 33.940315514715351 ] } },
{ "type": "Feature", "properties": { "P29_001": "35215", "P29_002": "A135310001222", "P29_003": "16011", "P29_004": "大河内幼稚園", "P29_005": "山口県周南市大字大河内1649-2", "P29_006": "4", "P29_007": "0", "P29_008": "00", "P29_009": null }, "geometry": { "type": "Point", "coordinates": [ 131.941053756155668, 34.028824942980393 ] } },
{ "type": "Feature", "properties": { "P29_001": "35215", "P29_002": "A135310001231", "P29_003": "16011", "P29_004": "明照幼稚園", "P29_005": "山口県周南市大字樋口328", "P29_006": "4", "P29_007": "0", "P29_008": "00", "P29_009": null }, "geometry": { "type": "Point", "coordinates": [ 131.979423655973591, 34.060185098050241 ] } },
{ "type": "Feature", "properties": { "P29_001": "35215", "P29_002": "A135310001240", "P29_003": "16011", "P29_004": "あおば幼稚園", "P29_005": "山口県周南市大字呼坂1240-3", "P29_006": "4", "P29_007": "0", "P29_008": "00", "P29_009": null }, "geometry": { "type": "Point", "coordinates": [ 131.954977580218923, 34.044502853931085 ] } },
{ "type": "Feature", "properties": { "P29_001": "35215", "P29_002": "A135310001259", "P29_003": "16011", "P29_004": "富田幼稚園", "P29_005": "山口県周南市大字富田2960", "P29_006": "4", "P29_007": "0", "P29_008": "00", "P29_009": null }, "geometry": { "type": "Point", "coordinates": [ 131.758454079744496, 34.074017517719852 ] } },
{ "type": "Feature", "properties": { "P29_001": "35215", "P29_002": "A135310001268", "P29_003": "16011", "P29_004": "南陽幼稚園", "P29_005": "山口県周南市福川3-7-30", "P29_006": "4", "P29_007": "0", "P29_008": "00", "P29_009": null }, "geometry": { "type": "Point", "coordinates": [ 131.735982084375934, 34.074455470292605 ] } },
{ "type": "Feature", "properties": { "P29_001": "35202", "P29_002": "A135310001277", "P29_003": "16011", "P29_004": "有倫舘幼稚園", "P29_005": "山口県山口市徳池岸見858", "P29_006": "4", "P29_007": "0", "P29_008": "00", "P29_009": null }, "geometry": { "type": "Point", "coordinates": [ 131.315099058082751, 33.954759169693844 ] } },
{ "type": "Feature", "properties": { "P29_001": "35203", "P29_002": "A135310001286", "P29_003": "16011", "P29_004": "山口県鴻城高等学校附属幼稚園", "P29_005": "山口県山口市小郡下郷261-1", "P29_006": "4", "P29_007": "0", "P29_008": "00", "P29_009": null }, "geometry": { "type": "Point", "coordinates": [ 131.401205064407776, 34.10706274532 ] } },
{ "type": "Feature", "properties": { "P29_001": "35203", "P29_002": "A135310001295", "P29_003": "16011", "P29_004": "小郡幼稚園", "P29_005": "山口県山口市小郡下郷1889", "P29_006": "4", "P29_007": "0", "P29_008": "00", "P29_009": null }, "geometry": { "type": "Point", "coordinates": [ 131.395437024450018, 34.099628876895409 ] } },
{ "type": "Feature", "properties": { "P29_001": "35203", "P29_002": "A135310001302", "P29_003": "16011", "P29_004": "阿知須幼稚園", "P29_005": "山口県山口市阿知須2940-2", "P29_006": "4", "P29_007": "0", "P29_008": "00", "P29_009": null }, "geometry": { "type": "Point", "coordinates": [ 131.362217162519642, 34.012515298729248 ] } },
{ "type": "Feature", "properties": { "P29_001": "35202", "P29_002": "A135310001339", "P29_003": "16011", "P29_004": "船木幼稚園", "P29_005": "山口県宇部市大字船木769", "P29_006": "4", "P29_007": "0", "P29_008": "00", "P29_009": null }, "geometry": { "type": "Point", "coordinates": [ 131.224156917112765, 34.043592286830751 ] } },
{ "type": "Feature", "properties": { "P29_001": "35216", "P29_002": "A135310001348", "P29_003": "16011", "P29_004": "真珠幼稚園", "P29_005": "山口県山陽小野田市大字厚狭字上ヶ田1039-8", "P29_006": "4", "P29_007": "0", "P29_008": "00", "P29_009": null }, "geometry": { "type": "Point", "coordinates": [ 131.17322058534711, 34.058710108819227 ] } }
]
}
