{
"type": "FeatureCollection",
"name": "geo_35_介護医療院",
"crs": { "type": "name", "properties": { "name": "urn:ogc:def:crs:OGC:1.3:CRS84" } },
"features": [
{ "type": "Feature", "properties": { "内容": "王司介護医療院【介護医療院】山口県下関市王司本町1-18-27", "url": "https://www.kaigokensaku.mhlw.go.jp/35/index.php?action_kouhyou_detail_004_kani=true&JigyosyoCd=35B0100029-00&ServiceCd=550&Type=search", "url2": "www.kihoukai.or.jp" }, "geometry": { "type": "Point", "coordinates": [ 131.015304, 34.041159 ] } },
{ "type": "Feature", "properties": { "内容": "森山病院介護医療院【介護医療院】山口県下関市宮田町2丁目8番20号", "url": "https://www.kaigokensaku.mhlw.go.jp/35/index.php?action_kouhyou_detail_004_kani=true&JigyosyoCd=35B0100060-00&ServiceCd=550&Type=search", "url2": "http//www.moriyama-hp.ecnet.jp" }, "geometry": { "type": "Point", "coordinates": [ 130.9461843, 33.9636359 ] } },
{ "type": "Feature", "properties": { "内容": "介護医療院　さくら寮【介護医療院】山口県下関市長府才川2丁目21-2", "url": "https://www.kaigokensaku.mhlw.go.jp/35/index.php?action_kouhyou_detail_004_kani=true&JigyosyoCd=35B0100011-00&ServiceCd=550&Type=search", "url2": "http://www.kofuen.or.jp/momiji/" }, "geometry": { "type": "Point", "coordinates": [ 130.999375, 34.024726500000021 ] } },
{ "type": "Feature", "properties": { "内容": "まつなが医院　介護医療院【介護医療院】山口県下関市長府中浜町２番５号", "url": "https://www.kaigokensaku.mhlw.go.jp/35/index.php?action_kouhyou_detail_004_kani=true&JigyosyoCd=35B0100078-00&ServiceCd=550&Type=search", "url2": "www.matsunagaiin.com" }, "geometry": { "type": "Point", "coordinates": [ 130.990033899999986, 33.9979415 ] } },
{ "type": "Feature", "properties": { "内容": "たけひさ介護医療院【介護医療院】山口県下関市武久町2丁目53番8号", "url": "https://www.kaigokensaku.mhlw.go.jp/35/index.php?action_kouhyou_detail_004_kani=true&JigyosyoCd=35B0100052-00&ServiceCd=550&Type=search", "url2": "http://seijukai-or.jp/" }, "geometry": { "type": "Point", "coordinates": [ 130.916669399999989, 33.9825367 ] } },
{ "type": "Feature", "properties": { "内容": "医療法人　茜会　介護医療院あかね【介護医療院】山口県下関市後田町1丁目1番1号", "url": "https://www.kaigokensaku.mhlw.go.jp/35/index.php?action_kouhyou_detail_004_kani=true&JigyosyoCd=35B0100037-00&ServiceCd=550&Type=search", "url2": "http://www.akn-yoshimizu.com" }, "geometry": { "type": "Point", "coordinates": [ 130.93472337877958, 33.968218386426862 ] } },
{ "type": "Feature", "properties": { "内容": "社会医療法人松涛会　安岡病院介護医療院【介護医療院】山口県下関市横野町3-16-35", "url": "https://www.kaigokensaku.mhlw.go.jp/35/index.php?action_kouhyou_detail_004_kani=true&JigyosyoCd=35B0100045-00&ServiceCd=550&Type=search", "url2": "http://www.syoutoukai.or.jp/" }, "geometry": { "type": "Point", "coordinates": [ 130.9094857, 34.034548 ] } },
{ "type": "Feature", "properties": { "内容": "医療法人星の里会　岡医院介護医療院【介護医療院】小月本町2丁目15番20号", "url": "https://www.kaigokensaku.mhlw.go.jp/35/index.php?action_kouhyou_detail_004_kani=true&JigyosyoCd=35B0100086-00&ServiceCd=550&Type=search", "url2": "https://www.oka-hospital.net/" }, "geometry": { "type": "Point", "coordinates": [ 131.0367149, 34.0706966 ] } },
{ "type": "Feature", "properties": { "内容": "宇部西リハビリテーション病院介護医療院【介護医療院】山口県宇部市沖ノ旦797番地", "url": "https://www.kaigokensaku.mhlw.go.jp/35/index.php?action_kouhyou_detail_004_kani=true&JigyosyoCd=35B0200035-00&ServiceCd=550&Type=search", "url2": "https://www.ubenishireha.jp" }, "geometry": { "type": "Point", "coordinates": [ 131.225694299999986, 33.99578990000002 ] } },
{ "type": "Feature", "properties": { "内容": "社会医療法人いち樹会　尾中病院　介護医療院【介護医療院】山口県宇部市寿町一丁目3番28号", "url": "https://www.kaigokensaku.mhlw.go.jp/35/index.php?action_kouhyou_detail_004_kani=true&JigyosyoCd=35B0200050-00&ServiceCd=550&Type=search", "url2": "https://onaka.or.jp/" }, "geometry": { "type": "Point", "coordinates": [ 131.248658400000011, 33.9534995 ] } },
{ "type": "Feature", "properties": { "内容": "医療法人博愛会　宇部記念病院　介護医療院【介護医療院】山口県宇部市上町1-4-11", "url": "https://www.kaigokensaku.mhlw.go.jp/35/index.php?action_kouhyou_detail_004_kani=true&JigyosyoCd=35B0200019-00&ServiceCd=550&Type=search", "url2": "http://www.hakuaikai-net.or.jp" }, "geometry": { "type": "Point", "coordinates": [ 131.239517710975633, 33.959198756960831 ] } },
{ "type": "Feature", "properties": { "内容": "宇部リハビリテーション病院　介護医療院【介護医療院】宇部市大字西岐波229番地の3", "url": "https://www.kaigokensaku.mhlw.go.jp/35/index.php?action_kouhyou_detail_004_kani=true&JigyosyoCd=35B0200027-00&ServiceCd=550&Type=search", "url2": "http://www.ubereha.jp/kaigoiryouin/" }, "geometry": { "type": "Point", "coordinates": [ 131.302255780812033, 33.965948215111403 ] } },
{ "type": "Feature", "properties": { "内容": "医療法人太白会シーサイド病院介護医療院【介護医療院】宇部市大字東岐波字丸尾4322-1", "url": "https://www.kaigokensaku.mhlw.go.jp/35/index.php?action_kouhyou_detail_004_kani=true&JigyosyoCd=35B0200043-00&ServiceCd=550&Type=search", "url2": "http://yfuruya31.wixsite.com/seasidehp" }, "geometry": { "type": "Point", "coordinates": [ 131.351484, 33.966187 ] } },
{ "type": "Feature", "properties": { "内容": "阿知須同仁病院介護医療院ひまわり【介護医療院】山口市阿知須4241-4", "url": "https://www.kaigokensaku.mhlw.go.jp/35/index.php?action_kouhyou_detail_004_kani=true&JigyosyoCd=35B0300025-00&ServiceCd=550&Type=search", "url2": "http://www.ajisudohjin.com" }, "geometry": { "type": "Point", "coordinates": [ 131.360443, 34.0100231 ] } },
{ "type": "Feature", "properties": { "内容": "山口若宮病院介護医療院【介護医療院】山口県山口市下小鯖1522番地", "url": "https://www.kaigokensaku.mhlw.go.jp/35/index.php?action_kouhyou_detail_004_kani=true&JigyosyoCd=35B0300017-00&ServiceCd=550&Type=search", "url2": "https://wakamiyakai.jp" }, "geometry": { "type": "Point", "coordinates": [ 131.51755490000005, 34.137666 ] } },
{ "type": "Feature", "properties": { "内容": "医療法人社団慈生会　萩慈生病院　介護医療院【介護医療院】山田4147番地1", "url": "https://www.kaigokensaku.mhlw.go.jp/35/index.php?action_kouhyou_detail_004_kani=true&JigyosyoCd=35B0400015-00&ServiceCd=550&Type=search", "url2": "http://hagi-jiseikai.or.jp/" }, "geometry": { "type": "Point", "coordinates": [ 131.380922, 34.399789 ] } },
{ "type": "Feature", "properties": { "内容": "全眞会病院介護医療院【介護医療院】山口県萩市大字山田字西沖田4807番3", "url": "https://www.kaigokensaku.mhlw.go.jp/35/index.php?action_kouhyou_detail_004_kani=true&JigyosyoCd=35B0400023-00&ServiceCd=550&Type=search", "url2": "https://zenshinkai.sakura.ne.jp/" }, "geometry": { "type": "Point", "coordinates": [ 131.383164, 34.405782 ] } },
{ "type": "Feature", "properties": { "内容": "防府リハビリテーション病院　介護医療院【介護医療院】山口県防府市大字台道1634番地の1", "url": "https://www.kaigokensaku.mhlw.go.jp/35/index.php?action_kouhyou_detail_004_kani=true&JigyosyoCd=35B0600010-00&ServiceCd=550&Type=search", "url2": "http://www.hofureha.jp/" }, "geometry": { "type": "Point", "coordinates": [ 131.493507599999987, 34.0693904 ] } },
{ "type": "Feature", "properties": { "内容": "介護医療院ケアホーム山口【介護医療院】山口県岩国市玖珂町11361番地", "url": "https://www.kaigokensaku.mhlw.go.jp/35/index.php?action_kouhyou_detail_004_kani=true&JigyosyoCd=35B0800032-00&ServiceCd=550&Type=search", "url2": "http://www.yamaguchihp.jp" }, "geometry": { "type": "Point", "coordinates": [ 132.059326199999987, 34.1028374 ] } },
{ "type": "Feature", "properties": { "内容": "周防病院介護医療院【介護医療院】山口県岩国市周東町上久原１２３番地", "url": "https://www.kaigokensaku.mhlw.go.jp/35/index.php?action_kouhyou_detail_004_kani=true&JigyosyoCd=35B0800024-00&ServiceCd=550&Type=search", "url2": null }, "geometry": { "type": "Point", "coordinates": [ 132.07346960000001, 34.0766764 ] } },
{ "type": "Feature", "properties": { "内容": "医療法人南和会　みどり介護医療院【介護医療院】山口県岩国市由宇町３５９番地１", "url": "https://www.kaigokensaku.mhlw.go.jp/35/index.php?action_kouhyou_detail_004_kani=true&JigyosyoCd=35B0800016-00&ServiceCd=550&Type=search", "url2": "http://www.nanwakai.jp/midori_kaigo/shisetsu/" }, "geometry": { "type": "Point", "coordinates": [ 132.153838098672509, 34.027968911521555 ] } },
{ "type": "Feature", "properties": { "内容": "河村循環器神経内科介護医療院【介護医療院】山口県光市三井６丁目１８番１", "url": "https://www.kaigokensaku.mhlw.go.jp/35/index.php?action_kouhyou_detail_004_kani=true&JigyosyoCd=35B1000012-00&ServiceCd=550&Type=search", "url2": "https://www.yayoi-km.jp/" }, "geometry": { "type": "Point", "coordinates": [ 131.952932799999985, 33.9881951 ] } },
{ "type": "Feature", "properties": { "内容": "医療法人社団光仁会　市川医院　介護医療院【介護医療院】山口県光市中央3丁目2-26", "url": "https://www.kaigokensaku.mhlw.go.jp/35/index.php?action_kouhyou_detail_004_kani=true&JigyosyoCd=35B1000020-00&ServiceCd=550&Type=search", "url2": "koujinkai-ichikawaiin.jimdo.com" }, "geometry": { "type": "Point", "coordinates": [ 131.9458821, 33.9590846 ] } },
{ "type": "Feature", "properties": { "内容": "医療法人　生山会　たわらやま介護医療院【介護医療院】山口県長門市俵山4912番地1", "url": "https://www.kaigokensaku.mhlw.go.jp/35/index.php?action_kouhyou_detail_004_kani=true&JigyosyoCd=35B1100010-00&ServiceCd=550&Type=search", "url2": "www.shouzankai-saiki.com" }, "geometry": { "type": "Point", "coordinates": [ 131.095768236245732, 34.289517682597619 ] } },
{ "type": "Feature", "properties": { "内容": "鹿野博愛介護医療院【介護医療院】山口県周南市大字鹿野下1161番の1", "url": "https://www.kaigokensaku.mhlw.go.jp/35/index.php?action_kouhyou_detail_004_kani=true&JigyosyoCd=35B1500029-00&ServiceCd=550&Type=search", "url2": "https://ryokuzankai.jp" }, "geometry": { "type": "Point", "coordinates": [ 131.8159191, 34.224131 ] } },
{ "type": "Feature", "properties": { "内容": "介護医療院　周南高原病院【介護医療院】山口県周南市大字須々万本郷29番地の1", "url": "https://www.kaigokensaku.mhlw.go.jp/35/index.php?action_kouhyou_detail_004_kani=true&JigyosyoCd=35B1500011-00&ServiceCd=550&Type=search", "url2": "http://ryokuzankai,jp" }, "geometry": { "type": "Point", "coordinates": [ 131.858291799999989, 34.1236705 ] } },
{ "type": "Feature", "properties": { "内容": "小野田赤十字　介護医療院【介護医療院】山口県山陽小野田市大字小野田３７００番地", "url": "https://www.kaigokensaku.mhlw.go.jp/35/index.php?action_kouhyou_detail_004_kani=true&JigyosyoCd=35B1600019-00&ServiceCd=550&Type=search", "url2": "http://www.onoda-redcross-hosp.jp/kaigoiryouin/index.html" }, "geometry": { "type": "Point", "coordinates": [ 131.183919800000012, 33.9543549 ] } },
{ "type": "Feature", "properties": { "内容": "周防大島町立介護医療院やすらぎ苑【介護医療院】山口県大島郡周防大島町大字小松124-2", "url": "https://www.kaigokensaku.mhlw.go.jp/35/index.php?action_kouhyou_detail_004_kani=true&JigyosyoCd=35B7100014-00&ServiceCd=550&Type=search", "url2": "https://www.kouei.so.ecomas.jp/facilities/ysrg/" }, "geometry": { "type": "Point", "coordinates": [ 132.195769, 33.9270721 ] } },
{ "type": "Feature", "properties": { "内容": "光輝病院介護医療院【介護医療院】山口県熊毛郡平生町大字佐賀１０００２番地７７", "url": "https://www.kaigokensaku.mhlw.go.jp/35/index.php?action_kouhyou_detail_004_kani=true&JigyosyoCd=35B7300010-00&ServiceCd=550&Type=search", "url2": "https://koukikai-group.or.jp" }, "geometry": { "type": "Point", "coordinates": [ 132.0831262, 33.9038699 ] } }
]
}
