{
"type": "FeatureCollection",
"name": "geo_35_小規模多機能型居宅介護",
"crs": { "type": "name", "properties": { "name": "urn:ogc:def:crs:OGC:1.3:CRS84" } },
"features": [
{ "type": "Feature", "properties": { "内容": "小規模多機能あやらぎの里【小規模多機能型居宅介護】下関市綾羅木新町2-2-9", "url": "https://www.kaigokensaku.mhlw.go.jp/35/index.php?action_kouhyou_detail_004_kani=true&JigyosyoCd=3590103192-00&ServiceCd=730&Type=search", "url2": "yumeshika@yume-no-kai.com" }, "geometry": { "type": "Point", "coordinates": [ 130.920815100000027, 34.0127697 ] } },
{ "type": "Feature", "properties": { "内容": "小規模多機能　杜の宮【小規模多機能型居宅介護】下関市安岡町4丁目9-43", "url": "https://www.kaigokensaku.mhlw.go.jp/35/index.php?action_kouhyou_detail_004_kani=true&JigyosyoCd=3590103051-00&ServiceCd=730&Type=search", "url2": "https://www.syoutoukai.or.jp/hamayuu/" }, "geometry": { "type": "Point", "coordinates": [ 130.918320399999971, 34.0300481 ] } },
{ "type": "Feature", "properties": { "内容": "社会医療法人松涛会　小規模多機能型居宅介護　やすらが丘【小規模多機能型居宅介護】山口県下関市横野町4丁目2番18号", "url": "https://www.kaigokensaku.mhlw.go.jp/35/index.php?action_kouhyou_detail_004_kani=true&JigyosyoCd=3590103176-00&ServiceCd=730&Type=search", "url2": "hppt://www.syoutoukai.or.jp" }, "geometry": { "type": "Point", "coordinates": [ 130.913234500000044, 34.0354001 ] } },
{ "type": "Feature", "properties": { "内容": "小規模多機能　くるみの家【小規模多機能型居宅介護】下関市横野町４丁目９番2４号", "url": "https://www.kaigokensaku.mhlw.go.jp/35/index.php?action_kouhyou_detail_004_kani=true&JigyosyoCd=3590103119-00&ServiceCd=730&Type=search", "url2": "http://www.syoutoukai.or.jp/" }, "geometry": { "type": "Point", "coordinates": [ 130.911754200000018, 34.033850199999975 ] } },
{ "type": "Feature", "properties": { "内容": "小規模多機能型居宅介護　王喜の郷　ミントの家【小規模多機能型居宅介護】下関市王喜本町5丁目4番18号", "url": "https://www.kaigokensaku.mhlw.go.jp/35/index.php?action_kouhyou_detail_004_kani=true&JigyosyoCd=3590103069-00&ServiceCd=730&Type=search", "url2": "http://www.ryokujukai.jp" }, "geometry": { "type": "Point", "coordinates": [ 131.051784, 34.063921 ] } },
{ "type": "Feature", "properties": { "内容": "小規模多機能居宅介護　フロイデ金比羅【小規模多機能型居宅介護】山口県下関市金比羅町10番1号", "url": "https://www.kaigokensaku.mhlw.go.jp/35/index.php?action_kouhyou_detail_004_kani=true&JigyosyoCd=3590103168-00&ServiceCd=730&Type=search", "url2": "http://syoutoukai.or.jp" }, "geometry": { "type": "Point", "coordinates": [ 130.919442781614606, 33.969640931089117 ] } },
{ "type": "Feature", "properties": { "内容": "サンキ・ウエルビィ小規模多機能センター下関【小規模多機能型居宅介護】山口県下関市生野町一丁目４番１０‐２号", "url": "https://www.kaigokensaku.mhlw.go.jp/35/index.php?action_kouhyou_detail_004_kani=true&JigyosyoCd=3590103101-00&ServiceCd=730&Type=search", "url2": null }, "geometry": { "type": "Point", "coordinates": [ 130.9342954, 33.9813756 ] } },
{ "type": "Feature", "properties": { "内容": "小規模多機能型居宅介護　アイユウの苑しおはま【小規模多機能型居宅介護】山口県下関市彦島塩浜町三丁目14番47号", "url": "https://www.kaigokensaku.mhlw.go.jp/35/index.php?action_kouhyou_detail_004_kani=true&JigyosyoCd=3590103143-00&ServiceCd=730&Type=search", "url2": "http://www.shoubikai.or.jp" }, "geometry": { "type": "Point", "coordinates": [ 130.912562277523733, 33.919735606532662 ] } },
{ "type": "Feature", "properties": { "内容": "小規模多機能ケアタウン江の浦【小規模多機能型居宅介護】山口県下関市彦島江の浦町9丁目2-5", "url": "https://www.kaigokensaku.mhlw.go.jp/35/index.php?action_kouhyou_detail_004_kani=true&JigyosyoCd=3590103093-00&ServiceCd=730&Type=search", "url2": null }, "geometry": { "type": "Point", "coordinates": [ 130.918523787835738, 33.929589280500402 ] } },
{ "type": "Feature", "properties": { "内容": "小規模多機能ケアタウン山の田【小規模多機能型居宅介護】山口県下関市武久町１丁目１９番３０号", "url": "https://www.kaigokensaku.mhlw.go.jp/35/index.php?action_kouhyou_detail_004_kani=true&JigyosyoCd=3590103085-00&ServiceCd=730&Type=search", "url2": "http://www.syoutoukai.or.jp/yamanota_syoukibo.html" }, "geometry": { "type": "Point", "coordinates": [ 130.926840399999946, 33.9841809 ] } },
{ "type": "Feature", "properties": { "内容": "小規模多機能宝の家【小規模多機能型居宅介護】山口県下関市宝町２３番３号", "url": "https://www.kaigokensaku.mhlw.go.jp/35/index.php?action_kouhyou_detail_004_kani=true&JigyosyoCd=3590103150-00&ServiceCd=730&Type=search", "url2": null }, "geometry": { "type": "Point", "coordinates": [ 130.938578431213386, 33.982429002128363 ] } },
{ "type": "Feature", "properties": { "内容": "小規模多機能ホーム　ヴィラアスワン【小規模多機能型居宅介護】山口県宇部市あすとぴあ七丁目1番2号", "url": "https://www.kaigokensaku.mhlw.go.jp/35/index.php?action_kouhyou_detail_004_kani=true&JigyosyoCd=3590200386-00&ServiceCd=730&Type=search", "url2": "http://www.asuwansansou.jp/" }, "geometry": { "type": "Point", "coordinates": [ 131.296928135582021, 33.980065186537168 ] } },
{ "type": "Feature", "properties": { "内容": "やまもとクリニック小規模多機能型居宅介護「グッドハウス」【小規模多機能型居宅介護】宇部市黒石北３丁目１番５７号ホスピサイドプレイス", "url": "https://www.kaigokensaku.mhlw.go.jp/35/index.php?action_kouhyou_detail_004_kani=true&JigyosyoCd=3590200212-00&ServiceCd=730&Type=search", "url2": null }, "geometry": { "type": "Point", "coordinates": [ 131.212603728314178, 33.98395075554501 ] } },
{ "type": "Feature", "properties": { "内容": "ふれあいの家【小規模多機能型居宅介護】宇部市大字小野字山根８２９５番地1", "url": "https://www.kaigokensaku.mhlw.go.jp/35/index.php?action_kouhyou_detail_004_kani=true&JigyosyoCd=3590200170-00&ServiceCd=730&Type=search", "url2": null }, "geometry": { "type": "Point", "coordinates": [ 131.321380181753511, 34.117223252502129 ] } },
{ "type": "Feature", "properties": { "内容": "小規模多機能型居宅介護日々草【小規模多機能型居宅介護】宇部市昭和町一丁目9番1号", "url": "https://www.kaigokensaku.mhlw.go.jp/35/index.php?action_kouhyou_detail_004_kani=true&JigyosyoCd=3590200147-00&ServiceCd=730&Type=search", "url2": "https://jinsinkai.or.jp/" }, "geometry": { "type": "Point", "coordinates": [ 131.252888399999961, 33.9430793 ] } },
{ "type": "Feature", "properties": { "内容": "神原苑　藤山デイホーム【小規模多機能型居宅介護】山口県宇部市西平原４丁目２－１３", "url": "https://www.kaigokensaku.mhlw.go.jp/35/index.php?action_kouhyou_detail_004_kani=true&JigyosyoCd=3590200279-00&ServiceCd=730&Type=search", "url2": "http://www.kamiharaen.com" }, "geometry": { "type": "Point", "coordinates": [ 131.224367, 33.9732979 ] } },
{ "type": "Feature", "properties": { "内容": "安心ライフ中宇部小規模多機能型居宅介護福寿草【小規模多機能型居宅介護】山口県宇部市大字中宇部字西岩田1562番地1", "url": "https://www.kaigokensaku.mhlw.go.jp/35/index.php?action_kouhyou_detail_004_kani=true&JigyosyoCd=3590200287-00&ServiceCd=730&Type=search", "url2": "jinsinkai.or.jp" }, "geometry": { "type": "Point", "coordinates": [ 131.25644886245729, 33.968323349210614 ] } },
{ "type": "Feature", "properties": { "内容": "神原苑　東新川デイホーム【小規模多機能型居宅介護】宇部市東新川町６－１０", "url": "https://www.kaigokensaku.mhlw.go.jp/35/index.php?action_kouhyou_detail_004_kani=true&JigyosyoCd=3590200162-00&ServiceCd=730&Type=search", "url2": "http://www.kamiharaen.com/" }, "geometry": { "type": "Point", "coordinates": [ 131.2557382, 33.9460512 ] } },
{ "type": "Feature", "properties": { "内容": "小規模多機能型居宅介護事業所オ・サーバaioi【小規模多機能型居宅介護】山口県山口市下小鯖11331-12", "url": "https://www.kaigokensaku.mhlw.go.jp/35/index.php?action_kouhyou_detail_004_kani=true&JigyosyoCd=3590300426-00&ServiceCd=730&Type=search", "url2": "https://hitotsunokai.jp/" }, "geometry": { "type": "Point", "coordinates": [ 131.527460096259716, 34.131429522250762 ] } },
{ "type": "Feature", "properties": { "内容": "多機能ホーム　遠波の里白松苑【小規模多機能型居宅介護】山口県山口市佐山1804番地1", "url": "https://www.kaigokensaku.mhlw.go.jp/35/index.php?action_kouhyou_detail_004_kani=true&JigyosyoCd=3590300269-00&ServiceCd=730&Type=search", "url2": "http://www.hakusyoen.jp/" }, "geometry": { "type": "Point", "coordinates": [ 131.367669202052269, 34.037205733570701 ] } },
{ "type": "Feature", "properties": { "内容": "夢ハウスゆだ【小規模多機能型居宅介護】山口県山口市楠木町4-19-3夢ハウスゆだ", "url": "https://www.kaigokensaku.mhlw.go.jp/35/index.php?action_kouhyou_detail_004_kani=true&JigyosyoCd=3590300236-00&ServiceCd=730&Type=search", "url2": "http://www.yumenomizuumi.com/" }, "geometry": { "type": "Point", "coordinates": [ 131.4539349, 34.1689659 ] } },
{ "type": "Feature", "properties": { "内容": "ハートホーム小郡小規模多機能型居宅介護【小規模多機能型居宅介護】山口県山口市小郡下郷2222-3", "url": "https://www.kaigokensaku.mhlw.go.jp/35/index.php?action_kouhyou_detail_004_kani=true&JigyosyoCd=3590300129-00&ServiceCd=730&Type=search", "url2": "http//www.seirankai.or.jp" }, "geometry": { "type": "Point", "coordinates": [ 131.3974336, 34.1026858 ] } },
{ "type": "Feature", "properties": { "内容": "ハートハウス大歳小規模多機能型居宅介護【小規模多機能型居宅介護】山口県山口市朝田751-1", "url": "https://www.kaigokensaku.mhlw.go.jp/35/index.php?action_kouhyou_detail_004_kani=true&JigyosyoCd=3590300160-00&ServiceCd=730&Type=search", "url2": "http//www.seirankai.or.jp" }, "geometry": { "type": "Point", "coordinates": [ 131.450750800000037, 34.1444428 ] } },
{ "type": "Feature", "properties": { "内容": "医療法人河野医院小規模多機能メディカルホーム絆【小規模多機能型居宅介護】萩市大井1723-1", "url": "https://www.kaigokensaku.mhlw.go.jp/35/index.php?action_kouhyou_detail_004_kani=true&JigyosyoCd=3590400085-00&ServiceCd=730&Type=search", "url2": null }, "geometry": { "type": "Point", "coordinates": [ 131.446932800000013, 34.4735623 ] } },
{ "type": "Feature", "properties": { "内容": "ケアセンター華房　福栄【小規模多機能型居宅介護】山口県萩市大字福井3507番地１", "url": "https://www.kaigokensaku.mhlw.go.jp/35/index.php?action_kouhyou_detail_004_kani=true&JigyosyoCd=3590400044-00&ServiceCd=730&Type=search", "url2": "http://hagi-jiseikai.or.jp/" }, "geometry": { "type": "Point", "coordinates": [ 131.488145600000053, 34.4310004 ] } },
{ "type": "Feature", "properties": { "内容": "ヘスティア伊佐江　小規模多機能型居宅介護【小規模多機能型居宅介護】防府市伊佐江町１１－４４", "url": "https://www.kaigokensaku.mhlw.go.jp/35/index.php?action_kouhyou_detail_004_kani=true&JigyosyoCd=3590600098-00&ServiceCd=730&Type=search", "url2": null }, "geometry": { "type": "Point", "coordinates": [ 131.550109954586787, 34.046783444447982 ] } },
{ "type": "Feature", "properties": { "内容": "サンキ・ウエルビィ小規模多機能センター防府【小規模多機能型居宅介護】山口県防府市新田600番の5", "url": "https://www.kaigokensaku.mhlw.go.jp/35/index.php?action_kouhyou_detail_004_kani=true&JigyosyoCd=3590600171-00&ServiceCd=730&Type=search", "url2": null }, "geometry": { "type": "Point", "coordinates": [ 131.567442799999981, 34.0341402 ] } },
{ "type": "Feature", "properties": { "内容": "夢ハウス丸山【小規模多機能型居宅介護】山口県防府市大字西浦５８６", "url": "https://www.kaigokensaku.mhlw.go.jp/35/index.php?action_kouhyou_detail_004_kani=true&JigyosyoCd=3590600163-00&ServiceCd=730&Type=search", "url2": "http://www.yumenomizuumi.com/" }, "geometry": { "type": "Point", "coordinates": [ 131.525105199999985, 34.0251873 ] } },
{ "type": "Feature", "properties": { "内容": "ヘスティア天神【小規模多機能型居宅介護】山口県防府市天神一丁目7番23号溝田ビル", "url": "https://www.kaigokensaku.mhlw.go.jp/35/index.php?action_kouhyou_detail_004_kani=true&JigyosyoCd=3590600387-00&ServiceCd=730&Type=search", "url2": null }, "geometry": { "type": "Point", "coordinates": [ 131.573383599999943, 34.0553066 ] } },
{ "type": "Feature", "properties": { "内容": "㈱ニチイ学館　ニチイケアセンター防府ニチイのやわらぎ【小規模多機能型居宅介護】防府市敷山町１４－１", "url": "https://www.kaigokensaku.mhlw.go.jp/35/index.php?action_kouhyou_detail_004_kani=true&JigyosyoCd=3590600106-00&ServiceCd=730&Type=search", "url2": null }, "geometry": { "type": "Point", "coordinates": [ 131.59807, 34.0649642 ] } },
{ "type": "Feature", "properties": { "内容": "自遊の街　小規模多機能ハウス　ひだまり倶楽部【小規模多機能型居宅介護】防府市自力町3-27", "url": "https://www.kaigokensaku.mhlw.go.jp/35/index.php?action_kouhyou_detail_004_kani=true&JigyosyoCd=3590600254-00&ServiceCd=730&Type=search", "url2": "http://www.jiyu-machi.jp/" }, "geometry": { "type": "Point", "coordinates": [ 131.575333600000022, 34.0434251 ] } },
{ "type": "Feature", "properties": { "内容": "スローライフ【小規模多機能型居宅介護】防府市本橋町１３番５号", "url": "https://www.kaigokensaku.mhlw.go.jp/35/index.php?action_kouhyou_detail_004_kani=true&JigyosyoCd=3590600130-00&ServiceCd=730&Type=search", "url2": null }, "geometry": { "type": "Point", "coordinates": [ 131.565156200000047, 34.0663716 ] } },
{ "type": "Feature", "properties": { "内容": "小規模多機能　スマイル創【小規模多機能型居宅介護】防府市上右田2464", "url": "https://www.kaigokensaku.mhlw.go.jp/35/index.php?action_kouhyou_detail_004_kani=true&JigyosyoCd=3590600064-00&ServiceCd=730&Type=search", "url2": "http://sou3838.life/" }, "geometry": { "type": "Point", "coordinates": [ 131.57254439999997, 34.073068 ] } },
{ "type": "Feature", "properties": { "内容": "小規模多機能　のんびり村　米川【小規模多機能型居宅介護】下松市大字下谷179", "url": "https://www.kaigokensaku.mhlw.go.jp/35/index.php?action_kouhyou_detail_004_kani=true&JigyosyoCd=3590700054-00&ServiceCd=730&Type=search", "url2": "homecare-yamaguchi.co.jp" }, "geometry": { "type": "Point", "coordinates": [ 131.877451599999972, 34.0816489 ] } },
{ "type": "Feature", "properties": { "内容": "JA小規模多機能おひさま下松【小規模多機能型居宅介護】山口県下松市河内1933-1", "url": "https://www.kaigokensaku.mhlw.go.jp/35/index.php?action_kouhyou_detail_004_kani=true&JigyosyoCd=3590700211-00&ServiceCd=730&Type=search", "url2": "https://ja-kyodo-support.jp" }, "geometry": { "type": "Point", "coordinates": [ 131.8857978, 34.0213147 ] } },
{ "type": "Feature", "properties": { "内容": "小規模多機能型居宅介護つどい【小規模多機能型居宅介護】山口県下松市大字山田256", "url": "https://www.kaigokensaku.mhlw.go.jp/35/index.php?action_kouhyou_detail_004_kani=true&JigyosyoCd=3590700120-00&ServiceCd=730&Type=search", "url2": "https://genkinokai.jpn.org/" }, "geometry": { "type": "Point", "coordinates": [ 131.905729900000011, 34.034722 ] } },
{ "type": "Feature", "properties": { "内容": "あらなほーむ【小規模多機能型居宅介護】山口県下松市西豊井６１７番地1", "url": "https://www.kaigokensaku.mhlw.go.jp/35/index.php?action_kouhyou_detail_004_kani=true&JigyosyoCd=3590700203-00&ServiceCd=730&Type=search", "url2": "https://aranahome.jp" }, "geometry": { "type": "Point", "coordinates": [ 131.875966549381047, 34.014813692600917 ] } },
{ "type": "Feature", "properties": { "内容": "小規模多機能型居宅介護ラ・スリーズ【小規模多機能型居宅介護】山口県岩国市麻里布町3-5-5ＩＷＡＫＵＮＩ　Ｒetirementtown（リタイアメントタウン）　４階", "url": "https://www.kaigokensaku.mhlw.go.jp/35/index.php?action_kouhyou_detail_004_kani=true&JigyosyoCd=3590800359-00&ServiceCd=730&Type=search", "url2": "https://i-shinseikai.or.jp/organization/rasreeze/" }, "geometry": { "type": "Point", "coordinates": [ 132.222578200000044, 34.1701584 ] } },
{ "type": "Feature", "properties": { "内容": "小規模多機能型居宅介護　さくら庵【小規模多機能型居宅介護】山口県岩国市横山２丁目１－８", "url": "https://www.kaigokensaku.mhlw.go.jp/35/index.php?action_kouhyou_detail_004_kani=true&JigyosyoCd=3590800235-00&ServiceCd=730&Type=search", "url2": "http://www.iｰshinseikai.or.jp" }, "geometry": { "type": "Point", "coordinates": [ 132.176603600000021, 34.1678944 ] } },
{ "type": "Feature", "properties": { "内容": "小規模多機能型居宅介護　スマイルさくら【小規模多機能型居宅介護】山口県岩国市下342-1", "url": "https://www.kaigokensaku.mhlw.go.jp/35/index.php?action_kouhyou_detail_004_kani=true&JigyosyoCd=3590800102-00&ServiceCd=730&Type=search", "url2": "http://www.i-shinseikai.or.jp" }, "geometry": { "type": "Point", "coordinates": [ 132.092729239147957, 34.160360306088677 ] } },
{ "type": "Feature", "properties": { "内容": "小規模多機能ホーム錦帯橋・みどりの家【小規模多機能型居宅介護】岩国市岩国１丁目２０－３６", "url": "https://www.kaigokensaku.mhlw.go.jp/35/index.php?action_kouhyou_detail_004_kani=true&JigyosyoCd=3590800151-00&ServiceCd=730&Type=search", "url2": "http://www.epocaclub.com/midori/index.htm" }, "geometry": { "type": "Point", "coordinates": [ 132.181169930921897, 34.166947154667447 ] } },
{ "type": "Feature", "properties": { "内容": "サンキ・ウエルビィ　小規模多機能センター岩国【小規模多機能型居宅介護】山口県岩国市牛野谷町２丁目１６番３２号", "url": "https://www.kaigokensaku.mhlw.go.jp/35/index.php?action_kouhyou_detail_004_kani=true&JigyosyoCd=3590800177-00&ServiceCd=730&Type=search", "url2": null }, "geometry": { "type": "Point", "coordinates": [ 132.196691200000032, 34.1560906 ] } },
{ "type": "Feature", "properties": { "内容": "医療法人岩国病院小規模多機能事業所よりそい【小規模多機能型居宅介護】錦見3丁目5番53号プランドール錦見", "url": "https://www.kaigokensaku.mhlw.go.jp/35/index.php?action_kouhyou_detail_004_kani=true&JigyosyoCd=3590800409-00&ServiceCd=730&Type=search", "url2": "https://prendre-nishimiwexsite.com/yorisoi" }, "geometry": { "type": "Point", "coordinates": [ 132.1979298, 34.1652673 ] } },
{ "type": "Feature", "properties": { "内容": "医療法人社団青山会　リフレの杜【小規模多機能型居宅介護】山口県岩国市玖珂町1887番地", "url": "https://www.kaigokensaku.mhlw.go.jp/35/index.php?action_kouhyou_detail_004_kani=true&JigyosyoCd=3590800375-00&ServiceCd=730&Type=search", "url2": "http://refre-maeda.jp" }, "geometry": { "type": "Point", "coordinates": [ 132.105900078382888, 34.104083455545151 ] } },
{ "type": "Feature", "properties": { "内容": "小規模多機能型居宅介護　さくらんぼはうす【小規模多機能型居宅介護】岩国市車町1-7-8", "url": "https://www.kaigokensaku.mhlw.go.jp/35/index.php?action_kouhyou_detail_004_kani=true&JigyosyoCd=3590800284-00&ServiceCd=730&Type=search", "url2": "http://www.i‐shinseikai.or.jp" }, "geometry": { "type": "Point", "coordinates": [ 132.2167647, 34.1582459 ] } },
{ "type": "Feature", "properties": { "内容": "小規模多機能　たかもり苑【小規模多機能型居宅介護】山口県岩国市周東町西長野618番地1", "url": "https://www.kaigokensaku.mhlw.go.jp/35/index.php?action_kouhyou_detail_004_kani=true&JigyosyoCd=3590800367-00&ServiceCd=730&Type=search", "url2": "http://takamori-fukushikai.or.jp/" }, "geometry": { "type": "Point", "coordinates": [ 132.028180779454033, 34.087430035029314 ] } },
{ "type": "Feature", "properties": { "内容": "小規模多機能シンシアゆうわ【小規模多機能型居宅介護】岩国市藤生町３丁目２７番８号", "url": "https://www.kaigokensaku.mhlw.go.jp/35/index.php?action_kouhyou_detail_004_kani=true&JigyosyoCd=3590800318-00&ServiceCd=730&Type=search", "url2": "http://www.yuwaen.net" }, "geometry": { "type": "Point", "coordinates": [ 132.191473200000019, 34.1195723 ] } },
{ "type": "Feature", "properties": { "内容": "小規模多機能ホーム　結埜音【小規模多機能型居宅介護】岩国市立石町3丁目8-38", "url": "https://www.kaigokensaku.mhlw.go.jp/35/index.php?action_kouhyou_detail_004_kani=true&JigyosyoCd=3590800391-00&ServiceCd=730&Type=search", "url2": null }, "geometry": { "type": "Point", "coordinates": [ 132.226528434768625, 34.18039999048667 ] } },
{ "type": "Feature", "properties": { "内容": "小規模多機能げんきむら【小規模多機能型居宅介護】山口県光市室積沖田5番1号特別養護老人ホーム　光寿苑　4階", "url": "https://www.kaigokensaku.mhlw.go.jp/35/index.php?action_kouhyou_detail_004_kani=true&JigyosyoCd=3591000256-00&ServiceCd=730&Type=search", "url2": "http://koujyuen-top.jimdofre.com" }, "geometry": { "type": "Point", "coordinates": [ 131.974466, 33.93454 ] } },
{ "type": "Feature", "properties": { "内容": "小規模多機能ケアホームのはら【小規模多機能型居宅介護】山口県光市中央3丁目2番13号", "url": "https://www.kaigokensaku.mhlw.go.jp/35/index.php?action_kouhyou_detail_004_kani=true&JigyosyoCd=3591000074-00&ServiceCd=730&Type=search", "url2": "https://kohjinkai-i.or.jp" }, "geometry": { "type": "Point", "coordinates": [ 131.945903700000031, 33.9590971 ] } },
{ "type": "Feature", "properties": { "内容": "社会福祉法人　光寿福祉会　アリヴィオげんきむら【小規模多機能型居宅介護】山口県光市島田2丁目20番20号アリヴィオ", "url": "https://www.kaigokensaku.mhlw.go.jp/35/index.php?action_kouhyou_detail_004_kani=true&JigyosyoCd=3591000165-00&ServiceCd=730&Type=search", "url2": "koujyuen-top.jimdofree.com" }, "geometry": { "type": "Point", "coordinates": [ 131.932326800000055, 33.9706812 ] } },
{ "type": "Feature", "properties": { "内容": "ケアシステムオレンジ【小規模多機能型居宅介護】山口県光市島田2丁目22番16号", "url": "https://www.kaigokensaku.mhlw.go.jp/35/index.php?action_kouhyou_detail_004_kani=true&JigyosyoCd=3591000140-00&ServiceCd=730&Type=search", "url2": "http://www.hch.or.jp/" }, "geometry": { "type": "Point", "coordinates": [ 131.9336128, 33.9704507 ] } },
{ "type": "Feature", "properties": { "内容": "小規模多機能型居宅介護　エリアなかよかん【小規模多機能型居宅介護】山口県光市室積松原１０－２４", "url": "https://www.kaigokensaku.mhlw.go.jp/35/index.php?action_kouhyou_detail_004_kani=true&JigyosyoCd=3571000276-00&ServiceCd=730&Type=search", "url2": "nakayokan.tkc.best-hp.jp" }, "geometry": { "type": "Point", "coordinates": [ 131.969521699999973, 33.9355843 ] } },
{ "type": "Feature", "properties": { "内容": "小規模多機能　おりづる周防の郷【小規模多機能型居宅介護】山口県光市小周防829－1", "url": "https://www.kaigokensaku.mhlw.go.jp/35/index.php?action_kouhyou_detail_004_kani=true&JigyosyoCd=3591000132-00&ServiceCd=730&Type=search", "url2": "http://orizuru-supporter.jp" }, "geometry": { "type": "Point", "coordinates": [ 131.981339516532898, 34.022200324939234 ] } },
{ "type": "Feature", "properties": { "内容": "小規模多機能ケア兼清【小規模多機能型居宅介護】山口県光市光ケ丘3-6", "url": "https://www.kaigokensaku.mhlw.go.jp/35/index.php?action_kouhyou_detail_004_kani=true&JigyosyoCd=3591000017-00&ServiceCd=730&Type=search", "url2": "https://kanekiyo-ms.jp" }, "geometry": { "type": "Point", "coordinates": [ 131.920330299999932, 33.9804879 ] } },
{ "type": "Feature", "properties": { "内容": "小規模多機能型居宅介護トータルケアゆうわ【小規模多機能型居宅介護】柳井市伊保庄字近長浜１番４", "url": "https://www.kaigokensaku.mhlw.go.jp/35/index.php?action_kouhyou_detail_004_kani=true&JigyosyoCd=3591200039-00&ServiceCd=730&Type=search", "url2": "http://www.yuwaen.net" }, "geometry": { "type": "Point", "coordinates": [ 132.128317013444502, 33.909868800794705 ] } },
{ "type": "Feature", "properties": { "内容": "サンキ・ウエルビィ小規模多機能センター柳井【小規模多機能型居宅介護】山口県柳井市柳井1010番地1", "url": "https://www.kaigokensaku.mhlw.go.jp/35/index.php?action_kouhyou_detail_004_kani=true&JigyosyoCd=3591200054-00&ServiceCd=730&Type=search", "url2": null }, "geometry": { "type": "Point", "coordinates": [ 132.129750199999989, 33.9597818 ] } },
{ "type": "Feature", "properties": { "内容": "小規模多機能ホームGracefulゆいしん【小規模多機能型居宅介護】美祢市大嶺町東分1707-2", "url": "https://www.kaigokensaku.mhlw.go.jp/35/index.php?action_kouhyou_detail_004_kani=true&JigyosyoCd=3591300052-00&ServiceCd=730&Type=search", "url2": "f-doho.com" }, "geometry": { "type": "Point", "coordinates": [ 131.207191923170484, 34.178983031641593 ] } },
{ "type": "Feature", "properties": { "内容": "みんなの家あそう【小規模多機能型居宅介護】山口県美祢市豊田前町麻生下579番地", "url": "https://www.kaigokensaku.mhlw.go.jp/35/index.php?action_kouhyou_detail_004_kani=true&JigyosyoCd=3591300029-00&ServiceCd=730&Type=search", "url2": null }, "geometry": { "type": "Point", "coordinates": [ 131.120811199999906, 34.1975422 ] } },
{ "type": "Feature", "properties": { "内容": "サンキ・ウエルビィ小規模多機能センター周南【小規模多機能型居宅介護】山口県周南市大字久米３５０３－１", "url": "https://www.kaigokensaku.mhlw.go.jp/35/index.php?action_kouhyou_detail_004_kani=true&JigyosyoCd=3591500115-00&ServiceCd=730&Type=search", "url2": null }, "geometry": { "type": "Point", "coordinates": [ 131.847643060218843, 34.044951270355526 ] } },
{ "type": "Feature", "properties": { "内容": "サンキ・ウエルビィ小規模多機能センター熊毛【小規模多機能型居宅介護】山口県周南市呼坂本町9番7号", "url": "https://www.kaigokensaku.mhlw.go.jp/35/index.php?action_kouhyou_detail_004_kani=true&JigyosyoCd=3591500248-00&ServiceCd=730&Type=search", "url2": null }, "geometry": { "type": "Point", "coordinates": [ 131.968274899999983, 34.0487376 ] } },
{ "type": "Feature", "properties": { "内容": "小規模多機能型居宅介護　のんたⅢ【小規模多機能型居宅介護】周南市大字戸田字佐畑4282", "url": "https://www.kaigokensaku.mhlw.go.jp/35/index.php?action_kouhyou_detail_004_kani=true&JigyosyoCd=3591500263-00&ServiceCd=730&Type=search", "url2": null }, "geometry": { "type": "Point", "coordinates": [ 131.686425200000031, 34.0748172 ] } },
{ "type": "Feature", "properties": { "内容": "こもれびダンディクラブ【小規模多機能型居宅介護】周南市城ヶ丘４丁目３５３６－１", "url": "https://www.kaigokensaku.mhlw.go.jp/35/index.php?action_kouhyou_detail_004_kani=true&JigyosyoCd=3591500180-00&ServiceCd=730&Type=search", "url2": null }, "geometry": { "type": "Point", "coordinates": [ 131.846428925794953, 34.047165179242121 ] } },
{ "type": "Feature", "properties": { "内容": "小規模多機能　とーか【小規模多機能型居宅介護】山口県周南市政所四丁目11番13号", "url": "https://www.kaigokensaku.mhlw.go.jp/35/index.php?action_kouhyou_detail_004_kani=true&JigyosyoCd=3591500099-00&ServiceCd=730&Type=search", "url2": "http://www.to-ka.co.jp/" }, "geometry": { "type": "Point", "coordinates": [ 131.771991671163931, 34.074361637494974 ] } },
{ "type": "Feature", "properties": { "内容": "小規模多機能型居宅介護　周南高原【小規模多機能型居宅介護】山口県周南市大字須々万本郷29番地の２周南高原医療福祉センター", "url": "https://www.kaigokensaku.mhlw.go.jp/35/index.php?action_kouhyou_detail_004_kani=true&JigyosyoCd=3591500214-00&ServiceCd=730&Type=search", "url2": "http://ryokuzankai.jp/index.html" }, "geometry": { "type": "Point", "coordinates": [ 131.858016, 34.1240108 ] } },
{ "type": "Feature", "properties": { "内容": "小規模多機能型居宅介護　こうよう紫苑【小規模多機能型居宅介護】山口県山陽小野田市大字郡字浜3233番7", "url": "https://www.kaigokensaku.mhlw.go.jp/35/index.php?action_kouhyou_detail_004_kani=true&JigyosyoCd=3591600063-00&ServiceCd=730&Type=search", "url2": "http://asashion.wixsite.com/kenjinkai" }, "geometry": { "type": "Point", "coordinates": [ 131.146063161996523, 34.019822266070527 ] } },
{ "type": "Feature", "properties": { "内容": "小規模多機能型居宅介護　いつは【小規模多機能型居宅介護】山陽小野田市住吉本町２丁目７番２０", "url": "https://www.kaigokensaku.mhlw.go.jp/35/index.php?action_kouhyou_detail_004_kani=true&JigyosyoCd=3591600154-00&ServiceCd=730&Type=search", "url2": "http://hayakawanaika.com/" }, "geometry": { "type": "Point", "coordinates": [ 131.180289899999906, 33.9797797 ] } },
{ "type": "Feature", "properties": { "内容": "小規模多機能型居宅介護事業所　なみおと【小規模多機能型居宅介護】山口県山陽小野田市大字小野田1147-13", "url": "https://www.kaigokensaku.mhlw.go.jp/35/index.php?action_kouhyou_detail_004_kani=true&JigyosyoCd=3591600071-00&ServiceCd=730&Type=search", "url2": "hayakawa.com" }, "geometry": { "type": "Point", "coordinates": [ 131.171974, 33.9432715 ] } },
{ "type": "Feature", "properties": { "内容": "小規模多機能たすけ愛の里【小規模多機能型居宅介護】山口県大島郡周防大島町大字椋野１３３８番地１", "url": "https://www.kaigokensaku.mhlw.go.jp/35/index.php?action_kouhyou_detail_004_kani=true&JigyosyoCd=3597100043-00&ServiceCd=730&Type=search", "url2": null }, "geometry": { "type": "Point", "coordinates": [ 132.230650100000048, 33.9561038 ] } },
{ "type": "Feature", "properties": { "内容": "小規模多機能型居宅介護事業所縁【小規模多機能型居宅介護】山口県熊毛郡田布施町下田布施384-3", "url": "https://www.kaigokensaku.mhlw.go.jp/35/index.php?action_kouhyou_detail_004_kani=true&JigyosyoCd=3597330053-00&ServiceCd=730&Type=search", "url2": "nagominoki.ｊｐ" }, "geometry": { "type": "Point", "coordinates": [ 132.053286370639029, 33.954798222729018 ] } },
{ "type": "Feature", "properties": { "内容": "小規模多機能型居宅介護　いらお苑【小規模多機能型居宅介護】山口県阿武郡阿武町大字福田下1358番地1", "url": "https://www.kaigokensaku.mhlw.go.jp/35/index.php?action_kouhyou_detail_004_kani=true&JigyosyoCd=3597820046-00&ServiceCd=730&Type=search", "url2": "http://abufukushi.com" }, "geometry": { "type": "Point", "coordinates": [ 131.5974865, 34.5157834 ] } }
]
}
