{
"type": "FeatureCollection",
"name": "geo_35_4",
"crs": { "type": "name", "properties": { "name": "urn:ogc:def:crs:OGC:1.3:CRS84" } },
"features": [
{ "type": "Feature", "properties": { "ID": 3545353190050, "正式名称": "春永助産所　母乳・育児相談　ｃａｓａ　ｄｅ　ｍａｄｒｅｓ", "機関区分": 4, "都道府県コード": 35, "市区町村コード": 201, "所在地": "山口県下関市豊北町大字神田１２３４番地１１", "緯度": 34.315167, "経度": 130.896111, "url": "https://www.iryou.teikyouseido.mhlw.go.jp/znk-web/juminkanja/S2430/initialize?prefCd=35&kikanCd=5353190050&kikanKbn=4", "url2": "http://casademadres..web.fc2.com", "内容": "春永助産所　母乳・育児相談　ｃａｓａ　ｄｅ　ｍａｄｒｅｓ【4:助産院】山口県下関市豊北町大字神田１２３４番地１１" }, "geometry": { "type": "Point", "coordinates": [ 130.896111, 34.315167 ] } },
{ "type": "Feature", "properties": { "ID": 3545355290010, "正式名称": "岩元助産院", "機関区分": 4, "都道府県コード": 35, "市区町村コード": 208, "所在地": "山口県岩国市玖珂町６４５０番地３８", "緯度": 34.096278, "経度": 132.069917, "url": "https://www.iryou.teikyouseido.mhlw.go.jp/znk-web/juminkanja/S2430/initialize?prefCd=35&kikanCd=5355290010&kikanKbn=4", "url2": null, "内容": "岩元助産院【4:助産院】山口県岩国市玖珂町６４５０番地３８" }, "geometry": { "type": "Point", "coordinates": [ 132.069917, 34.096278 ] } },
{ "type": "Feature", "properties": { "ID": 3545355290030, "正式名称": "マミーズハウス", "機関区分": 4, "都道府県コード": 35, "市区町村コード": 208, "所在地": "山口県岩国市南岩国町２－４９－６", "緯度": 34.142306, "経度": 132.209611, "url": "https://www.iryou.teikyouseido.mhlw.go.jp/znk-web/juminkanja/S2430/initialize?prefCd=35&kikanCd=5355290030&kikanKbn=4", "url2": null, "内容": "マミーズハウス【4:助産院】山口県岩国市南岩国町２－４９－６" }, "geometry": { "type": "Point", "coordinates": [ 132.209611, 34.142306 ] } },
{ "type": "Feature", "properties": { "ID": 3545355290040, "正式名称": "桶谷式母乳育児相談室　真弓助産院", "機関区分": 4, "都道府県コード": 35, "市区町村コード": 208, "所在地": "山口県岩国市南岩国４丁目５２－４３　Ａ１０４号", "緯度": 34.133972, "経度": 132.194361, "url": "https://www.iryou.teikyouseido.mhlw.go.jp/znk-web/juminkanja/S2430/initialize?prefCd=35&kikanCd=5355290040&kikanKbn=4", "url2": null, "内容": "桶谷式母乳育児相談室　真弓助産院【4:助産院】山口県岩国市南岩国４丁目５２－４３　Ａ１０４号" }, "geometry": { "type": "Point", "coordinates": [ 132.194361, 34.133972 ] } },
{ "type": "Feature", "properties": { "ID": 3545355490030, "正式名称": "産前産後ケア専門出張助産院　えがおひろがる", "機関区分": 4, "都道府県コード": 35, "市区町村コード": 343, "所在地": "山口県熊毛郡田布施町", "緯度": 33.954715, "経度": 132.041377, "url": "https://www.iryou.teikyouseido.mhlw.go.jp/znk-web/juminkanja/S2430/initialize?prefCd=35&kikanCd=5355490030&kikanKbn=4", "url2": "https://egaohirogaru.hp.peraichi.com/", "内容": "産前産後ケア専門出張助産院　えがおひろがる【4:助産院】山口県熊毛郡田布施町" }, "geometry": { "type": "Point", "coordinates": [ 132.041377, 33.954715 ] } },
{ "type": "Feature", "properties": { "ID": 3545355590010, "正式名称": "優愛　助産院", "機関区分": 4, "都道府県コード": 35, "市区町村コード": 210, "所在地": "山口県光市中央２丁目１３番２２号", "緯度": 33.956925, "経度": 131.947422, "url": "https://www.iryou.teikyouseido.mhlw.go.jp/znk-web/juminkanja/S2430/initialize?prefCd=35&kikanCd=5355590010&kikanKbn=4", "url2": null, "内容": "優愛　助産院【4:助産院】山口県光市中央２丁目１３番２２号" }, "geometry": { "type": "Point", "coordinates": [ 131.947422, 33.956925 ] } },
{ "type": "Feature", "properties": { "ID": 3545355590040, "正式名称": "Ｍｕｍ’ｓ　Ｔｏｕｃｈ", "機関区分": 4, "都道府県コード": 35, "市区町村コード": 207, "所在地": "山口県下松市河内１９０－１　フロムＥ１０１号室", "緯度": 34.020889, "経度": 131.88275, "url": "https://www.iryou.teikyouseido.mhlw.go.jp/znk-web/juminkanja/S2430/initialize?prefCd=35&kikanCd=5355590040&kikanKbn=4", "url2": "http://www.mums-touch.jimdo.com", "内容": "Ｍｕｍ’ｓ　Ｔｏｕｃｈ【4:助産院】山口県下松市河内１９０－１　フロムＥ１０１号室" }, "geometry": { "type": "Point", "coordinates": [ 131.88275, 34.020889 ] } },
{ "type": "Feature", "properties": { "ID": 3545355590050, "正式名称": "いそはま助産所", "機関区分": 4, "都道府県コード": 35, "市区町村コード": 215, "所在地": "山口県周南市本町１－８", "緯度": 34.052853, "経度": 131.803394, "url": "https://www.iryou.teikyouseido.mhlw.go.jp/znk-web/juminkanja/S2430/initialize?prefCd=35&kikanCd=5355590050&kikanKbn=4", "url2": null, "内容": "いそはま助産所【4:助産院】山口県周南市本町１－８" }, "geometry": { "type": "Point", "coordinates": [ 131.803394, 34.052853 ] } },
{ "type": "Feature", "properties": { "ID": 3545355790020, "正式名称": "姫山助産所", "機関区分": 4, "都道府県コード": 35, "市区町村コード": 203, "所在地": "山口県山口市黒川７４６－１１", "緯度": 34.145139, "経度": 131.452111, "url": "https://www.iryou.teikyouseido.mhlw.go.jp/znk-web/juminkanja/S2430/initialize?prefCd=35&kikanCd=5355790020&kikanKbn=4", "url2": "himeyamama.jp", "内容": "姫山助産所【4:助産院】山口県山口市黒川７４６－１１" }, "geometry": { "type": "Point", "coordinates": [ 131.452111, 34.145139 ] } },
{ "type": "Feature", "properties": { "ID": 3545355790050, "正式名称": "みつは助産院", "機関区分": 4, "都道府県コード": 35, "市区町村コード": 203, "所在地": "山口県山口市矢原９６１－１０－３０１", "緯度": 34.152139, "経度": 131.447139, "url": "https://www.iryou.teikyouseido.mhlw.go.jp/znk-web/juminkanja/S2430/initialize?prefCd=35&kikanCd=5355790050&kikanKbn=4", "url2": "http://mitsuha-josanin.jp/", "内容": "みつは助産院【4:助産院】山口県山口市矢原９６１－１０－３０１" }, "geometry": { "type": "Point", "coordinates": [ 131.447139, 34.152139 ] } },
{ "type": "Feature", "properties": { "ID": 3545355790080, "正式名称": "助産院　ローズベビーサロン", "機関区分": 4, "都道府県コード": 35, "市区町村コード": 203, "所在地": "山口県山口市小郡栄町　２－１", "緯度": 34.089861, "経度": 131.4035, "url": "https://www.iryou.teikyouseido.mhlw.go.jp/znk-web/juminkanja/S2430/initialize?prefCd=35&kikanCd=5355790080&kikanKbn=4", "url2": "https://babysalon.rose-med.com/", "内容": "助産院　ローズベビーサロン【4:助産院】山口県山口市小郡栄町　２－１" }, "geometry": { "type": "Point", "coordinates": [ 131.4035, 34.089861 ] } },
{ "type": "Feature", "properties": { "ID": 3545355890050, "正式名称": "宿久", "機関区分": 4, "都道府県コード": 35, "市区町村コード": 202, "所在地": "山口県宇部市東万倉２２２－５", "緯度": 34.051956, "経度": 131.234957, "url": "https://www.iryou.teikyouseido.mhlw.go.jp/znk-web/juminkanja/S2430/initialize?prefCd=35&kikanCd=5355890050&kikanKbn=4", "url2": null, "内容": "宿久【4:助産院】山口県宇部市東万倉２２２－５" }, "geometry": { "type": "Point", "coordinates": [ 131.234957, 34.051956 ] } },
{ "type": "Feature", "properties": { "ID": 3545355890060, "正式名称": "産前•産後ケア専門助産院　ＴＡＵ•ＴＡＵ", "機関区分": 4, "都道府県コード": 35, "市区町村コード": 202, "所在地": "山口県宇部市黒石北３丁目１－４３－１２", "緯度": 33.985558, "経度": 131.208655, "url": "https://www.iryou.teikyouseido.mhlw.go.jp/znk-web/juminkanja/S2430/initialize?prefCd=35&kikanCd=5355890060&kikanKbn=4", "url2": null, "内容": "産前•産後ケア専門助産院　ＴＡＵ•ＴＡＵ【4:助産院】山口県宇部市黒石北３丁目１－４３－１２" }, "geometry": { "type": "Point", "coordinates": [ 131.208655, 33.985558 ] } },
{ "type": "Feature", "properties": { "ID": 3545356490010, "正式名称": "斉藤助産院", "機関区分": 4, "都道府県コード": 35, "市区町村コード": 204, "所在地": "山口県萩市川島２５４ー５", "緯度": 34.402194, "経度": 131.406528, "url": "https://www.iryou.teikyouseido.mhlw.go.jp/znk-web/juminkanja/S2430/initialize?prefCd=35&kikanCd=5356490010&kikanKbn=4", "url2": null, "内容": "斉藤助産院【4:助産院】山口県萩市川島２５４ー５" }, "geometry": { "type": "Point", "coordinates": [ 131.406528, 34.402194 ] } }
]
}
