{
"type": "FeatureCollection",
"name": "geo_35_短期入所療養介護（介護老人保健施設）",
"crs": { "type": "name", "properties": { "name": "urn:ogc:def:crs:OGC:1.3:CRS84" } },
"features": [
{ "type": "Feature", "properties": { "内容": "社会医療法人　松涛会　老人保健施設　コスモス【短期入所療養介護（介護老人保健施設）】下関市横野町3丁目16番35号", "url": "https://www.kaigokensaku.mhlw.go.jp/35/index.php?action_kouhyou_detail_004_kani=true&JigyosyoCd=3550180016-00&ServiceCd=220&Type=search", "url2": "http://www.syoutoukai.or.jp/" }, "geometry": { "type": "Point", "coordinates": [ 130.909568199999967, 34.03475 ] } },
{ "type": "Feature", "properties": { "内容": "老人保健施設ライフ菊川【短期入所療養介護（介護老人保健施設）】下関市菊川町下岡枝1113", "url": "https://www.kaigokensaku.mhlw.go.jp/35/index.php?action_kouhyou_detail_004_kani=true&JigyosyoCd=3557880006-00&ServiceCd=220&Type=search", "url2": "https://www.oka-hospital.net/" }, "geometry": { "type": "Point", "coordinates": [ 131.041588499999989, 34.1255225 ] } },
{ "type": "Feature", "properties": { "内容": "葵の園・下関【短期入所療養介護（介護老人保健施設）】山口県下関市吉見新町一丁目6番17号", "url": "https://www.kaigokensaku.mhlw.go.jp/35/index.php?action_kouhyou_detail_004_kani=true&JigyosyoCd=3550180149-00&ServiceCd=220&Type=search", "url2": "aoi-shimonoseki@aoikai.jp" }, "geometry": { "type": "Point", "coordinates": [ 130.899577, 34.0697578 ] } },
{ "type": "Feature", "properties": { "内容": "介護老人保健施設　豊松苑【短期入所療養介護（介護老人保健施設）】山口県下関市富任町6-17-20", "url": "https://www.kaigokensaku.mhlw.go.jp/35/index.php?action_kouhyou_detail_004_kani=true&JigyosyoCd=3550180024-00&ServiceCd=220&Type=search", "url2": "http://www.mizunoki.jp/housyou/" }, "geometry": { "type": "Point", "coordinates": [ 130.923940600000037, 34.0182183 ] } },
{ "type": "Feature", "properties": { "内容": "介護老人保健施設　青海荘【短期入所療養介護（介護老人保健施設）】山口県下関市武久町2丁目53番8号", "url": "https://www.kaigokensaku.mhlw.go.jp/35/index.php?action_kouhyou_detail_004_kani=true&JigyosyoCd=3550180008-00&ServiceCd=220&Type=search", "url2": "http://seijukai-or.jp/seikaisou/" }, "geometry": { "type": "Point", "coordinates": [ 130.91664430000003, 33.9817949 ] } },
{ "type": "Feature", "properties": { "内容": "下関市豊浦地域ケアセンター　介護老人保健施設ひびき苑【短期入所療養介護（介護老人保健施設）】下関市豊浦町大字小串10007-3", "url": "https://www.kaigokensaku.mhlw.go.jp/35/index.php?action_kouhyou_detail_004_kani=true&JigyosyoCd=3550180107-00&ServiceCd=220&Type=search", "url2": null }, "geometry": { "type": "Point", "coordinates": [ 130.926795868786598, 34.1699563332552 ] } },
{ "type": "Feature", "properties": { "内容": "介護老人保健施設　ももとせ【短期入所療養介護（介護老人保健施設）】山口県下関市豊北町大字滝部３６６９番地１", "url": "https://www.kaigokensaku.mhlw.go.jp/35/index.php?action_kouhyou_detail_004_kani=true&JigyosyoCd=3550180115-00&ServiceCd=220&Type=search", "url2": "https://momotose-home.net" }, "geometry": { "type": "Point", "coordinates": [ 130.944352699999968, 34.2837621 ] } },
{ "type": "Feature", "properties": { "内容": "介護老人保健施設　寿光園【短期入所療養介護（介護老人保健施設）】山口県宇部市大字妻崎開作470番地3", "url": "https://www.kaigokensaku.mhlw.go.jp/35/index.php?action_kouhyou_detail_004_kani=true&JigyosyoCd=3550280030-00&ServiceCd=220&Type=search", "url2": "https://roken-jukouen.jp/" }, "geometry": { "type": "Point", "coordinates": [ 131.204085466795391, 33.98359415551252 ] } },
{ "type": "Feature", "properties": { "内容": "介護老人保健施設　昭和町共生苑【短期入所療養介護（介護老人保健施設）】山口県宇部市昭和町二丁目12-12", "url": "https://www.kaigokensaku.mhlw.go.jp/35/index.php?action_kouhyou_detail_004_kani=true&JigyosyoCd=3550280022-00&ServiceCd=220&Type=search", "url2": null }, "geometry": { "type": "Point", "coordinates": [ 131.255146700000068, 33.9393242 ] } },
{ "type": "Feature", "properties": { "内容": "介護老人保健施設　ぺあれんと【短期入所療養介護（介護老人保健施設）】山口県宇部市浜町２丁目1-3", "url": "https://www.kaigokensaku.mhlw.go.jp/35/index.php?action_kouhyou_detail_004_kani=true&JigyosyoCd=3550280048-00&ServiceCd=220&Type=search", "url2": "https://familand.jp" }, "geometry": { "type": "Point", "coordinates": [ 131.237383099999988, 33.9649627 ] } },
{ "type": "Feature", "properties": { "内容": "医療法人社団泉仁会　介護老人保健施設豊生苑【短期入所療養介護（介護老人保健施設）】山口県宇部市大字木田字中山田40-20", "url": "https://www.kaigokensaku.mhlw.go.jp/35/index.php?action_kouhyou_detail_004_kani=true&JigyosyoCd=3550280006-00&ServiceCd=220&Type=search", "url2": "http://www.senjinkai.jp" }, "geometry": { "type": "Point", "coordinates": [ 131.2783479, 34.063097 ] } },
{ "type": "Feature", "properties": { "内容": "介護老人保健施設　老健ふなき【短期入所療養介護（介護老人保健施設）】宇部市大字舟木８３３", "url": "https://www.kaigokensaku.mhlw.go.jp/35/index.php?action_kouhyou_detail_004_kani=true&JigyosyoCd=3557780008-00&ServiceCd=220&Type=search", "url2": "http://www.furoukai.jp" }, "geometry": { "type": "Point", "coordinates": [ 140.478291, 36.2120358 ] } },
{ "type": "Feature", "properties": { "内容": "老人保健施設　日吉台【短期入所療養介護（介護老人保健施設）】山口市陶3976", "url": "https://www.kaigokensaku.mhlw.go.jp/35/index.php?action_kouhyou_detail_004_kani=true&JigyosyoCd=3550380012-00&ServiceCd=220&Type=search", "url2": null }, "geometry": { "type": "Point", "coordinates": [ 131.4202272, 34.0986157 ] } },
{ "type": "Feature", "properties": { "内容": "老人保健施設ニューライフあじす【短期入所療養介護（介護老人保健施設）】山口県山口市阿知須4165番地3", "url": "https://www.kaigokensaku.mhlw.go.jp/35/index.php?action_kouhyou_detail_004_kani=true&JigyosyoCd=3557680018-00&ServiceCd=220&Type=search", "url2": "http://www.kyoai.or.jp/newlife/" }, "geometry": { "type": "Point", "coordinates": [ 131.3585122, 34.0079015 ] } },
{ "type": "Feature", "properties": { "内容": "山口県厚生農業協同組合連合会老人保健施設みのり苑【短期入所療養介護（介護老人保健施設）】山口市小郡下郷862番地3", "url": "https://www.kaigokensaku.mhlw.go.jp/35/index.php?action_kouhyou_detail_004_kani=true&JigyosyoCd=3557680000-00&ServiceCd=220&Type=search", "url2": "http://www.ogoridaiichi.jp/" }, "geometry": { "type": "Point", "coordinates": [ 131.3971987, 34.1034567 ] } },
{ "type": "Feature", "properties": { "内容": "介護老人保健施設　アーユス【短期入所療養介護（介護老人保健施設）】山口市大内矢田北５丁目１０番１号介護老人保健施設アーユス", "url": "https://www.kaigokensaku.mhlw.go.jp/35/index.php?action_kouhyou_detail_004_kani=true&JigyosyoCd=3550380046-00&ServiceCd=220&Type=search", "url2": "http://www.suiseikai.org" }, "geometry": { "type": "Point", "coordinates": [ 131.5099768, 34.155020300000011 ] } },
{ "type": "Feature", "properties": { "内容": "老人保健施設　ハートホーム山口【短期入所療養介護（介護老人保健施設）】山口県山口市吉敷中東一丁目1-2", "url": "https://www.kaigokensaku.mhlw.go.jp/35/index.php?action_kouhyou_detail_004_kani=true&JigyosyoCd=3550380061-00&ServiceCd=220&Type=search", "url2": "http://www.seirankai.or.jp" }, "geometry": { "type": "Point", "coordinates": [ 131.4467333, 34.1673351 ] } },
{ "type": "Feature", "properties": { "内容": "あいあい山口【短期入所療養介護（介護老人保健施設）】山口市鋳銭司5964番地1", "url": "https://www.kaigokensaku.mhlw.go.jp/35/index.php?action_kouhyou_detail_004_kani=true&JigyosyoCd=3550380020-00&ServiceCd=220&Type=search", "url2": "htt://www.aikawaiin.or.jp" }, "geometry": { "type": "Point", "coordinates": [ 131.4437144, 34.0839436 ] } },
{ "type": "Feature", "properties": { "内容": "老人保健施設はくあい【短期入所療養介護（介護老人保健施設）】山口県防府市三田尻１丁目１番２４号", "url": "https://www.kaigokensaku.mhlw.go.jp/35/index.php?action_kouhyou_detail_004_kani=true&JigyosyoCd=3550680023-00&ServiceCd=220&Type=search", "url2": "http://hakuai.net/" }, "geometry": { "type": "Point", "coordinates": [ 131.572369900000012, 34.0484354 ] } },
{ "type": "Feature", "properties": { "内容": "介護老人保健施設　好日苑【短期入所療養介護（介護老人保健施設）】山口県防府市戎町二丁目５番１号", "url": "https://www.kaigokensaku.mhlw.go.jp/35/index.php?action_kouhyou_detail_004_kani=true&JigyosyoCd=3550680031-00&ServiceCd=220&Type=search", "url2": "https://syoujyukai.or.jp/" }, "geometry": { "type": "Point", "coordinates": [ 131.5703532, 34.0590505 ] } },
{ "type": "Feature", "properties": { "内容": "老人保健施設　成幸苑【短期入所療養介護（介護老人保健施設）】山口県下松市新川二丁目1番1号", "url": "https://www.kaigokensaku.mhlw.go.jp/35/index.php?action_kouhyou_detail_004_kani=true&JigyosyoCd=3550780005-00&ServiceCd=220&Type=search", "url2": "https://www.seikoukai.jp/seikouen/" }, "geometry": { "type": "Point", "coordinates": [ 131.863147748479435, 34.008596523383474 ] } },
{ "type": "Feature", "properties": { "内容": "介護老人保健施設ふくしの里【短期入所療養介護（介護老人保健施設）】下松市生野屋南一丁目10番1号", "url": "https://www.kaigokensaku.mhlw.go.jp/35/index.php?action_kouhyou_detail_004_kani=true&JigyosyoCd=3550780013-00&ServiceCd=220&Type=search", "url2": "https://shunan-kinen.jp/hukusinosato.html" }, "geometry": { "type": "Point", "coordinates": [ 131.876613200000065, 34.0326424 ] } },
{ "type": "Feature", "properties": { "内容": "老人保健施設　桜の園【短期入所療養介護（介護老人保健施設）】岩国市下342-1", "url": "https://www.kaigokensaku.mhlw.go.jp/35/index.php?action_kouhyou_detail_004_kani=true&JigyosyoCd=3550880003-00&ServiceCd=220&Type=search", "url2": "http://www.i-shinseikai.or.jp" }, "geometry": { "type": "Point", "coordinates": [ 132.0934588, 34.1607021 ] } },
{ "type": "Feature", "properties": { "内容": "岩国市錦介護老人保健施設　あさぎりの郷【短期入所療養介護（介護老人保健施設）】岩国市錦町広瀬705", "url": "https://www.kaigokensaku.mhlw.go.jp/35/index.php?action_kouhyou_detail_004_kani=true&JigyosyoCd=3550880045-00&ServiceCd=220&Type=search", "url2": "http://nishiki-f.com/" }, "geometry": { "type": "Point", "coordinates": [ 131.952589200000034, 34.2557006 ] } },
{ "type": "Feature", "properties": { "内容": "老人保健施設　くが【短期入所療養介護（介護老人保健施設）】山口県岩国市玖珂町３８１３番地6", "url": "https://www.kaigokensaku.mhlw.go.jp/35/index.php?action_kouhyou_detail_004_kani=true&JigyosyoCd=3557280017-00&ServiceCd=220&Type=search", "url2": "http://www.takamori-fukushikai.hello-net.info/" }, "geometry": { "type": "Point", "coordinates": [ 132.098622400000068, 34.0818525 ] } },
{ "type": "Feature", "properties": { "内容": "老人保健施設ふれんず【短期入所療養介護（介護老人保健施設）】山口県岩国市今津町1丁目11-23", "url": "https://www.kaigokensaku.mhlw.go.jp/35/index.php?action_kouhyou_detail_004_kani=true&JigyosyoCd=3550880029-00&ServiceCd=220&Type=search", "url2": "http://marifukai：com" }, "geometry": { "type": "Point", "coordinates": [ 132.220681099999979, 34.1667755 ] } },
{ "type": "Feature", "properties": { "内容": "老人保健施設　　なんわ荘【短期入所療養介護（介護老人保健施設）】山口県岩国市尾津町五丁目７番３０号", "url": "https://www.kaigokensaku.mhlw.go.jp/35/index.php?action_kouhyou_detail_004_kani=true&JigyosyoCd=3550880011-00&ServiceCd=220&Type=search", "url2": "http://www.nawakai.jp" }, "geometry": { "type": "Point", "coordinates": [ 132.210462799999959, 34.1321351 ] } },
{ "type": "Feature", "properties": { "内容": "医療法人南和会老人保健施設みどり荘【短期入所療養介護（介護老人保健施設）】岩国市由宇町千鳥ヶ丘一丁目１番１号", "url": "https://www.kaigokensaku.mhlw.go.jp/35/index.php?action_kouhyou_detail_004_kani=true&JigyosyoCd=3557280009-00&ServiceCd=220&Type=search", "url2": "http://www.nanwakai.jp/midori_sou" }, "geometry": { "type": "Point", "coordinates": [ 132.212751499999968, 34.0363384 ] } },
{ "type": "Feature", "properties": { "内容": "介護老人保健施設ナイスケアまほろば【短期入所療養介護（介護老人保健施設）】山口県光市岩田2477番地", "url": "https://www.kaigokensaku.mhlw.go.jp/35/index.php?action_kouhyou_detail_004_kani=true&JigyosyoCd=3551080025-00&ServiceCd=220&Type=search", "url2": "https://naisukeamahoroba.jimdofree.com/" }, "geometry": { "type": "Point", "coordinates": [ 131.9996222, 33.9819183 ] } },
{ "type": "Feature", "properties": { "内容": "介護老人保健施設しまた川苑【短期入所療養介護（介護老人保健施設）】山口県光市島田5-3-2", "url": "https://www.kaigokensaku.mhlw.go.jp/35/index.php?action_kouhyou_detail_004_kani=true&JigyosyoCd=3551080009-00&ServiceCd=220&Type=search", "url2": "http://www.aimeikai.jp/shimatagawa.html" }, "geometry": { "type": "Point", "coordinates": [ 131.9400647, 33.9792137 ] } },
{ "type": "Feature", "properties": { "内容": "医療法人生山会　介護老人保健施設かつら苑【短期入所療養介護（介護老人保健施設）】山口県長門市俵山4910-1", "url": "https://www.kaigokensaku.mhlw.go.jp/35/index.php?action_kouhyou_detail_004_kani=true&JigyosyoCd=3551180007-00&ServiceCd=220&Type=search", "url2": "https://www.shouzankai-saiki.com/tawarayama/katsuraen" }, "geometry": { "type": "Point", "coordinates": [ 131.0961293, 34.2890568 ] } },
{ "type": "Feature", "properties": { "内容": "医療法人社団成蹊会　老人保健施設サンライズ21【短期入所療養介護（介護老人保健施設）】山口県長門市東深川889－1", "url": "https://www.kaigokensaku.mhlw.go.jp/35/index.php?action_kouhyou_detail_004_kani=true&JigyosyoCd=3551180015-00&ServiceCd=220&Type=search", "url2": "https://www.rouken-sunrize21.com/" }, "geometry": { "type": "Point", "coordinates": [ 131.186841299999969, 34.3769221 ] } },
{ "type": "Feature", "properties": { "内容": "介護老人保健施設　福寿苑【短期入所療養介護（介護老人保健施設）】長門市日置中2488番地3", "url": "https://www.kaigokensaku.mhlw.go.jp/35/index.php?action_kouhyou_detail_004_kani=true&JigyosyoCd=3558080002-00&ServiceCd=220&Type=search", "url2": "http://nagato-.fukujyukai.or.jp" }, "geometry": { "type": "Point", "coordinates": [ 131.106217099999981, 34.3804702 ] } },
{ "type": "Feature", "properties": { "内容": "介護老人保健施設ケアセンターゆうわ【短期入所療養介護（介護老人保健施設）】柳井市伊保庄字近長浜１番４", "url": "https://www.kaigokensaku.mhlw.go.jp/35/index.php?action_kouhyou_detail_004_kani=true&JigyosyoCd=3551280013-00&ServiceCd=220&Type=search", "url2": "http://www.yuwaen.net" }, "geometry": { "type": "Point", "coordinates": [ 132.128193631829816, 33.9101848934462 ] } },
{ "type": "Feature", "properties": { "内容": "美祢市介護老人保健施設グリーンヒル美祢【短期入所療養介護（介護老人保健施設）】美祢市大嶺町東分１１３１３－１", "url": "https://www.kaigokensaku.mhlw.go.jp/35/index.php?action_kouhyou_detail_004_kani=true&JigyosyoCd=3551380011-00&ServiceCd=220&Type=search", "url2": "http://www.mine-city-hosp.jp/green/" }, "geometry": { "type": "Point", "coordinates": [ 131.1999535, 34.1717626 ] } },
{ "type": "Feature", "properties": { "内容": "介護老人保健施設　なごやか熊毛【短期入所療養介護（介護老人保健施設）】山口県周南市高水原2丁目7番21号", "url": "https://www.kaigokensaku.mhlw.go.jp/35/index.php?action_kouhyou_detail_004_kani=true&JigyosyoCd=3551580024-00&ServiceCd=220&Type=search", "url2": "http://www.kumage-rk.jp" }, "geometry": { "type": "Point", "coordinates": [ 131.973291, 34.0541482 ] } },
{ "type": "Feature", "properties": { "内容": "老人保健施設　春の里【短期入所療養介護（介護老人保健施設）】周南市羽島1丁目2-23", "url": "https://www.kaigokensaku.mhlw.go.jp/35/index.php?action_kouhyou_detail_004_kani=true&JigyosyoCd=3551480001-00&ServiceCd=220&Type=search", "url2": "https://haresato.wixsite.com/website" }, "geometry": { "type": "Point", "coordinates": [ 131.726505539286791, 34.074341569893981 ] } },
{ "type": "Feature", "properties": { "内容": "周南市介護老人保健施設ゆめ風車【短期入所療養介護（介護老人保健施設）】周南市宮の前二丁目６－２７", "url": "https://www.kaigokensaku.mhlw.go.jp/35/index.php?action_kouhyou_detail_004_kani=true&JigyosyoCd=3551580016-00&ServiceCd=220&Type=search", "url2": "http://www.ccsnet.ne.jp/^yumerouken" }, "geometry": { "type": "Point", "coordinates": [ 131.764141900000027, 34.0726521 ] } },
{ "type": "Feature", "properties": { "内容": "介護老人保健施設　あおぞら【短期入所療養介護（介護老人保健施設）】山口県周南市大字栗屋字二葉屋開作1022-76", "url": "https://www.kaigokensaku.mhlw.go.jp/35/index.php?action_kouhyou_detail_004_kani=true&JigyosyoCd=3551580032-00&ServiceCd=220&Type=search", "url2": "hppt://www.shoueikai-sakamoto.com" }, "geometry": { "type": "Point", "coordinates": [ 131.80618579999998, 34.0551188 ] } },
{ "type": "Feature", "properties": { "内容": "老人保健施設温泉の里【短期入所療養介護（介護老人保健施設）】周南市大字湯野4204番地の１", "url": "https://www.kaigokensaku.mhlw.go.jp/35/index.php?action_kouhyou_detail_004_kani=true&JigyosyoCd=3550580025-00&ServiceCd=220&Type=search", "url2": "http://www.chitokukai.com" }, "geometry": { "type": "Point", "coordinates": [ 131.674880900000062, 34.0943735 ] } },
{ "type": "Feature", "properties": { "内容": "小野田赤十字老人保健施設あんじゅ【短期入所療養介護（介護老人保健施設）】山口県山陽小野田市大字小野田3700番地", "url": "https://www.kaigokensaku.mhlw.go.jp/35/index.php?action_kouhyou_detail_004_kani=true&JigyosyoCd=3550980001-00&ServiceCd=220&Type=search", "url2": "http://www.onoda-redcross-hosp.jp/anju/index.html" }, "geometry": { "type": "Point", "coordinates": [ 131.183765, 33.9541264 ] } },
{ "type": "Feature", "properties": { "内容": "サテライト型介護老人保健施設あさ紫苑【短期入所療養介護（介護老人保健施設）】山陽小野田市大字厚狭埴生田503-1", "url": "https://www.kaigokensaku.mhlw.go.jp/35/index.php?action_kouhyou_detail_004_kani=true&JigyosyoCd=3551680014-00&ServiceCd=220&Type=search", "url2": "https://asashion.wixsite.com/kenjinkai" }, "geometry": { "type": "Point", "coordinates": [ 131.1557401, 34.053232 ] } },
{ "type": "Feature", "properties": { "内容": "介護老人保健施設　あさ紫苑【短期入所療養介護（介護老人保健施設）】山口県山陽小野田市桜１丁目３番１号", "url": "https://www.kaigokensaku.mhlw.go.jp/35/index.php?action_kouhyou_detail_004_kani=true&JigyosyoCd=3557780016-00&ServiceCd=220&Type=search", "url2": "https://asashion.wixsite.com/kenjinkai" }, "geometry": { "type": "Point", "coordinates": [ 131.1557401, 34.053232 ] } },
{ "type": "Feature", "properties": { "内容": "サテライト型介護老人保健施設　しおん高泊【短期入所療養介護（介護老人保健施設）】山口県山陽小野田市大字西高泊1198‐12", "url": "https://www.kaigokensaku.mhlw.go.jp/35/index.php?action_kouhyou_detail_004_kani=true&JigyosyoCd=3551680022-00&ServiceCd=220&Type=search", "url2": "https://asashion.wixsite.com/kenjinkai" }, "geometry": { "type": "Point", "coordinates": [ 131.171307663229385, 34.004424735069833 ] } },
{ "type": "Feature", "properties": { "内容": "周防大島町立介護老人保健施設さざなみ苑【短期入所療養介護（介護老人保健施設）】山口県大島郡周防大島町大字西安下庄３９２０番地１７", "url": "https://www.kaigokensaku.mhlw.go.jp/35/index.php?action_kouhyou_detail_004_kani=true&JigyosyoCd=3557180027-00&ServiceCd=220&Type=search", "url2": "http://www.kouei.so.ecomas.jp/sznm/" }, "geometry": { "type": "Point", "coordinates": [ 132.280371899999977, 33.897774 ] } },
{ "type": "Feature", "properties": { "内容": "介護老人保健施設そよかぜ【短期入所療養介護（介護老人保健施設）】山口県熊毛郡田布施町宿井414-5", "url": "https://www.kaigokensaku.mhlw.go.jp/35/index.php?action_kouhyou_detail_004_kani=true&JigyosyoCd=3557380015-00&ServiceCd=220&Type=search", "url2": "http://www.shoueikai-sakamoto.com/" }, "geometry": { "type": "Point", "coordinates": [ 132.02711, 33.9643617 ] } },
{ "type": "Feature", "properties": { "内容": "介護老人保健施設なでしこ【短期入所療養介護（介護老人保健施設）】熊毛郡平生町平生村895", "url": "https://www.kaigokensaku.mhlw.go.jp/35/index.php?action_kouhyou_detail_004_kani=true&JigyosyoCd=3557380023-00&ServiceCd=220&Type=search", "url2": "htpp://www.shoueikai-sakamoto.com" }, "geometry": { "type": "Point", "coordinates": [ 132.0681304, 33.9427362 ] } }
]
}
