{
"type": "FeatureCollection",
"name": "geo_35_小学校",
"crs": { "type": "name", "properties": { "name": "urn:ogc:def:crs:EPSG::6668" } },
"features": [
{ "type": "Feature", "properties": { "P29_001": "35203", "P29_002": "B135110000010", "P29_003": "16001", "P29_004": "山口大学教育学部附属山口小学校", "P29_005": "山口県山口市白石3-1-1", "P29_006": "1", "P29_007": "1", "P29_008": "00", "P29_009": null }, "geometry": { "type": "Point", "coordinates": [ 131.469952042269824, 34.180382513847348 ] } },
{ "type": "Feature", "properties": { "P29_001": "35210", "P29_002": "B135110000029", "P29_003": "16001", "P29_004": "山口大学教育学部附属光小学校", "P29_005": "山口県光市室積8-4-1", "P29_006": "1", "P29_007": "1", "P29_008": "00", "P29_009": null }, "geometry": { "type": "Point", "coordinates": [ 131.970224750650402, 33.919373015258046 ] } },
{ "type": "Feature", "properties": { "P29_001": "35201", "P29_002": "B135210000018", "P29_003": "16001", "P29_004": "下関市立養治小学校", "P29_005": "山口県下関市本町2-6-1", "P29_006": "3", "P29_007": "1", "P29_008": "00", "P29_009": null }, "geometry": { "type": "Point", "coordinates": [ 130.948628970996509, 33.965878992755862 ] } },
{ "type": "Feature", "properties": { "P29_001": "35201", "P29_002": "B135210000027", "P29_003": "16001", "P29_004": "下関市立文関小学校", "P29_005": "山口県下関市上田中町1-14-1", "P29_006": "3", "P29_007": "1", "P29_008": "00", "P29_009": null }, "geometry": { "type": "Point", "coordinates": [ 130.937866691334875, 33.96668620722312 ] } },
{ "type": "Feature", "properties": { "P29_001": "35201", "P29_002": "B135210000054", "P29_003": "16001", "P29_004": "下関市立関西小学校", "P29_005": "山口県下関市関西町12-1", "P29_006": "3", "P29_007": "1", "P29_008": "00", "P29_009": null }, "geometry": { "type": "Point", "coordinates": [ 130.927621585662507, 33.958033011848279 ] } },
{ "type": "Feature", "properties": { "P29_001": "35201", "P29_002": "B135210000063", "P29_003": "16001", "P29_004": "下関市立桜山小学校", "P29_005": "山口県下関市上新地町2-5-10", "P29_006": "3", "P29_007": "1", "P29_008": "00", "P29_009": null }, "geometry": { "type": "Point", "coordinates": [ 130.920236083364074, 33.960917454422216 ] } },
{ "type": "Feature", "properties": { "P29_001": "35201", "P29_002": "B135210000072", "P29_003": "16001", "P29_004": "下関市立向山小学校", "P29_005": "山口県下関市向山町14-1", "P29_006": "3", "P29_007": "1", "P29_008": "00", "P29_009": null }, "geometry": { "type": "Point", "coordinates": [ 130.925806523332852, 33.967500307031891 ] } },
{ "type": "Feature", "properties": { "P29_001": "35201", "P29_002": "B135210000081", "P29_003": "16001", "P29_004": "下関市立生野小学校", "P29_005": "山口県下関市幡生本町7-14", "P29_006": "3", "P29_007": "1", "P29_008": "00", "P29_009": null }, "geometry": { "type": "Point", "coordinates": [ 130.928685641496457, 33.978074725146243 ] } },
{ "type": "Feature", "properties": { "P29_001": "35201", "P29_002": "B135210000090", "P29_003": "16001", "P29_004": "下関市立本村小学校", "P29_005": "山口県下関市彦島本村町3-16-1", "P29_006": "3", "P29_007": "1", "P29_008": "00", "P29_009": null }, "geometry": { "type": "Point", "coordinates": [ 130.91019019097044, 33.945235425457028 ] } },
{ "type": "Feature", "properties": { "P29_001": "35201", "P29_002": "B135210000107", "P29_003": "16001", "P29_004": "下関市立西山小学校", "P29_005": "山口県下関市彦島迫町5-13-21", "P29_006": "3", "P29_007": "1", "P29_008": "00", "P29_009": null }, "geometry": { "type": "Point", "coordinates": [ 130.896123690329546, 33.942355585600218 ] } },
{ "type": "Feature", "properties": { "P29_001": "35201", "P29_002": "B135210000116", "P29_003": "16001", "P29_004": "下関市立江浦小学校", "P29_005": "山口県下関市彦島江の浦町3-4-1", "P29_006": "3", "P29_007": "1", "P29_008": "00", "P29_009": null }, "geometry": { "type": "Point", "coordinates": [ 130.915063410121007, 33.930204341041758 ] } },
{ "type": "Feature", "properties": { "P29_001": "35201", "P29_002": "B135210000125", "P29_003": "16001", "P29_004": "下関市立角倉小学校", "P29_005": "山口県下関市彦島角倉町3-5-5", "P29_006": "3", "P29_007": "1", "P29_008": "00", "P29_009": null }, "geometry": { "type": "Point", "coordinates": [ 130.91589713772845, 33.924891299632264 ] } },
{ "type": "Feature", "properties": { "P29_001": "35201", "P29_002": "B135210000134", "P29_003": "16001", "P29_004": "下関市立小月小学校", "P29_005": "山口県下関市小月西の台6-1", "P29_006": "3", "P29_007": "1", "P29_008": "00", "P29_009": null }, "geometry": { "type": "Point", "coordinates": [ 131.040196680369576, 34.071174343753363 ] } },
{ "type": "Feature", "properties": { "P29_001": "35201", "P29_002": "B135210000143", "P29_003": "16001", "P29_004": "下関市立清末小学校", "P29_005": "山口県下関市清末西町1-6-1", "P29_006": "3", "P29_007": "1", "P29_008": "00", "P29_009": null }, "geometry": { "type": "Point", "coordinates": [ 131.019129309652897, 34.06393976627561 ] } },
{ "type": "Feature", "properties": { "P29_001": "35201", "P29_002": "B135210000152", "P29_003": "16001", "P29_004": "下関市立王司小学校", "P29_005": "山口県下関市王司神田6-9-1", "P29_006": "3", "P29_007": "1", "P29_008": "00", "P29_009": null }, "geometry": { "type": "Point", "coordinates": [ 131.013422307296565, 34.050529027597491 ] } },
{ "type": "Feature", "properties": { "P29_001": "35201", "P29_002": "B135210000161", "P29_003": "16001", "P29_004": "下関市立豊浦小学校", "P29_005": "山口県下関市長府亀の甲2-2-1", "P29_006": "3", "P29_007": "1", "P29_008": "00", "P29_009": null }, "geometry": { "type": "Point", "coordinates": [ 130.988864083661667, 34.00326880364986 ] } },
{ "type": "Feature", "properties": { "P29_001": "35201", "P29_002": "B135210000170", "P29_003": "16001", "P29_004": "下関市立勝山小学校", "P29_005": "山口県下関市秋根上町2-2-1", "P29_006": "3", "P29_007": "1", "P29_008": "00", "P29_009": null }, "geometry": { "type": "Point", "coordinates": [ 130.960905805607268, 34.01000514590325 ] } },
{ "type": "Feature", "properties": { "P29_001": "35201", "P29_002": "B135210000189", "P29_003": "16001", "P29_004": "下関市立川中小学校", "P29_005": "山口県下関市伊倉本町19-1", "P29_006": "3", "P29_007": "1", "P29_008": "00", "P29_009": null }, "geometry": { "type": "Point", "coordinates": [ 130.934692701819785, 34.003344383243117 ] } },
{ "type": "Feature", "properties": { "P29_001": "35201", "P29_002": "B135210000198", "P29_003": "16001", "P29_004": "下関市立安岡小学校", "P29_005": "山口県下関市安岡町3-5-5", "P29_006": "3", "P29_007": "1", "P29_008": "00", "P29_009": null }, "geometry": { "type": "Point", "coordinates": [ 130.919776832708635, 34.028980323147117 ] } },
{ "type": "Feature", "properties": { "P29_001": "35201", "P29_002": "B135210000205", "P29_003": "16001", "P29_004": "下関市立吉見小学校", "P29_005": "山口県下関市吉見里町1-8-1", "P29_006": "3", "P29_007": "1", "P29_008": "00", "P29_009": null }, "geometry": { "type": "Point", "coordinates": [ 130.900700996189784, 34.072636000345838 ] } },
{ "type": "Feature", "properties": { "P29_001": "35201", "P29_002": "B135210000214", "P29_003": "16001", "P29_004": "下関市立吉母小学校", "P29_005": "山口県下関市大字吉母字塩谷287", "P29_006": "3", "P29_007": "1", "P29_008": "00", "P29_009": null }, "geometry": { "type": "Point", "coordinates": [ 130.878525309027168, 34.089409939590062 ] } },
{ "type": "Feature", "properties": { "P29_001": "35201", "P29_002": "B135210000223", "P29_003": "16001", "P29_004": "下関市立蓋井小学校", "P29_005": "山口県下関市大字蓋井島字田町126-2", "P29_006": "3", "P29_007": "1", "P29_008": "00", "P29_009": null }, "geometry": { "type": "Point", "coordinates": [ 130.787869514619985, 34.101771116805367 ] } },
{ "type": "Feature", "properties": { "P29_001": "35201", "P29_002": "B135210000232", "P29_003": "16001", "P29_004": "下関市立吉田小学校", "P29_005": "山口県下関市大字吉田字高田1044-2", "P29_006": "3", "P29_007": "1", "P29_008": "00", "P29_009": null }, "geometry": { "type": "Point", "coordinates": [ 131.072090509157817, 34.088819194141784 ] } },
{ "type": "Feature", "properties": { "P29_001": "35201", "P29_002": "B135210000241", "P29_003": "16001", "P29_004": "下関市立王喜小学校", "P29_005": "山口県下関市王喜本町2-12-30", "P29_006": "3", "P29_007": "1", "P29_008": "00", "P29_009": null }, "geometry": { "type": "Point", "coordinates": [ 131.054869022977471, 34.063255816201348 ] } },
{ "type": "Feature", "properties": { "P29_001": "35201", "P29_002": "B135210000250", "P29_003": "16001", "P29_004": "下関市立内日小学校", "P29_005": "山口県下関市大字内日下字坂本1031", "P29_006": "3", "P29_007": "1", "P29_008": "00", "P29_009": null }, "geometry": { "type": "Point", "coordinates": [ 130.96923940034759, 34.101116507879695 ] } },
{ "type": "Feature", "properties": { "P29_001": "35201", "P29_002": "B135210000269", "P29_003": "16001", "P29_004": "下関市立山の田小学校", "P29_005": "山口県下関市山の田中央町13-1", "P29_006": "3", "P29_007": "1", "P29_008": "00", "P29_009": null }, "geometry": { "type": "Point", "coordinates": [ 130.925544801992004, 33.987593995685977 ] } },
{ "type": "Feature", "properties": { "P29_001": "35201", "P29_002": "B135210000278", "P29_003": "16001", "P29_004": "下関市立川中西小学校", "P29_005": "山口県下関市古屋町2-9-1", "P29_006": "3", "P29_007": "1", "P29_008": "00", "P29_009": null }, "geometry": { "type": "Point", "coordinates": [ 130.918812001293958, 34.000534002441469 ] } },
{ "type": "Feature", "properties": { "P29_001": "35201", "P29_002": "B135210000287", "P29_003": "16001", "P29_004": "下関市立長府小学校", "P29_005": "山口県下関市長府松小田北町14-1", "P29_006": "3", "P29_007": "1", "P29_008": "00", "P29_009": null }, "geometry": { "type": "Point", "coordinates": [ 130.996934358160388, 34.021393480758746 ] } },
{ "type": "Feature", "properties": { "P29_001": "35201", "P29_002": "B135210000296", "P29_003": "16001", "P29_004": "下関市立向井小学校", "P29_005": "山口県下関市彦島向井町2-20-1", "P29_006": "3", "P29_007": "1", "P29_008": "00", "P29_009": null }, "geometry": { "type": "Point", "coordinates": [ 130.918440863749538, 33.917373265793358 ] } },
{ "type": "Feature", "properties": { "P29_001": "35201", "P29_002": "B135210000303", "P29_003": "16001", "P29_004": "下関市立垢田小学校", "P29_005": "山口県下関市新垢田西町1-1-1", "P29_006": "3", "P29_007": "1", "P29_008": "00", "P29_009": null }, "geometry": { "type": "Point", "coordinates": [ 130.912717360650902, 33.988955359097972 ] } },
{ "type": "Feature", "properties": { "P29_001": "35201", "P29_002": "B135210000312", "P29_003": "16001", "P29_004": "下関市立一の宮小学校", "P29_005": "山口県下関市一の宮住吉1-8-1", "P29_006": "3", "P29_007": "1", "P29_008": "00", "P29_009": null }, "geometry": { "type": "Point", "coordinates": [ 130.957171844238871, 34.00236276365117 ] } },
{ "type": "Feature", "properties": { "P29_001": "35201", "P29_002": "B135210000321", "P29_003": "16001", "P29_004": "下関市立熊野小学校", "P29_005": "山口県下関市熊野西町10-1", "P29_006": "3", "P29_007": "1", "P29_008": "00", "P29_009": null }, "geometry": { "type": "Point", "coordinates": [ 130.941764911010466, 33.995063700330959 ] } },
{ "type": "Feature", "properties": { "P29_001": "35202", "P29_002": "B135210000330", "P29_003": "16001", "P29_004": "宇部市立東岐波小学校", "P29_005": "山口県宇部市大字東岐波字立山3853", "P29_006": "3", "P29_007": "1", "P29_008": "00", "P29_009": null }, "geometry": { "type": "Point", "coordinates": [ 131.339000968807966, 33.980876757775242 ] } },
{ "type": "Feature", "properties": { "P29_001": "35202", "P29_002": "B135210000349", "P29_003": "16001", "P29_004": "宇部市立西岐波小学校", "P29_005": "山口県宇部市床波3-4-10", "P29_006": "3", "P29_007": "1", "P29_008": "00", "P29_009": null }, "geometry": { "type": "Point", "coordinates": [ 131.31151641570483, 33.956903494266193 ] } },
{ "type": "Feature", "properties": { "P29_001": "35202", "P29_002": "B135210000358", "P29_003": "16001", "P29_004": "宇部市立恩田小学校", "P29_005": "山口県宇部市笹山町1-4-1", "P29_006": "3", "P29_007": "1", "P29_008": "00", "P29_009": null }, "geometry": { "type": "Point", "coordinates": [ 131.262817579898865, 33.94221701570811 ] } },
{ "type": "Feature", "properties": { "P29_001": "35202", "P29_002": "B135210000367", "P29_003": "16001", "P29_004": "宇部市立上宇部小学校", "P29_005": "山口県宇部市大小路3-2-17", "P29_006": "3", "P29_007": "1", "P29_008": "00", "P29_009": null }, "geometry": { "type": "Point", "coordinates": [ 131.269452995478304, 33.966764999411112 ] } },
{ "type": "Feature", "properties": { "P29_001": "35202", "P29_002": "B135210000376", "P29_003": "16001", "P29_004": "宇部市立岬小学校", "P29_005": "山口県宇部市松山町5-8-10", "P29_006": "3", "P29_007": "1", "P29_008": "00", "P29_009": null }, "geometry": { "type": "Point", "coordinates": [ 131.259835753378525, 33.934757631990649 ] } },
{ "type": "Feature", "properties": { "P29_001": "35202", "P29_002": "B135210000385", "P29_003": "16001", "P29_004": "宇部市立見初小学校", "P29_005": "山口県宇部市松山町2-4-42", "P29_006": "3", "P29_007": "1", "P29_008": "00", "P29_009": null }, "geometry": { "type": "Point", "coordinates": [ 131.255509997865062, 33.943322999506734 ] } },
{ "type": "Feature", "properties": { "P29_001": "35202", "P29_002": "B135210000394", "P29_003": "16001", "P29_004": "宇部市立琴芝小学校", "P29_005": "山口県宇部市東琴芝2-3-48", "P29_006": "3", "P29_007": "1", "P29_008": "00", "P29_009": null }, "geometry": { "type": "Point", "coordinates": [ 131.256490548034691, 33.954391618387419 ] } },
{ "type": "Feature", "properties": { "P29_001": "35202", "P29_002": "B135210000401", "P29_003": "16001", "P29_004": "宇部市立神原小学校", "P29_005": "山口県宇部市神原町1-1-1", "P29_006": "3", "P29_007": "1", "P29_008": "00", "P29_009": null }, "geometry": { "type": "Point", "coordinates": [ 131.255481494121909, 33.951807157758452 ] } },
{ "type": "Feature", "properties": { "P29_001": "35202", "P29_002": "B135210000410", "P29_003": "16001", "P29_004": "宇部市立新川小学校", "P29_005": "山口県宇部市西小串1-4-25", "P29_006": "3", "P29_007": "1", "P29_008": "00", "P29_009": null }, "geometry": { "type": "Point", "coordinates": [ 131.247917587297508, 33.963617772970572 ] } },
{ "type": "Feature", "properties": { "P29_001": "35202", "P29_002": "B135210000429", "P29_003": "16001", "P29_004": "宇部市立鵜ノ島小学校", "P29_005": "山口県宇部市小松原町2-10-25", "P29_006": "3", "P29_007": "1", "P29_008": "00", "P29_009": null }, "geometry": { "type": "Point", "coordinates": [ 131.23988657893122, 33.963204225725825 ] } },
{ "type": "Feature", "properties": { "P29_001": "35202", "P29_002": "B135210000438", "P29_003": "16001", "P29_004": "宇部市立藤山小学校", "P29_005": "山口県宇部市上条4-4-1", "P29_006": "3", "P29_007": "1", "P29_008": "00", "P29_009": null }, "geometry": { "type": "Point", "coordinates": [ 131.232027246394722, 33.974549282996826 ] } },
{ "type": "Feature", "properties": { "P29_001": "35202", "P29_002": "B135210000447", "P29_003": "16001", "P29_004": "宇部市立厚南小学校", "P29_005": "山口県宇部市大字東須恵字下岡の上234", "P29_006": "3", "P29_007": "1", "P29_008": "00", "P29_009": null }, "geometry": { "type": "Point", "coordinates": [ 131.20765219490147, 33.994475720617771 ] } },
{ "type": "Feature", "properties": { "P29_001": "35202", "P29_002": "B135210000456", "P29_003": "16001", "P29_004": "宇部市立原小学校", "P29_005": "山口県宇部市大字東須恵字沖赤松4267", "P29_006": "3", "P29_007": "1", "P29_008": "00", "P29_009": null }, "geometry": { "type": "Point", "coordinates": [ 131.203341521765793, 33.966306982902481 ] } },
{ "type": "Feature", "properties": { "P29_001": "35202", "P29_002": "B135210000465", "P29_003": "16001", "P29_004": "宇部市立厚東小学校", "P29_005": "山口県宇部市大字棚井字旦山7-1", "P29_006": "3", "P29_007": "1", "P29_008": "00", "P29_009": null }, "geometry": { "type": "Point", "coordinates": [ 131.248527811575258, 34.026933109232701 ] } },
{ "type": "Feature", "properties": { "P29_001": "35202", "P29_002": "B135210000474", "P29_003": "16001", "P29_004": "宇部市立二俣瀬小学校", "P29_005": "山口県宇部市大字車地字市原36", "P29_006": "3", "P29_007": "1", "P29_008": "00", "P29_009": null }, "geometry": { "type": "Point", "coordinates": [ 131.292543698154418, 34.058027563131809 ] } },
{ "type": "Feature", "properties": { "P29_001": "35202", "P29_002": "B135210000483", "P29_003": "16001", "P29_004": "宇部市立小野小学校", "P29_005": "山口県宇部市大字小野字宮脇8317-2", "P29_006": "3", "P29_007": "1", "P29_008": "00", "P29_009": null }, "geometry": { "type": "Point", "coordinates": [ 131.320448699204746, 34.115555266393812 ] } },
{ "type": "Feature", "properties": { "P29_001": "35202", "P29_002": "B135210000492", "P29_003": "16001", "P29_004": "宇部市立常盤小学校", "P29_005": "山口県宇部市大字西岐波字論瀬1337-12", "P29_006": "3", "P29_007": "1", "P29_008": "00", "P29_009": null }, "geometry": { "type": "Point", "coordinates": [ 131.293600857177523, 33.947333576099204 ] } },
{ "type": "Feature", "properties": { "P29_001": "35202", "P29_002": "B135210000508", "P29_003": "16001", "P29_004": "宇部市立西宇部小学校", "P29_005": "山口県宇部市大字際波北迫527-1", "P29_006": "3", "P29_007": "1", "P29_008": "00", "P29_009": null }, "geometry": { "type": "Point", "coordinates": [ 131.231777135526556, 34.009568855770212 ] } },
{ "type": "Feature", "properties": { "P29_001": "35202", "P29_002": "B135210000517", "P29_003": "16001", "P29_004": "宇部市立小羽山小学校", "P29_005": "山口県宇部市東小羽山町1-4-13", "P29_006": "3", "P29_007": "1", "P29_008": "00", "P29_009": null }, "geometry": { "type": "Point", "coordinates": [ 131.263378236694848, 33.979074244174548 ] } },
{ "type": "Feature", "properties": { "P29_001": "35202", "P29_002": "B135210000526", "P29_003": "16001", "P29_004": "宇部市立川上小学校", "P29_005": "山口県宇部市大字川上字上荒野20086-1", "P29_006": "3", "P29_007": "1", "P29_008": "00", "P29_009": null }, "geometry": { "type": "Point", "coordinates": [ 131.281531474997337, 33.977157374769725 ] } },
{ "type": "Feature", "properties": { "P29_001": "35202", "P29_002": "B135210000535", "P29_003": "16001", "P29_004": "宇部市立黒石小学校", "P29_005": "山口県宇部市黒石北3-2-35", "P29_006": "3", "P29_007": "1", "P29_008": "00", "P29_009": null }, "geometry": { "type": "Point", "coordinates": [ 131.209547306871571, 33.984703561309033 ] } },
{ "type": "Feature", "properties": { "P29_001": "35203", "P29_002": "B135210000544", "P29_003": "16001", "P29_004": "山口市立宮野小学校", "P29_005": "山口県山口市宮野下3017", "P29_006": "3", "P29_007": "1", "P29_008": "00", "P29_009": null }, "geometry": { "type": "Point", "coordinates": [ 131.506130075100657, 34.199977444638051 ] } },
{ "type": "Feature", "properties": { "P29_001": "35203", "P29_002": "B135210000553", "P29_003": "16001", "P29_004": "山口市立大殿小学校", "P29_005": "山口県山口市大殿大路213", "P29_006": "3", "P29_007": "1", "P29_008": "00", "P29_009": null }, "geometry": { "type": "Point", "coordinates": [ 131.481250527084882, 34.182796585697844 ] } },
{ "type": "Feature", "properties": { "P29_001": "35203", "P29_002": "B135210000562", "P29_003": "16001", "P29_004": "山口市立白石小学校", "P29_005": "山口県山口市白石1-10-1", "P29_006": "3", "P29_007": "1", "P29_008": "00", "P29_009": null }, "geometry": { "type": "Point", "coordinates": [ 131.470805971046303, 34.177034055102169 ] } },
{ "type": "Feature", "properties": { "P29_001": "35203", "P29_002": "B135210000571", "P29_003": "16001", "P29_004": "山口市立湯田小学校", "P29_005": "山口県山口市元町2-26", "P29_006": "3", "P29_007": "1", "P29_008": "00", "P29_009": null }, "geometry": { "type": "Point", "coordinates": [ 131.457891808372409, 34.169832243695751 ] } },
{ "type": "Feature", "properties": { "P29_001": "35203", "P29_002": "B135210000580", "P29_003": "16001", "P29_004": "山口市立良城小学校", "P29_005": "山口県山口市吉敷佐畑3-3-3", "P29_006": "3", "P29_007": "1", "P29_008": "00", "P29_009": null }, "geometry": { "type": "Point", "coordinates": [ 131.429690252107775, 34.165994893332581 ] } },
{ "type": "Feature", "properties": { "P29_001": "35203", "P29_002": "B135210000599", "P29_003": "16001", "P29_004": "山口市立大歳小学校", "P29_005": "山口県山口市矢原1486", "P29_006": "3", "P29_007": "1", "P29_008": "00", "P29_009": null }, "geometry": { "type": "Point", "coordinates": [ 131.439881297849922, 34.150294870138843 ] } },
{ "type": "Feature", "properties": { "P29_001": "35203", "P29_002": "B135210000606", "P29_003": "16001", "P29_004": "山口市立平川小学校", "P29_005": "山口県山口市平井1675-2", "P29_006": "3", "P29_007": "1", "P29_008": "00", "P29_009": null }, "geometry": { "type": "Point", "coordinates": [ 131.456112485060004, 34.140765404157399 ] } },
{ "type": "Feature", "properties": { "P29_001": "35203", "P29_002": "B135210000615", "P29_003": "16001", "P29_004": "山口市立陶小学校", "P29_005": "山口県山口市陶3544", "P29_006": "3", "P29_007": "1", "P29_008": "00", "P29_009": null }, "geometry": { "type": "Point", "coordinates": [ 131.429726970566946, 34.090271570868843 ] } },
{ "type": "Feature", "properties": { "P29_001": "35203", "P29_002": "B135210000624", "P29_003": "16001", "P29_004": "山口市立名田島小学校", "P29_005": "山口県山口市名田島1538-2", "P29_006": "3", "P29_007": "1", "P29_008": "00", "P29_009": null }, "geometry": { "type": "Point", "coordinates": [ 131.415192196079374, 34.076528558448928 ] } },
{ "type": "Feature", "properties": { "P29_001": "35203", "P29_002": "B135210000633", "P29_003": "16001", "P29_004": "山口市立二島小学校", "P29_005": "山口県山口市秋穂二島6165", "P29_006": "3", "P29_007": "1", "P29_008": "00", "P29_009": null }, "geometry": { "type": "Point", "coordinates": [ 131.420244996112331, 34.038149997369828 ] } },
{ "type": "Feature", "properties": { "P29_001": "35203", "P29_002": "B135210000642", "P29_003": "16001", "P29_004": "山口市立嘉川小学校", "P29_005": "山口県山口市嘉川4986", "P29_006": "3", "P29_007": "1", "P29_008": "00", "P29_009": null }, "geometry": { "type": "Point", "coordinates": [ 131.375843585802528, 34.076199419633646 ] } },
{ "type": "Feature", "properties": { "P29_001": "35203", "P29_002": "B135210000651", "P29_003": "16001", "P29_004": "山口市立興進小学校", "P29_005": "山口県山口市江崎2284", "P29_006": "3", "P29_007": "1", "P29_008": "00", "P29_009": null }, "geometry": { "type": "Point", "coordinates": [ 131.369897710340581, 34.057474720410539 ] } },
{ "type": "Feature", "properties": { "P29_001": "35203", "P29_002": "B135210000660", "P29_003": "16001", "P29_004": "山口市立佐山小学校", "P29_005": "山口県山口市佐山2731", "P29_006": "3", "P29_007": "1", "P29_008": "00", "P29_009": null }, "geometry": { "type": "Point", "coordinates": [ 131.360494216999825, 34.036658706720502 ] } },
{ "type": "Feature", "properties": { "P29_001": "35203", "P29_002": "B135210000679", "P29_003": "16001", "P29_004": "山口市立鋳銭司小学校", "P29_005": "山口県山口市鋳銭司4010", "P29_006": "3", "P29_007": "1", "P29_008": "00", "P29_009": null }, "geometry": { "type": "Point", "coordinates": [ 131.454009036866012, 34.08578329545319 ] } },
{ "type": "Feature", "properties": { "P29_001": "35203", "P29_002": "B135210000688", "P29_003": "16001", "P29_004": "山口市立仁保小学校", "P29_005": "山口県山口市仁保中郷81", "P29_006": "3", "P29_007": "1", "P29_008": "00", "P29_009": null }, "geometry": { "type": "Point", "coordinates": [ 131.555415829599383, 34.214491637088472 ] } },
{ "type": "Feature", "properties": { "P29_001": "35203", "P29_002": "B135210000697", "P29_003": "16001", "P29_004": "山口市立小鯖小学校", "P29_005": "山口県山口市下小鯖2519", "P29_006": "3", "P29_007": "1", "P29_008": "00", "P29_009": null }, "geometry": { "type": "Point", "coordinates": [ 131.524993311111416, 34.128275131119516 ] } },
{ "type": "Feature", "properties": { "P29_001": "35203", "P29_002": "B135210000704", "P29_003": "16001", "P29_004": "山口市立大内小学校", "P29_005": "山口県山口市大内矢田北1-16-1", "P29_006": "3", "P29_007": "1", "P29_008": "00", "P29_009": null }, "geometry": { "type": "Point", "coordinates": [ 131.499791176183805, 34.15726400625401 ] } },
{ "type": "Feature", "properties": { "P29_001": "35203", "P29_002": "B135210000713", "P29_003": "16001", "P29_004": "山口市立大内南小学校", "P29_005": "山口県山口市大内矢田南2-4-1", "P29_006": "3", "P29_007": "1", "P29_008": "00", "P29_009": null }, "geometry": { "type": "Point", "coordinates": [ 131.497054267774104, 34.150426942045485 ] } },
{ "type": "Feature", "properties": { "P29_001": "35204", "P29_002": "B135210000722", "P29_003": "16001", "P29_004": "萩市立明倫小学校", "P29_005": "山口県萩市大字江向475", "P29_006": "3", "P29_007": "1", "P29_008": "00", "P29_009": null }, "geometry": { "type": "Point", "coordinates": [ 131.398820914303599, 34.410546013730531 ] } },
{ "type": "Feature", "properties": { "P29_001": "35204", "P29_002": "B135210000731", "P29_003": "16001", "P29_004": "萩市立椿東小学校", "P29_005": "山口県萩市大字椿東2710-1", "P29_006": "3", "P29_007": "1", "P29_008": "00", "P29_009": null }, "geometry": { "type": "Point", "coordinates": [ 131.417510821323333, 34.413939535268931 ] } },
{ "type": "Feature", "properties": { "P29_001": "35204", "P29_002": "B135210000740", "P29_003": "16001", "P29_004": "萩市立越ヶ浜小学校", "P29_005": "山口県萩市大字椿東6088", "P29_006": "3", "P29_007": "1", "P29_008": "00", "P29_009": null }, "geometry": { "type": "Point", "coordinates": [ 131.421441763063314, 34.443839686767035 ] } },
{ "type": "Feature", "properties": { "P29_001": "35204", "P29_002": "B135210000759", "P29_003": "16001", "P29_004": "萩市立椿西小学校", "P29_005": "山口県萩市大字椿3332-1", "P29_006": "3", "P29_007": "1", "P29_008": "00", "P29_009": null }, "geometry": { "type": "Point", "coordinates": [ 131.398456749353272, 34.397238667923304 ] } },
{ "type": "Feature", "properties": { "P29_001": "35204", "P29_002": "B135210000768", "P29_003": "16001", "P29_004": "萩市立白水小学校", "P29_005": "山口県萩市大字山田4522", "P29_006": "3", "P29_007": "1", "P29_008": "00", "P29_009": null }, "geometry": { "type": "Point", "coordinates": [ 131.376059455055781, 34.397123575571392 ] } },
{ "type": "Feature", "properties": { "P29_001": "35204", "P29_002": "B135210000777", "P29_003": "16001", "P29_004": "萩市立三見小学校", "P29_005": "山口県萩市三見3523-1", "P29_006": "3", "P29_007": "1", "P29_008": "00", "P29_009": null }, "geometry": { "type": "Point", "coordinates": [ 131.333359564332255, 34.391939048073766 ] } },
{ "type": "Feature", "properties": { "P29_001": "35204", "P29_002": "B135210000786", "P29_003": "16001", "P29_004": "萩市立大井小学校", "P29_005": "山口県萩市大井1126", "P29_006": "3", "P29_007": "1", "P29_008": "00", "P29_009": null }, "geometry": { "type": "Point", "coordinates": [ 131.456736574204598, 34.468030565148865 ] } },
{ "type": "Feature", "properties": { "P29_001": "35204", "P29_002": "B135210000795", "P29_003": "16001", "P29_004": "萩市立大島小学校", "P29_005": "山口県萩市大島211", "P29_006": "3", "P29_007": "1", "P29_008": "00", "P29_009": null }, "geometry": { "type": "Point", "coordinates": [ 131.405019058529632, 34.492758836714003 ] } },
{ "type": "Feature", "properties": { "P29_001": "35204", "P29_002": "B135210000802", "P29_003": "16001", "P29_004": "萩市立相島小学校", "P29_005": "山口県萩市相島9", "P29_006": "3", "P29_007": "1", "P29_008": "00", "P29_009": null }, "geometry": { "type": "Point", "coordinates": [ 131.281880587687482, 34.503169613485817 ] } },
{ "type": "Feature", "properties": { "P29_001": "35204", "P29_002": "B135210000811", "P29_003": "16001", "P29_004": "萩市立見島小学校", "P29_005": "山口県萩市見島657", "P29_006": "3", "P29_007": "1", "P29_008": "00", "P29_009": null }, "geometry": { "type": "Point", "coordinates": [ 131.15173383947797, 34.764809024318239 ] } },
{ "type": "Feature", "properties": { "P29_001": "35215", "P29_002": "B135210000820", "P29_003": "16001", "P29_004": "周南市立徳山小学校", "P29_005": "山口県周南市毛利町1-1", "P29_006": "3", "P29_007": "1", "P29_008": "00", "P29_009": null }, "geometry": { "type": "Point", "coordinates": [ 131.809182312149858, 34.054570984401721 ] } },
{ "type": "Feature", "properties": { "P29_001": "35215", "P29_002": "B135210000839", "P29_003": "16001", "P29_004": "周南市立遠石小学校", "P29_005": "山口県周南市遠石1-3-48", "P29_006": "3", "P29_007": "1", "P29_008": "00", "P29_009": null }, "geometry": { "type": "Point", "coordinates": [ 131.818339921061721, 34.042562889381635 ] } },
{ "type": "Feature", "properties": { "P29_001": "35215", "P29_002": "B135210000848", "P29_003": "16001", "P29_004": "周南市立今宿小学校", "P29_005": "山口県周南市今住町1-40", "P29_006": "3", "P29_007": "1", "P29_008": "00", "P29_009": null }, "geometry": { "type": "Point", "coordinates": [ 131.802771003089589, 34.062419107040292 ] } },
{ "type": "Feature", "properties": { "P29_001": "35215", "P29_002": "B135210000857", "P29_003": "16001", "P29_004": "周南市立久米小学校", "P29_005": "山口県周南市大字久米3417", "P29_006": "3", "P29_007": "1", "P29_008": "00", "P29_009": null }, "geometry": { "type": "Point", "coordinates": [ 131.844843806860439, 34.040954681015286 ] } },
{ "type": "Feature", "properties": { "P29_001": "35215", "P29_002": "B135210000866", "P29_003": "16001", "P29_004": "周南市立久米小学校譲羽分校", "P29_005": "山口県周南市大字譲羽559-1", "P29_006": "3", "P29_007": "9", "P29_008": "00", "P29_009": null }, "geometry": { "type": "Point", "coordinates": [ 131.860658616845939, 34.067180000562537 ] } },
{ "type": "Feature", "properties": { "P29_001": "35215", "P29_002": "B135210000875", "P29_003": "16001", "P29_004": "周南市立菊川小学校", "P29_005": "山口県周南市大字下上80-1", "P29_006": "3", "P29_007": "1", "P29_008": "00", "P29_009": null }, "geometry": { "type": "Point", "coordinates": [ 131.784036796100025, 34.089838262042484 ] } },
{ "type": "Feature", "properties": { "P29_001": "35215", "P29_002": "B135210000884", "P29_003": "16001", "P29_004": "周南市立櫛浜小学校", "P29_005": "山口県周南市大字栗屋860", "P29_006": "3", "P29_007": "1", "P29_008": "00", "P29_009": null }, "geometry": { "type": "Point", "coordinates": [ 131.832199636378931, 34.021654433491669 ] } },
{ "type": "Feature", "properties": { "P29_001": "35215", "P29_002": "B135210000893", "P29_003": "16001", "P29_004": "周南市立四熊小学校", "P29_005": "山口県周南市大字四熊1547", "P29_006": "3", "P29_007": "9", "P29_008": "00", "P29_009": null }, "geometry": { "type": "Point", "coordinates": [ 131.764903216218812, 34.112139151573203 ] } },
{ "type": "Feature", "properties": { "P29_001": "35215", "P29_002": "B135210000900", "P29_003": "16001", "P29_004": "周南市立小畑小学校", "P29_005": "山口県周南市大字小畑190", "P29_006": "3", "P29_007": "9", "P29_008": "00", "P29_009": null }, "geometry": { "type": "Point", "coordinates": [ 131.756129367340861, 34.0896890621285 ] } },
{ "type": "Feature", "properties": { "P29_001": "35215", "P29_002": "B135210000919", "P29_003": "16001", "P29_004": "周南市立夜市小学校", "P29_005": "山口県周南市大字夜市730", "P29_006": "3", "P29_007": "1", "P29_008": "00", "P29_009": null }, "geometry": { "type": "Point", "coordinates": [ 131.716200667817105, 34.082683850779098 ] } },
{ "type": "Feature", "properties": { "P29_001": "35215", "P29_002": "B135210000928", "P29_003": "16001", "P29_004": "周南市立戸田小学校", "P29_005": "山口県周南市大字戸田2527-2", "P29_006": "3", "P29_007": "1", "P29_008": "00", "P29_009": null }, "geometry": { "type": "Point", "coordinates": [ 131.688260188625861, 34.07848284946251 ] } },
{ "type": "Feature", "properties": { "P29_001": "35215", "P29_002": "B135210000937", "P29_003": "16001", "P29_004": "周南市立湯野小学校", "P29_005": "山口県周南市大字湯野3843", "P29_006": "3", "P29_007": "1", "P29_008": "00", "P29_009": null }, "geometry": { "type": "Point", "coordinates": [ 131.677962673949253, 34.099678269475007 ] } },
{ "type": "Feature", "properties": { "P29_001": "35215", "P29_002": "B135210000946", "P29_003": "16001", "P29_004": "周南市立大向小学校", "P29_005": "山口県周南市大字大向1652-1", "P29_006": "3", "P29_007": "9", "P29_008": "00", "P29_009": null }, "geometry": { "type": "Point", "coordinates": [ 131.818441669267827, 34.181471002878759 ] } },
{ "type": "Feature", "properties": { "P29_001": "35215", "P29_002": "B135210000955", "P29_003": "16001", "P29_004": "周南市立岐山小学校", "P29_005": "山口県周南市大字徳山5673", "P29_006": "3", "P29_007": "1", "P29_008": "00", "P29_009": null }, "geometry": { "type": "Point", "coordinates": [ 131.818311424134805, 34.059877646588127 ] } },
{ "type": "Feature", "properties": { "P29_001": "35215", "P29_002": "B135210000964", "P29_003": "16001", "P29_004": "周南市立須磨小学校", "P29_005": "山口県周南市大字須万2581", "P29_006": "3", "P29_007": "1", "P29_008": "00", "P29_009": null }, "geometry": { "type": "Point", "coordinates": [ 131.922158741851888, 34.20076272187594 ] } },
{ "type": "Feature", "properties": { "P29_001": "35215", "P29_002": "B135210000973", "P29_003": "16001", "P29_004": "周南市立須磨小学校峰畑分校", "P29_005": "山口県周南市大字須万3834", "P29_006": "3", "P29_007": "9", "P29_008": "00", "P29_009": null }, "geometry": { "type": "Point", "coordinates": [ 131.922052132347375, 34.201229629292754 ] } },
{ "type": "Feature", "properties": { "P29_001": "35215", "P29_002": "B135210000982", "P29_003": "16001", "P29_004": "周南市立中須小学校", "P29_005": "山口県周南市大字中須南2583", "P29_006": "3", "P29_007": "9", "P29_008": "00", "P29_009": null }, "geometry": { "type": "Point", "coordinates": [ 131.91858505758475, 34.114672838935263 ] } },
{ "type": "Feature", "properties": { "P29_001": "35215", "P29_002": "B135210000991", "P29_003": "16001", "P29_004": "周南市立沼城小学校", "P29_005": "山口県周南市大字須々万本郷514", "P29_006": "3", "P29_007": "1", "P29_008": "00", "P29_009": null }, "geometry": { "type": "Point", "coordinates": [ 131.867703997420563, 34.121568999812986 ] } },
{ "type": "Feature", "properties": { "P29_001": "35215", "P29_002": "B135210001008", "P29_003": "16001", "P29_004": "周南市立周陽小学校", "P29_005": "山口県周南市周陽1-15-1", "P29_006": "3", "P29_007": "1", "P29_008": "00", "P29_009": null }, "geometry": { "type": "Point", "coordinates": [ 131.82841103736331, 34.047489847559262 ] } },
{ "type": "Feature", "properties": { "P29_001": "35215", "P29_002": "B135210001017", "P29_003": "16001", "P29_004": "周南市立秋月小学校", "P29_005": "山口県周南市秋月1-1-50", "P29_006": "3", "P29_007": "1", "P29_008": "00", "P29_009": null }, "geometry": { "type": "Point", "coordinates": [ 131.826491579869497, 34.054138612600191 ] } },
{ "type": "Feature", "properties": { "P29_001": "35215", "P29_002": "B135210001026", "P29_003": "16001", "P29_004": "周南市立桜木小学校", "P29_005": "山口県周南市桜木1-11-1", "P29_006": "3", "P29_007": "1", "P29_008": "00", "P29_009": null }, "geometry": { "type": "Point", "coordinates": [ 131.838340919597613, 34.041219308257531 ] } },
{ "type": "Feature", "properties": { "P29_001": "35215", "P29_002": "B135210001035", "P29_003": "16001", "P29_004": "周南市立大津島小学校", "P29_005": "山口県周南市大字大津島1964-1", "P29_006": "3", "P29_007": "1", "P29_008": "00", "P29_009": null }, "geometry": { "type": "Point", "coordinates": [ 131.718566075201608, 33.991061426880137 ] } },
{ "type": "Feature", "properties": { "P29_001": "35215", "P29_002": "B135210001044", "P29_003": "16001", "P29_004": "周南市立鼓南小学校", "P29_005": "山口県周南市大字大島1436", "P29_006": "3", "P29_007": "1", "P29_008": "00", "P29_009": null }, "geometry": { "type": "Point", "coordinates": [ 131.778265262519909, 33.983478948840798 ] } },
{ "type": "Feature", "properties": { "P29_001": "35206", "P29_002": "B135210001053", "P29_003": "16001", "P29_004": "防府市立富海小学校", "P29_005": "山口県防府市大字富海1248", "P29_006": "3", "P29_007": "1", "P29_008": "00", "P29_009": null }, "geometry": { "type": "Point", "coordinates": [ 131.646880238736884, 34.051720773020712 ] } },
{ "type": "Feature", "properties": { "P29_001": "35206", "P29_002": "B135210001062", "P29_003": "16001", "P29_004": "防府市立牟礼小学校", "P29_005": "山口県防府市大字牟礼106", "P29_006": "3", "P29_007": "1", "P29_008": "00", "P29_009": null }, "geometry": { "type": "Point", "coordinates": [ 131.605811288704103, 34.056410918758161 ] } },
{ "type": "Feature", "properties": { "P29_001": "35206", "P29_002": "B135210001071", "P29_003": "16001", "P29_004": "防府市立勝間小学校", "P29_005": "山口県防府市警固町2-3-1", "P29_006": "3", "P29_007": "1", "P29_008": "00", "P29_009": null }, "geometry": { "type": "Point", "coordinates": [ 131.58206007063589, 34.051238300696163 ] } },
{ "type": "Feature", "properties": { "P29_001": "35206", "P29_002": "B135210001080", "P29_003": "16001", "P29_004": "防府市立松崎小学校", "P29_005": "山口県防府市東松崎町1-1", "P29_006": "3", "P29_007": "1", "P29_008": "00", "P29_009": null }, "geometry": { "type": "Point", "coordinates": [ 131.57606739425546, 34.059354305868503 ] } },
{ "type": "Feature", "properties": { "P29_001": "35206", "P29_002": "B135210001099", "P29_003": "16001", "P29_004": "防府市立華浦小学校", "P29_005": "山口県防府市華浦2-2-2", "P29_006": "3", "P29_007": "1", "P29_008": "00", "P29_009": null }, "geometry": { "type": "Point", "coordinates": [ 131.569084270120186, 34.040830114061123 ] } },
{ "type": "Feature", "properties": { "P29_001": "35206", "P29_002": "B135210001106", "P29_003": "16001", "P29_004": "防府市立新田小学校", "P29_005": "山口県防府市大字新田1014-1", "P29_006": "3", "P29_007": "1", "P29_008": "00", "P29_009": null }, "geometry": { "type": "Point", "coordinates": [ 131.571627234371476, 34.032269283081192 ] } },
{ "type": "Feature", "properties": { "P29_001": "35206", "P29_002": "B135210001115", "P29_003": "16001", "P29_004": "防府市立野島小学校", "P29_005": "山口県防府市大字野島158-1", "P29_006": "3", "P29_007": "1", "P29_008": "00", "P29_009": null }, "geometry": { "type": "Point", "coordinates": [ 131.696021348056632, 33.943781915807612 ] } },
{ "type": "Feature", "properties": { "P29_001": "35206", "P29_002": "B135210001124", "P29_003": "16001", "P29_004": "防府市立向島小学校", "P29_005": "山口県防府市大字向島775", "P29_006": "3", "P29_007": "1", "P29_008": "00", "P29_009": null }, "geometry": { "type": "Point", "coordinates": [ 131.578793788447683, 34.018353435944867 ] } },
{ "type": "Feature", "properties": { "P29_001": "35206", "P29_002": "B135210001133", "P29_003": "16001", "P29_004": "防府市立中関小学校", "P29_005": "山口県防府市大字浜方746", "P29_006": "3", "P29_007": "1", "P29_008": "00", "P29_009": null }, "geometry": { "type": "Point", "coordinates": [ 131.548905818659762, 34.018386422065738 ] } },
{ "type": "Feature", "properties": { "P29_001": "35206", "P29_002": "B135210001142", "P29_003": "16001", "P29_004": "防府市立西浦小学校", "P29_005": "山口県防府市大字西浦1944-1", "P29_006": "3", "P29_007": "1", "P29_008": "00", "P29_009": null }, "geometry": { "type": "Point", "coordinates": [ 131.520940249430112, 34.022999598951692 ] } },
{ "type": "Feature", "properties": { "P29_001": "35206", "P29_002": "B135210001151", "P29_003": "16001", "P29_004": "防府市立華城小学校", "P29_005": "山口県防府市華城中央2-2-1", "P29_006": "3", "P29_007": "1", "P29_008": "00", "P29_009": null }, "geometry": { "type": "Point", "coordinates": [ 131.544543898952213, 34.046640256078966 ] } },
{ "type": "Feature", "properties": { "P29_001": "35206", "P29_002": "B135210001160", "P29_003": "16001", "P29_004": "防府市立佐波小学校", "P29_005": "山口県防府市八王子2-6-10", "P29_006": "3", "P29_007": "1", "P29_008": "00", "P29_009": null }, "geometry": { "type": "Point", "coordinates": [ 131.565812840037381, 34.058471910253012 ] } },
{ "type": "Feature", "properties": { "P29_001": "35206", "P29_002": "B135210001179", "P29_003": "16001", "P29_004": "防府市立小野小学校", "P29_005": "山口県防府市大字奈美633-1", "P29_006": "3", "P29_007": "1", "P29_008": "00", "P29_009": null }, "geometry": { "type": "Point", "coordinates": [ 131.603225001691754, 34.12173800105316 ] } },
{ "type": "Feature", "properties": { "P29_001": "35206", "P29_002": "B135210001188", "P29_003": "16001", "P29_004": "防府市立右田小学校", "P29_005": "山口県防府市大字下右田86-2", "P29_006": "3", "P29_007": "1", "P29_008": "00", "P29_009": null }, "geometry": { "type": "Point", "coordinates": [ 131.561885626276336, 34.076635917095707 ] } },
{ "type": "Feature", "properties": { "P29_001": "35206", "P29_002": "B135210001197", "P29_003": "16001", "P29_004": "防府市立玉祖小学校", "P29_005": "山口県防府市大字大崎1802", "P29_006": "3", "P29_007": "1", "P29_008": "00", "P29_009": null }, "geometry": { "type": "Point", "coordinates": [ 131.530292759644311, 34.057248662719154 ] } },
{ "type": "Feature", "properties": { "P29_001": "35206", "P29_002": "B135210001204", "P29_003": "16001", "P29_004": "防府市立大道小学校", "P29_005": "山口県防府市大字台道400-1", "P29_006": "3", "P29_007": "1", "P29_008": "00", "P29_009": null }, "geometry": { "type": "Point", "coordinates": [ 131.489420279757439, 34.059550403123772 ] } },
{ "type": "Feature", "properties": { "P29_001": "35206", "P29_002": "B135210001213", "P29_003": "16001", "P29_004": "防府市立牟礼南小学校", "P29_005": "山口県防府市大字江泊1361", "P29_006": "3", "P29_007": "1", "P29_008": "00", "P29_009": null }, "geometry": { "type": "Point", "coordinates": [ 131.6058852627215, 34.052939726165526 ] } },
{ "type": "Feature", "properties": { "P29_001": "35207", "P29_002": "B135210001222", "P29_003": "16001", "P29_004": "下松市立下松小学校", "P29_005": "山口県下松市大字西豊井698", "P29_006": "3", "P29_007": "1", "P29_008": "00", "P29_009": null }, "geometry": { "type": "Point", "coordinates": [ 131.871478319408567, 34.012358260092057 ] } },
{ "type": "Feature", "properties": { "P29_001": "35207", "P29_002": "B135210001231", "P29_003": "16001", "P29_004": "下松市立久保小学校", "P29_005": "山口県下松市大字河内764-3", "P29_006": "3", "P29_007": "1", "P29_008": "00", "P29_009": null }, "geometry": { "type": "Point", "coordinates": [ 131.907987018511903, 34.029829418431113 ] } },
{ "type": "Feature", "properties": { "P29_001": "35207", "P29_002": "B135210001240", "P29_003": "16001", "P29_004": "下松市立公集小学校", "P29_005": "山口県下松市潮音町1-1-1", "P29_006": "3", "P29_007": "1", "P29_008": "00", "P29_009": null }, "geometry": { "type": "Point", "coordinates": [ 131.855768218290052, 34.018787839003075 ] } },
{ "type": "Feature", "properties": { "P29_001": "35207", "P29_002": "B135210001259", "P29_003": "16001", "P29_004": "下松市立花岡小学校", "P29_005": "山口県下松市大字末武上255-1", "P29_006": "3", "P29_007": "1", "P29_008": "00", "P29_009": null }, "geometry": { "type": "Point", "coordinates": [ 131.874233025370785, 34.03844348311479 ] } },
{ "type": "Feature", "properties": { "P29_001": "35207", "P29_002": "B135210001268", "P29_003": "16001", "P29_004": "下松市立豊井小学校", "P29_005": "山口県下松市大字東豊井1134-1", "P29_006": "3", "P29_007": "1", "P29_008": "00", "P29_009": null }, "geometry": { "type": "Point", "coordinates": [ 131.878220057670461, 33.999588551148896 ] } },
{ "type": "Feature", "properties": { "P29_001": "35207", "P29_002": "B135210001277", "P29_003": "16001", "P29_004": "下松市立中村小学校", "P29_005": "山口県下松市清瀬町2-6-1", "P29_006": "3", "P29_007": "1", "P29_008": "00", "P29_009": null }, "geometry": { "type": "Point", "coordinates": [ 131.855159408268577, 34.029728705651294 ] } },
{ "type": "Feature", "properties": { "P29_001": "35207", "P29_002": "B135210001286", "P29_003": "16001", "P29_004": "下松市立米川小学校", "P29_005": "山口県下松市大字下谷441-2", "P29_006": "3", "P29_007": "9", "P29_008": "00", "P29_009": null }, "geometry": { "type": "Point", "coordinates": [ 131.879620001554457, 34.086545004007483 ] } },
{ "type": "Feature", "properties": { "P29_001": "35207", "P29_002": "B135210001295", "P29_003": "16001", "P29_004": "下松市立東陽小学校", "P29_005": "山口県下松市東陽4-17-1", "P29_006": "3", "P29_007": "1", "P29_008": "00", "P29_009": null }, "geometry": { "type": "Point", "coordinates": [ 131.913838189956749, 34.035262695333856 ] } },
{ "type": "Feature", "properties": { "P29_001": "35208", "P29_002": "B135210001302", "P29_003": "16001", "P29_004": "岩国市立小瀬小学校", "P29_005": "山口県岩国市小瀬288-1", "P29_006": "3", "P29_007": "1", "P29_008": "00", "P29_009": null }, "geometry": { "type": "Point", "coordinates": [ 132.193473499249137, 34.20902553727629 ] } },
{ "type": "Feature", "properties": { "P29_001": "35208", "P29_002": "B135210001311", "P29_003": "16001", "P29_004": "岩国市立御庄小学校", "P29_005": "山口県岩国市御庄1362", "P29_006": "3", "P29_007": "1", "P29_008": "00", "P29_009": null }, "geometry": { "type": "Point", "coordinates": [ 132.147295720189248, 34.162429252224797 ] } },
{ "type": "Feature", "properties": { "P29_001": "35208", "P29_002": "B135210001320", "P29_003": "16001", "P29_004": "岩国市立藤河小学校", "P29_005": "山口県岩国市多田1365-2", "P29_006": "3", "P29_007": "1", "P29_008": "00", "P29_009": null }, "geometry": { "type": "Point", "coordinates": [ 132.160286964919919, 34.185678146172883 ] } },
{ "type": "Feature", "properties": { "P29_001": "35208", "P29_002": "B135210001339", "P29_003": "16001", "P29_004": "岩国市立杭名小学校", "P29_005": "山口県岩国市杭名18-2", "P29_006": "3", "P29_007": "1", "P29_008": "00", "P29_009": null }, "geometry": { "type": "Point", "coordinates": [ 132.109092877112857, 34.172751686859776 ] } },
{ "type": "Feature", "properties": { "P29_001": "35208", "P29_002": "B135210001348", "P29_003": "16001", "P29_004": "岩国市立天尾小学校", "P29_005": "山口県岩国市天尾262", "P29_006": "3", "P29_007": "9", "P29_008": "00", "P29_009": null }, "geometry": { "type": "Point", "coordinates": [ 132.064945119220681, 34.172815852871771 ] } },
{ "type": "Feature", "properties": { "P29_001": "35208", "P29_002": "B135210001357", "P29_003": "16001", "P29_004": "岩国市立河内小学校", "P29_005": "山口県岩国市土生82", "P29_006": "3", "P29_007": "1", "P29_008": "00", "P29_009": null }, "geometry": { "type": "Point", "coordinates": [ 132.102079605450427, 34.152197758048942 ] } },
{ "type": "Feature", "properties": { "P29_001": "35208", "P29_002": "B135210001366", "P29_003": "16001", "P29_004": "岩国市立柱野小学校", "P29_005": "山口県岩国市柱野1092-3", "P29_006": "3", "P29_007": "1", "P29_008": "00", "P29_009": null }, "geometry": { "type": "Point", "coordinates": [ 132.149101963984322, 34.131899185066281 ] } },
{ "type": "Feature", "properties": { "P29_001": "35208", "P29_002": "B135210001375", "P29_003": "16001", "P29_004": "岩国市立通津小学校", "P29_005": "山口県岩国市通津2720", "P29_006": "3", "P29_007": "1", "P29_008": "00", "P29_009": null }, "geometry": { "type": "Point", "coordinates": [ 132.204337629887448, 34.074098866598057 ] } },
{ "type": "Feature", "properties": { "P29_001": "35208", "P29_002": "B135210001384", "P29_003": "16001", "P29_004": "岩国市立通津小学校通西分校", "P29_005": "山口県岩国市長野659", "P29_006": "3", "P29_007": "9", "P29_008": "00", "P29_009": null }, "geometry": { "type": "Point", "coordinates": [ 132.195590003521744, 34.058410001834147 ] } },
{ "type": "Feature", "properties": { "P29_001": "35208", "P29_002": "B135210001393", "P29_003": "16001", "P29_004": "岩国市立岩国小学校", "P29_005": "山口県岩国市岩国3-1-18", "P29_006": "3", "P29_007": "1", "P29_008": "00", "P29_009": null }, "geometry": { "type": "Point", "coordinates": [ 132.185741262445333, 34.16446041248431 ] } },
{ "type": "Feature", "properties": { "P29_001": "35208", "P29_002": "B135210001400", "P29_003": "16001", "P29_004": "岩国市立麻里布小学校", "P29_005": "山口県岩国市山手町1-7-41", "P29_006": "3", "P29_007": "1", "P29_008": "00", "P29_009": null }, "geometry": { "type": "Point", "coordinates": [ 132.215581376466616, 34.169320636385052 ] } },
{ "type": "Feature", "properties": { "P29_001": "35208", "P29_002": "B135210001419", "P29_003": "16001", "P29_004": "岩国市立装港小学校", "P29_005": "山口県岩国市新港町4-16-30", "P29_006": "3", "P29_007": "1", "P29_008": "00", "P29_009": null }, "geometry": { "type": "Point", "coordinates": [ 132.229879505494523, 34.19246306192516 ] } },
{ "type": "Feature", "properties": { "P29_001": "35208", "P29_002": "B135210001428", "P29_003": "16001", "P29_004": "岩国市立柱島小学校", "P29_005": "山口県岩国市柱島50-2", "P29_006": "3", "P29_007": "9", "P29_008": "00", "P29_009": null }, "geometry": { "type": "Point", "coordinates": [ 132.418156442713212, 34.021069997702647 ] } },
{ "type": "Feature", "properties": { "P29_001": "35208", "P29_002": "B135210001437", "P29_003": "16001", "P29_004": "岩国市立黒島小学校", "P29_005": "山口県岩国市柱島2491", "P29_006": "3", "P29_007": "9", "P29_008": "00", "P29_009": null }, "geometry": { "type": "Point", "coordinates": [ 132.334775000503129, 33.996239998392205 ] } },
{ "type": "Feature", "properties": { "P29_001": "35208", "P29_002": "B135210001446", "P29_003": "16001", "P29_004": "岩国市立端島小学校", "P29_005": "山口県岩国市柱島2245-1", "P29_006": "3", "P29_007": "9", "P29_008": "00", "P29_009": null }, "geometry": { "type": "Point", "coordinates": [ 132.385550001629582, 34.034164998171114 ] } },
{ "type": "Feature", "properties": { "P29_001": "35208", "P29_002": "B135210001455", "P29_003": "16001", "P29_004": "岩国市立川下小学校", "P29_005": "山口県岩国市車町1-1-43", "P29_006": "3", "P29_007": "1", "P29_008": "00", "P29_009": null }, "geometry": { "type": "Point", "coordinates": [ 132.213716905257257, 34.158214219850123 ] } },
{ "type": "Feature", "properties": { "P29_001": "35208", "P29_002": "B135210001464", "P29_003": "16001", "P29_004": "岩国市立愛宕小学校", "P29_005": "山口県岩国市尾津町1-1-11", "P29_006": "3", "P29_007": "1", "P29_008": "00", "P29_009": null }, "geometry": { "type": "Point", "coordinates": [ 132.213388401205009, 34.145533613253114 ] } },
{ "type": "Feature", "properties": { "P29_001": "35208", "P29_002": "B135210001473", "P29_003": "16001", "P29_004": "岩国市立灘小学校", "P29_005": "山口県岩国市南岩国町5-60-1", "P29_006": "3", "P29_007": "1", "P29_008": "00", "P29_009": null }, "geometry": { "type": "Point", "coordinates": [ 132.1983224124495, 34.121292385224358 ] } },
{ "type": "Feature", "properties": { "P29_001": "35208", "P29_002": "B135210001482", "P29_003": "16001", "P29_004": "岩国市立中洋小学校", "P29_005": "山口県岩国市青木町2-33-1", "P29_006": "3", "P29_007": "1", "P29_008": "00", "P29_009": null }, "geometry": { "type": "Point", "coordinates": [ 132.202008300389878, 34.099469168155316 ] } },
{ "type": "Feature", "properties": { "P29_001": "35208", "P29_002": "B135210001491", "P29_003": "16001", "P29_004": "岩国市立平田小学校", "P29_005": "山口県岩国市平田3-5-1", "P29_006": "3", "P29_007": "1", "P29_008": "00", "P29_009": null }, "geometry": { "type": "Point", "coordinates": [ 132.184458752636914, 34.144314455220396 ] } },
{ "type": "Feature", "properties": { "P29_001": "35208", "P29_002": "B135210001507", "P29_003": "16001", "P29_004": "岩国市立東小学校", "P29_005": "山口県岩国市三笠町2-1-9", "P29_006": "3", "P29_007": "1", "P29_008": "00", "P29_009": null }, "geometry": { "type": "Point", "coordinates": [ 132.226967077881255, 34.169700610016413 ] } },
{ "type": "Feature", "properties": { "P29_001": "35216", "P29_002": "B135210001516", "P29_003": "16001", "P29_004": "山陽小野田市立有帆小学校", "P29_005": "山口県山陽小野田市新有帆町4-1", "P29_006": "3", "P29_007": "1", "P29_008": "00", "P29_009": null }, "geometry": { "type": "Point", "coordinates": [ 131.201531812239523, 34.019345837924533 ] } },
{ "type": "Feature", "properties": { "P29_001": "35216", "P29_002": "B135210001525", "P29_003": "16001", "P29_004": "山陽小野田市立高千帆小学校", "P29_005": "山口県山陽小野田市くし山1-25-1", "P29_006": "3", "P29_007": "1", "P29_008": "00", "P29_009": null }, "geometry": { "type": "Point", "coordinates": [ 131.18431252296665, 34.010897891053183 ] } },
{ "type": "Feature", "properties": { "P29_001": "35216", "P29_002": "B135210001534", "P29_003": "16001", "P29_004": "山陽小野田市立高泊小学校", "P29_005": "山口県山陽小野田市大字西高泊923", "P29_006": "3", "P29_007": "1", "P29_008": "00", "P29_009": null }, "geometry": { "type": "Point", "coordinates": [ 131.164653500715588, 34.007158802137248 ] } },
{ "type": "Feature", "properties": { "P29_001": "35216", "P29_002": "B135210001543", "P29_003": "16001", "P29_004": "山陽小野田市立小野田小学校", "P29_005": "山口県山陽小野田市中川3-2-1", "P29_006": "3", "P29_007": "1", "P29_008": "00", "P29_009": null }, "geometry": { "type": "Point", "coordinates": [ 131.176209033515676, 33.987194077031383 ] } },
{ "type": "Feature", "properties": { "P29_001": "35216", "P29_002": "B135210001552", "P29_003": "16001", "P29_004": "山陽小野田市立須恵小学校", "P29_005": "山口県山陽小野田市大字小野田5258", "P29_006": "3", "P29_007": "1", "P29_008": "00", "P29_009": null }, "geometry": { "type": "Point", "coordinates": [ 131.181824667193837, 33.972242269220871 ] } },
{ "type": "Feature", "properties": { "P29_001": "35216", "P29_002": "B135210001561", "P29_003": "16001", "P29_004": "山陽小野田市立赤崎小学校", "P29_005": "山口県山陽小野田市大字小野田4402", "P29_006": "3", "P29_007": "1", "P29_008": "00", "P29_009": null }, "geometry": { "type": "Point", "coordinates": [ 131.175800444081176, 33.958872375910474 ] } },
{ "type": "Feature", "properties": { "P29_001": "35216", "P29_002": "B135210001570", "P29_003": "16001", "P29_004": "山陽小野田市立本山小学校", "P29_005": "山口県山陽小野田市大字小野田482", "P29_006": "3", "P29_007": "1", "P29_008": "00", "P29_009": null }, "geometry": { "type": "Point", "coordinates": [ 131.172534684846397, 33.948108231128906 ] } },
{ "type": "Feature", "properties": { "P29_001": "35216", "P29_002": "B135210001589", "P29_003": "16001", "P29_004": "山陽小野田市立赤崎小学校松原分校", "P29_005": "山口県山陽小野田市大字小野田4402", "P29_006": "3", "P29_007": "1", "P29_008": "00", "P29_009": null }, "geometry": { "type": "Point", "coordinates": [ 131.175376409286088, 33.958401070739285 ] } },
{ "type": "Feature", "properties": { "P29_001": "35210", "P29_002": "B135210001598", "P29_003": "16001", "P29_004": "光市立室積小学校", "P29_005": "山口県光市室積6-4-1", "P29_006": "3", "P29_007": "1", "P29_008": "00", "P29_009": null }, "geometry": { "type": "Point", "coordinates": [ 131.967654898765176, 33.92779062796081 ] } },
{ "type": "Feature", "properties": { "P29_001": "35210", "P29_002": "B135210001605", "P29_003": "16001", "P29_004": "光市立島田小学校", "P29_005": "山口県光市島田5-15-1", "P29_006": "3", "P29_007": "1", "P29_008": "00", "P29_009": null }, "geometry": { "type": "Point", "coordinates": [ 131.938773219693786, 33.976350046068923 ] } },
{ "type": "Feature", "properties": { "P29_001": "35210", "P29_002": "B135210001614", "P29_003": "16001", "P29_004": "光市立上島田小学校", "P29_005": "山口県光市上島田3-9-1", "P29_006": "3", "P29_007": "1", "P29_008": "00", "P29_009": null }, "geometry": { "type": "Point", "coordinates": [ 131.961037259488904, 33.98679194104286 ] } },
{ "type": "Feature", "properties": { "P29_001": "35210", "P29_002": "B135210001623", "P29_003": "16001", "P29_004": "光市立浅江小学校", "P29_005": "山口県光市光ヶ丘2-10", "P29_006": "3", "P29_007": "1", "P29_008": "00", "P29_009": null }, "geometry": { "type": "Point", "coordinates": [ 131.922175556315239, 33.977677542311412 ] } },
{ "type": "Feature", "properties": { "P29_001": "35210", "P29_002": "B135210001632", "P29_003": "16001", "P29_004": "光市立光井小学校", "P29_005": "山口県光市光井4-23-1", "P29_006": "3", "P29_007": "1", "P29_008": "00", "P29_009": null }, "geometry": { "type": "Point", "coordinates": [ 131.955547576700212, 33.957225985629158 ] } },
{ "type": "Feature", "properties": { "P29_001": "35210", "P29_002": "B135210001641", "P29_003": "16001", "P29_004": "光市立三井小学校", "P29_005": "山口県光市三井5-9-1", "P29_006": "3", "P29_007": "1", "P29_008": "00", "P29_009": null }, "geometry": { "type": "Point", "coordinates": [ 131.952180611595821, 33.990411567316691 ] } },
{ "type": "Feature", "properties": { "P29_001": "35210", "P29_002": "B135210001650", "P29_003": "16001", "P29_004": "光市立周防小学校", "P29_005": "山口県光市大字小周防1587", "P29_006": "3", "P29_007": "1", "P29_008": "00", "P29_009": null }, "geometry": { "type": "Point", "coordinates": [ 131.977042619583642, 34.017340069417855 ] } },
{ "type": "Feature", "properties": { "P29_001": "35211", "P29_002": "B135210001669", "P29_003": "16001", "P29_004": "長門市立通小学校", "P29_005": "山口県長門市通1211-1", "P29_006": "3", "P29_007": "1", "P29_008": "00", "P29_009": null }, "geometry": { "type": "Point", "coordinates": [ 131.256196638913309, 34.419493880342905 ] } },
{ "type": "Feature", "properties": { "P29_001": "35211", "P29_002": "B135210001678", "P29_003": "16001", "P29_004": "長門市立仙崎小学校", "P29_005": "山口県長門市仙崎1230", "P29_006": "3", "P29_007": "1", "P29_008": "00", "P29_009": null }, "geometry": { "type": "Point", "coordinates": [ 131.196128236436806, 34.389969846657799 ] } },
{ "type": "Feature", "properties": { "P29_001": "35211", "P29_002": "B135210001687", "P29_003": "16001", "P29_004": "長門市立深川小学校", "P29_005": "山口県長門市東深川2688-1", "P29_006": "3", "P29_007": "1", "P29_008": "00", "P29_009": null }, "geometry": { "type": "Point", "coordinates": [ 131.185070358478555, 34.365648250575816 ] } },
{ "type": "Feature", "properties": { "P29_001": "35211", "P29_002": "B135210001696", "P29_003": "16001", "P29_004": "長門市立向陽小学校", "P29_005": "山口県長門市深川湯本738-1", "P29_006": "3", "P29_007": "1", "P29_008": "00", "P29_009": null }, "geometry": { "type": "Point", "coordinates": [ 131.17431379293933, 34.34530284948324 ] } },
{ "type": "Feature", "properties": { "P29_001": "35211", "P29_002": "B135210001703", "P29_003": "16001", "P29_004": "長門市立俵山小学校", "P29_005": "山口県長門市俵山2310-1", "P29_006": "3", "P29_007": "1", "P29_008": "00", "P29_009": null }, "geometry": { "type": "Point", "coordinates": [ 131.112155172789443, 34.283827405207823 ] } },
{ "type": "Feature", "properties": { "P29_001": "35212", "P29_002": "B135210001712", "P29_003": "16001", "P29_004": "柳井市立柳井小学校", "P29_005": "山口県柳井市柳井3680-4", "P29_006": "3", "P29_007": "1", "P29_008": "00", "P29_009": null }, "geometry": { "type": "Point", "coordinates": [ 132.108695934516675, 33.971213016044217 ] } },
{ "type": "Feature", "properties": { "P29_001": "35212", "P29_002": "B135210001721", "P29_003": "16001", "P29_004": "柳井市立柳東小学校", "P29_005": "山口県柳井市柳井964-1", "P29_006": "3", "P29_007": "1", "P29_008": "00", "P29_009": null }, "geometry": { "type": "Point", "coordinates": [ 132.131237195152096, 33.959913095518615 ] } },
{ "type": "Feature", "properties": { "P29_001": "35212", "P29_002": "B135210001730", "P29_003": "16001", "P29_004": "柳井市立柳北小学校", "P29_005": "山口県柳井市柳井5025", "P29_006": "3", "P29_007": "1", "P29_008": "00", "P29_009": null }, "geometry": { "type": "Point", "coordinates": [ 132.097315059051027, 33.98534519370839 ] } },
{ "type": "Feature", "properties": { "P29_001": "35212", "P29_002": "B135210001749", "P29_003": "16001", "P29_004": "柳井市立新庄小学校", "P29_005": "山口県柳井市新庄2614", "P29_006": "3", "P29_007": "1", "P29_008": "00", "P29_009": null }, "geometry": { "type": "Point", "coordinates": [ 132.089885120847242, 33.96995146688176 ] } },
{ "type": "Feature", "properties": { "P29_001": "35212", "P29_002": "B135210001758", "P29_003": "16001", "P29_004": "柳井市立余田小学校", "P29_005": "山口県柳井市余田1419", "P29_006": "3", "P29_007": "1", "P29_008": "00", "P29_009": null }, "geometry": { "type": "Point", "coordinates": [ 132.069148138852768, 33.971712269603756 ] } },
{ "type": "Feature", "properties": { "P29_001": "35212", "P29_002": "B135210001767", "P29_003": "16001", "P29_004": "柳井市立伊陸小学校", "P29_005": "山口県柳井市伊陸5856-1", "P29_006": "3", "P29_007": "1", "P29_008": "00", "P29_009": null }, "geometry": { "type": "Point", "coordinates": [ 132.110520207751705, 34.028910373278883 ] } },
{ "type": "Feature", "properties": { "P29_001": "35212", "P29_002": "B135210001776", "P29_003": "16001", "P29_004": "柳井市立平郡東小学校", "P29_005": "山口県柳井市平郡1834", "P29_006": "3", "P29_007": "1", "P29_008": "00", "P29_009": null }, "geometry": { "type": "Point", "coordinates": [ 132.258544130808275, 33.780145558511336 ] } },
{ "type": "Feature", "properties": { "P29_001": "35212", "P29_002": "B135210001785", "P29_003": "16001", "P29_004": "柳井市立平郡西小学校", "P29_005": "山口県柳井市平郡4836-2", "P29_006": "3", "P29_007": "9", "P29_008": "00", "P29_009": null }, "geometry": { "type": "Point", "coordinates": [ 132.202805278502865, 33.803017869007753 ] } },
{ "type": "Feature", "properties": { "P29_001": "35212", "P29_002": "B135210001794", "P29_003": "16001", "P29_004": "柳井市立柳井南小学校", "P29_005": "山口県柳井市伊保庄1429", "P29_006": "3", "P29_007": "1", "P29_008": "00", "P29_009": null }, "geometry": { "type": "Point", "coordinates": [ 132.126084149101956, 33.922708537107489 ] } },
{ "type": "Feature", "properties": { "P29_001": "35212", "P29_002": "B135210001801", "P29_003": "16001", "P29_004": "柳井市立小田小学校", "P29_005": "山口県柳井市伊保庄4853-1", "P29_006": "3", "P29_007": "1", "P29_008": "00", "P29_009": null }, "geometry": { "type": "Point", "coordinates": [ 132.117786121893943, 33.951823524177499 ] } },
{ "type": "Feature", "properties": { "P29_001": "35212", "P29_002": "B135210001810", "P29_003": "16001", "P29_004": "柳井市立日積小学校", "P29_005": "山口県柳井市日積6951", "P29_006": "3", "P29_007": "1", "P29_008": "00", "P29_009": null }, "geometry": { "type": "Point", "coordinates": [ 132.152409167751898, 34.001473254519738 ] } },
{ "type": "Feature", "properties": { "P29_001": "35213", "P29_002": "B135210001829", "P29_003": "16001", "P29_004": "美祢市立伊佐小学校", "P29_005": "山口県美祢市伊佐町伊佐4454", "P29_006": "3", "P29_007": "1", "P29_008": "00", "P29_009": null }, "geometry": { "type": "Point", "coordinates": [ 131.227037613764281, 34.164205656930363 ] } },
{ "type": "Feature", "properties": { "P29_001": "35213", "P29_002": "B135210001838", "P29_003": "16001", "P29_004": "美祢市立厚保小学校", "P29_005": "山口県美祢市西厚保町本郷610", "P29_006": "3", "P29_007": "1", "P29_008": "00", "P29_009": null }, "geometry": { "type": "Point", "coordinates": [ 131.142398752608983, 34.110144213806869 ] } },
{ "type": "Feature", "properties": { "P29_001": "35213", "P29_002": "B135210001847", "P29_003": "16001", "P29_004": "美祢市立大嶺小学校", "P29_005": "山口県美祢市大嶺町東分1721", "P29_006": "3", "P29_007": "1", "P29_008": "00", "P29_009": null }, "geometry": { "type": "Point", "coordinates": [ 131.205981523157703, 34.175501727448236 ] } },
{ "type": "Feature", "properties": { "P29_001": "35213", "P29_002": "B135210001865", "P29_003": "16001", "P29_004": "美祢市立麦川小学校", "P29_005": "山口県美祢市大嶺町奥分1960", "P29_006": "3", "P29_007": "1", "P29_008": "00", "P29_009": null }, "geometry": { "type": "Point", "coordinates": [ 131.169807453244204, 34.190279477749193 ] } },
{ "type": "Feature", "properties": { "P29_001": "35213", "P29_002": "B135210001874", "P29_003": "16001", "P29_004": "美祢市立於福小学校", "P29_005": "山口県美祢市於福町上4206", "P29_006": "3", "P29_007": "1", "P29_008": "00", "P29_009": null }, "geometry": { "type": "Point", "coordinates": [ 131.204394071038934, 34.243370529571372 ] } },
{ "type": "Feature", "properties": { "P29_001": "35213", "P29_002": "B135210001883", "P29_003": "16001", "P29_004": "美祢市立豊田前小学校", "P29_005": "山口県美祢市豊田前町麻生下809", "P29_006": "3", "P29_007": "1", "P29_008": "00", "P29_009": null }, "geometry": { "type": "Point", "coordinates": [ 131.117749969676197, 34.193715232519189 ] } },
{ "type": "Feature", "properties": { "P29_001": "35305", "P29_002": "B135210001892", "P29_003": "16001", "P29_004": "周防大島町立久賀小学校", "P29_005": "山口県大島郡周防大島町大字久賀4807-1", "P29_006": "3", "P29_007": "1", "P29_008": "00", "P29_009": null }, "geometry": { "type": "Point", "coordinates": [ 132.264038047784652, 33.946971653420711 ] } },
{ "type": "Feature", "properties": { "P29_001": "35305", "P29_002": "B135210001909", "P29_003": "16001", "P29_004": "周防大島町立三蒲小学校", "P29_005": "山口県大島郡周防大島町大字東三蒲1106-1", "P29_006": "3", "P29_007": "1", "P29_008": "00", "P29_009": null }, "geometry": { "type": "Point", "coordinates": [ 132.214873455403421, 33.944970762619562 ] } },
{ "type": "Feature", "properties": { "P29_001": "35305", "P29_002": "B135210001918", "P29_003": "16001", "P29_004": "周防大島町立明新小学校", "P29_005": "山口県大島郡周防大島町大字小松開作121-1", "P29_006": "3", "P29_007": "1", "P29_008": "00", "P29_009": null }, "geometry": { "type": "Point", "coordinates": [ 132.19061870755354, 33.929053964535065 ] } },
{ "type": "Feature", "properties": { "P29_001": "35305", "P29_002": "B135210001927", "P29_003": "16001", "P29_004": "周防大島町立沖浦小学校", "P29_005": "山口県大島郡周防大島町大字横見346-1", "P29_006": "3", "P29_007": "1", "P29_008": "00", "P29_009": null }, "geometry": { "type": "Point", "coordinates": [ 132.190844995299869, 33.891272003951755 ] } },
{ "type": "Feature", "properties": { "P29_001": "35305", "P29_002": "B135210001972", "P29_003": "16001", "P29_004": "周防大島町立島中小学校", "P29_005": "山口県大島郡周防大島町大字土居1300-4", "P29_006": "3", "P29_007": "1", "P29_008": "00", "P29_009": null }, "geometry": { "type": "Point", "coordinates": [ 132.303695218049057, 33.917593689605567 ] } },
{ "type": "Feature", "properties": { "P29_001": "35305", "P29_002": "B135210001981", "P29_003": "16001", "P29_004": "周防大島町立浮島小学校", "P29_005": "山口県大島郡周防大島町大字浮島205-1", "P29_006": "3", "P29_007": "1", "P29_008": "00", "P29_009": null }, "geometry": { "type": "Point", "coordinates": [ 132.33949345968125, 33.953536678264292 ] } },
{ "type": "Feature", "properties": { "P29_001": "35305", "P29_002": "B135210001990", "P29_003": "16001", "P29_004": "周防大島町立安下庄小学校", "P29_005": "山口県大島郡周防大島町大字西安下庄418", "P29_006": "3", "P29_007": "1", "P29_008": "00", "P29_009": null }, "geometry": { "type": "Point", "coordinates": [ 132.276325820758842, 33.899346266102611 ] } },
{ "type": "Feature", "properties": { "P29_001": "35321", "P29_002": "B135210002007", "P29_003": "16001", "P29_004": "和木町立和木小学校", "P29_005": "山口県玖珂郡和木町和木1-13-1", "P29_006": "3", "P29_007": "1", "P29_008": "00", "P29_009": null }, "geometry": { "type": "Point", "coordinates": [ 132.218063403497837, 34.205607673801438 ] } },
{ "type": "Feature", "properties": { "P29_001": "35208", "P29_002": "B135210002016", "P29_003": "16001", "P29_004": "岩国市立由宇小学校", "P29_005": "山口県岩国市由宇町中央2-10-1", "P29_006": "3", "P29_007": "1", "P29_008": "00", "P29_009": null }, "geometry": { "type": "Point", "coordinates": [ 132.208686754343375, 34.044353314244937 ] } },
{ "type": "Feature", "properties": { "P29_001": "35208", "P29_002": "B135210002025", "P29_003": "16001", "P29_004": "岩国市立由西小学校", "P29_005": "山口県岩国市由宇町3300-1", "P29_006": "3", "P29_007": "1", "P29_008": "00", "P29_009": null }, "geometry": { "type": "Point", "coordinates": [ 132.176316883016653, 34.036502368606932 ] } },
{ "type": "Feature", "properties": { "P29_001": "35208", "P29_002": "B135210002034", "P29_003": "16001", "P29_004": "岩国市立神東小学校", "P29_005": "山口県岩国市由宇町神東448-1", "P29_006": "3", "P29_007": "1", "P29_008": "00", "P29_009": null }, "geometry": { "type": "Point", "coordinates": [ 132.21201079357337, 34.002880579087957 ] } },
{ "type": "Feature", "properties": { "P29_001": "35208", "P29_002": "B135210002043", "P29_003": "16001", "P29_004": "岩国市立玖珂小学校", "P29_005": "山口県岩国市玖珂町527-2", "P29_006": "3", "P29_007": "1", "P29_008": "00", "P29_009": null }, "geometry": { "type": "Point", "coordinates": [ 132.080494060082827, 34.095567364193812 ] } },
{ "type": "Feature", "properties": { "P29_001": "35208", "P29_002": "B135210002052", "P29_003": "16001", "P29_004": "岩国市立本郷小学校", "P29_005": "山口県岩国市本郷町本郷1510", "P29_006": "3", "P29_007": "1", "P29_008": "00", "P29_009": null }, "geometry": { "type": "Point", "coordinates": [ 132.037749589367849, 34.295854063985857 ] } },
{ "type": "Feature", "properties": { "P29_001": "35208", "P29_002": "B135210002061", "P29_003": "16001", "P29_004": "岩国市立波野小学校", "P29_005": "山口県岩国市本郷町波野655", "P29_006": "3", "P29_007": "9", "P29_008": "00", "P29_009": null }, "geometry": { "type": "Point", "coordinates": [ 132.02979259716335, 34.256539335586289 ] } },
{ "type": "Feature", "properties": { "P29_001": "35208", "P29_002": "B135210002070", "P29_003": "16001", "P29_004": "岩国市立高森小学校", "P29_005": "山口県岩国市周東町下久原1176", "P29_006": "3", "P29_007": "1", "P29_008": "00", "P29_009": null }, "geometry": { "type": "Point", "coordinates": [ 132.052488729491813, 34.091010847769383 ] } },
{ "type": "Feature", "properties": { "P29_001": "35208", "P29_002": "B135210002089", "P29_003": "16001", "P29_004": "岩国市立中田小学校", "P29_005": "山口県岩国市周東町中山2", "P29_006": "3", "P29_007": "9", "P29_008": "00", "P29_009": null }, "geometry": { "type": "Point", "coordinates": [ 132.054019177158835, 34.032969632135 ] } },
{ "type": "Feature", "properties": { "P29_001": "35208", "P29_002": "B135210002098", "P29_003": "16001", "P29_004": "岩国市立川上小学校", "P29_005": "山口県岩国市周東町下久原3032", "P29_006": "3", "P29_007": "1", "P29_008": "00", "P29_009": null }, "geometry": { "type": "Point", "coordinates": [ 132.047214817366523, 34.108687867962189 ] } },
{ "type": "Feature", "properties": { "P29_001": "35208", "P29_002": "B135210002105", "P29_003": "16001", "P29_004": "岩国市立米川小学校", "P29_005": "山口県岩国市周東町西長野574", "P29_006": "3", "P29_007": "1", "P29_008": "00", "P29_009": null }, "geometry": { "type": "Point", "coordinates": [ 132.030173062274656, 34.087591801842379 ] } },
{ "type": "Feature", "properties": { "P29_001": "35208", "P29_002": "B135210002114", "P29_003": "16001", "P29_004": "岩国市立修成小学校", "P29_005": "山口県岩国市周東町西長野1141", "P29_006": "3", "P29_007": "1", "P29_008": "00", "P29_009": null }, "geometry": { "type": "Point", "coordinates": [ 132.007279846108162, 34.090430316894128 ] } },
{ "type": "Feature", "properties": { "P29_001": "35208", "P29_002": "B135210002123", "P29_003": "16001", "P29_004": "岩国市立周北小学校", "P29_005": "山口県岩国市周東町獺越2161", "P29_006": "3", "P29_007": "1", "P29_008": "00", "P29_009": null }, "geometry": { "type": "Point", "coordinates": [ 132.004938057152117, 34.124386569919317 ] } },
{ "type": "Feature", "properties": { "P29_001": "35208", "P29_002": "B135210002132", "P29_003": "16001", "P29_004": "岩国市立そお小学校", "P29_005": "山口県岩国市周東町祖生5856", "P29_006": "3", "P29_007": "1", "P29_008": "00", "P29_009": null }, "geometry": { "type": "Point", "coordinates": [ 132.104955635357499, 34.074320323833966 ] } },
{ "type": "Feature", "properties": { "P29_001": "35208", "P29_002": "B135210002141", "P29_003": "16001", "P29_004": "岩国市立錦清流小学校", "P29_005": "山口県岩国市錦町広瀬247", "P29_006": "3", "P29_007": "1", "P29_008": "00", "P29_009": null }, "geometry": { "type": "Point", "coordinates": [ 131.955805776592484, 34.262636010179165 ] } },
{ "type": "Feature", "properties": { "P29_001": "35208", "P29_002": "B135210002150", "P29_003": "16001", "P29_004": "岩国市立宇佐川小学校", "P29_005": "山口県岩国市錦町宇佐郷1019", "P29_006": "3", "P29_007": "1", "P29_008": "00", "P29_009": null }, "geometry": { "type": "Point", "coordinates": [ 132.021062326559502, 34.374281739852833 ] } },
{ "type": "Feature", "properties": { "P29_001": "35212", "P29_002": "B135210002169", "P29_003": "16001", "P29_004": "柳井市立大畠小学校", "P29_005": "山口県柳井市大畠757-2", "P29_006": "3", "P29_007": "1", "P29_008": "00", "P29_009": null }, "geometry": { "type": "Point", "coordinates": [ 132.166940999020738, 33.961596000725407 ] } },
{ "type": "Feature", "properties": { "P29_001": "35208", "P29_002": "B135210002178", "P29_003": "16001", "P29_004": "岩国市立美川小学校", "P29_005": "山口県岩国市美川町南桑2365", "P29_006": "3", "P29_007": "9", "P29_008": "00", "P29_009": null }, "geometry": { "type": "Point", "coordinates": [ 132.024409995241655, 34.209277001304976 ] } },
{ "type": "Feature", "properties": { "P29_001": "35208", "P29_002": "B135210002187", "P29_003": "16001", "P29_004": "岩国市立美和東小学校", "P29_005": "山口県岩国市美和町佐坂241", "P29_006": "3", "P29_007": "1", "P29_008": "00", "P29_009": null }, "geometry": { "type": "Point", "coordinates": [ 132.111743919075479, 34.230019577543459 ] } },
{ "type": "Feature", "properties": { "P29_001": "35208", "P29_002": "B135210002196", "P29_003": "16001", "P29_004": "岩国市立美和西小学校", "P29_005": "山口県岩国市美和町生見739-1", "P29_006": "3", "P29_007": "1", "P29_008": "00", "P29_009": null }, "geometry": { "type": "Point", "coordinates": [ 132.077652764450619, 34.226431761173146 ] } },
{ "type": "Feature", "properties": { "P29_001": "35341", "P29_002": "B135210002203", "P29_003": "16001", "P29_004": "上関町立祝島小学校", "P29_005": "山口県熊毛郡上関町大字祝島10003", "P29_006": "3", "P29_007": "1", "P29_008": "00", "P29_009": null }, "geometry": { "type": "Point", "coordinates": [ 131.989208792348677, 33.784230355971374 ] } },
{ "type": "Feature", "properties": { "P29_001": "35341", "P29_002": "B135210002212", "P29_003": "16001", "P29_004": "上関町立上関小学校", "P29_005": "山口県熊毛郡上関町大字長島250", "P29_006": "3", "P29_007": "1", "P29_008": "00", "P29_009": null }, "geometry": { "type": "Point", "coordinates": [ 132.107228738707903, 33.832220889247672 ] } },
{ "type": "Feature", "properties": { "P29_001": "35210", "P29_002": "B135210002221", "P29_003": "16001", "P29_004": "光市立塩田小学校", "P29_005": "山口県光市大字塩田1927-6", "P29_006": "3", "P29_007": "1", "P29_008": "00", "P29_009": null }, "geometry": { "type": "Point", "coordinates": [ 132.034185408964134, 33.998659454115405 ] } },
{ "type": "Feature", "properties": { "P29_001": "35210", "P29_002": "B135210002230", "P29_003": "16001", "P29_004": "光市立三輪小学校", "P29_005": "山口県光市大字三輪264-1", "P29_006": "3", "P29_007": "1", "P29_008": "00", "P29_009": null }, "geometry": { "type": "Point", "coordinates": [ 131.99695150447269, 33.977373434454712 ] } },
{ "type": "Feature", "properties": { "P29_001": "35210", "P29_002": "B135210002249", "P29_003": "16001", "P29_004": "光市立岩田小学校", "P29_005": "山口県光市大字岩田193-2", "P29_006": "3", "P29_007": "1", "P29_008": "00", "P29_009": null }, "geometry": { "type": "Point", "coordinates": [ 131.990473003806898, 33.984198000535763 ] } },
{ "type": "Feature", "properties": { "P29_001": "35210", "P29_002": "B135210002258", "P29_003": "16001", "P29_004": "光市立束荷小学校", "P29_005": "山口県光市大字束荷1301", "P29_006": "3", "P29_007": "1", "P29_008": "00", "P29_009": null }, "geometry": { "type": "Point", "coordinates": [ 132.00630900916326, 34.00905053072966 ] } },
{ "type": "Feature", "properties": { "P29_001": "35343", "P29_002": "B135210002267", "P29_003": "16001", "P29_004": "田布施町立麻郷小学校", "P29_005": "山口県熊毛郡田布施町大字麻郷2258", "P29_006": "3", "P29_007": "1", "P29_008": "00", "P29_009": null }, "geometry": { "type": "Point", "coordinates": [ 132.045418390315945, 33.93491444796156 ] } },
{ "type": "Feature", "properties": { "P29_001": "35343", "P29_002": "B135210002276", "P29_003": "16001", "P29_004": "田布施町立田布施西小学校", "P29_005": "山口県熊毛郡田布施町大字下田布施2156-1", "P29_006": "3", "P29_007": "1", "P29_008": "00", "P29_009": null }, "geometry": { "type": "Point", "coordinates": [ 132.030567689612724, 33.95387402527318 ] } },
{ "type": "Feature", "properties": { "P29_001": "35343", "P29_002": "B135210002285", "P29_003": "16001", "P29_004": "田布施町立東田布施小学校", "P29_005": "山口県熊毛郡田布施町大字大波野152-1", "P29_006": "3", "P29_007": "1", "P29_008": "00", "P29_009": null }, "geometry": { "type": "Point", "coordinates": [ 132.056005053339135, 33.964176435918475 ] } },
{ "type": "Feature", "properties": { "P29_001": "35343", "P29_002": "B135210002294", "P29_003": "16001", "P29_004": "田布施町立城南小学校", "P29_005": "山口県熊毛郡田布施町大字宿井1039-1", "P29_006": "3", "P29_007": "1", "P29_008": "00", "P29_009": null }, "geometry": { "type": "Point", "coordinates": [ 132.021020712944022, 33.969382964359781 ] } },
{ "type": "Feature", "properties": { "P29_001": "35344", "P29_002": "B135210002301", "P29_003": "16001", "P29_004": "平生町立佐賀小学校", "P29_005": "山口県熊毛郡平生町大字佐賀2020", "P29_006": "3", "P29_007": "1", "P29_008": "00", "P29_009": null }, "geometry": { "type": "Point", "coordinates": [ 132.081138171684017, 33.896997739202448 ] } },
{ "type": "Feature", "properties": { "P29_001": "35344", "P29_002": "B135210002310", "P29_003": "16001", "P29_004": "平生町立平生小学校", "P29_005": "山口県熊毛郡平生町大字大野南83", "P29_006": "3", "P29_007": "1", "P29_008": "00", "P29_009": null }, "geometry": { "type": "Point", "coordinates": [ 132.077572679563929, 33.933921367769898 ] } },
{ "type": "Feature", "properties": { "P29_001": "35215", "P29_002": "B135210002329", "P29_003": "16001", "P29_004": "周南市立三丘小学校", "P29_005": "山口県周南市大字小松原1242", "P29_006": "3", "P29_007": "1", "P29_008": "00", "P29_009": null }, "geometry": { "type": "Point", "coordinates": [ 131.991700628784429, 34.035495127203156 ] } },
{ "type": "Feature", "properties": { "P29_001": "35215", "P29_002": "B135210002338", "P29_003": "16001", "P29_004": "周南市立高水小学校", "P29_005": "山口県周南市大字樋口288", "P29_006": "3", "P29_007": "1", "P29_008": "00", "P29_009": null }, "geometry": { "type": "Point", "coordinates": [ 131.977839693273637, 34.061246764912951 ] } },
{ "type": "Feature", "properties": { "P29_001": "35215", "P29_002": "B135210002347", "P29_003": "16001", "P29_004": "周南市立勝間小学校", "P29_005": "山口県周南市勝間ヶ丘1-1-1", "P29_006": "3", "P29_007": "1", "P29_008": "00", "P29_009": null }, "geometry": { "type": "Point", "coordinates": [ 131.953687612570349, 34.047304949652279 ] } },
{ "type": "Feature", "properties": { "P29_001": "35215", "P29_002": "B135210002356", "P29_003": "16001", "P29_004": "周南市立大河内小学校", "P29_005": "山口県周南市大字大河内1115-1", "P29_006": "3", "P29_007": "1", "P29_008": "00", "P29_009": null }, "geometry": { "type": "Point", "coordinates": [ 131.941060766680238, 34.026969679225203 ] } },
{ "type": "Feature", "properties": { "P29_001": "35215", "P29_002": "B135210002365", "P29_003": "16001", "P29_004": "周南市立八代小学校", "P29_005": "山口県周南市大字八代10877-3", "P29_006": "3", "P29_007": "1", "P29_008": "00", "P29_009": null }, "geometry": { "type": "Point", "coordinates": [ 131.936712999820799, 34.088023911954565 ] } },
{ "type": "Feature", "properties": { "P29_001": "35215", "P29_002": "B135210002374", "P29_003": "16001", "P29_004": "周南市立鹿野小学校", "P29_005": "山口県周南市大字鹿野上3054-1", "P29_006": "3", "P29_007": "1", "P29_008": "00", "P29_009": null }, "geometry": { "type": "Point", "coordinates": [ 131.81619466547815, 34.228450249125267 ] } },
{ "type": "Feature", "properties": { "P29_001": "35215", "P29_002": "B135210002383", "P29_003": "16001", "P29_004": "周南市立富田東小学校", "P29_005": "山口県周南市桶川町2-1", "P29_006": "3", "P29_007": "1", "P29_008": "00", "P29_009": null }, "geometry": { "type": "Point", "coordinates": [ 131.775623873761191, 34.072124188054666 ] } },
{ "type": "Feature", "properties": { "P29_001": "35215", "P29_002": "B135210002392", "P29_003": "16001", "P29_004": "周南市立富田西小学校", "P29_005": "山口県周南市富田2-14-1", "P29_006": "3", "P29_007": "1", "P29_008": "00", "P29_009": null }, "geometry": { "type": "Point", "coordinates": [ 131.753422895663732, 34.074606783509225 ] } },
{ "type": "Feature", "properties": { "P29_001": "35215", "P29_002": "B135210002409", "P29_003": "16001", "P29_004": "周南市立福川小学校", "P29_005": "山口県周南市福川3-2-1", "P29_006": "3", "P29_007": "1", "P29_008": "00", "P29_009": null }, "geometry": { "type": "Point", "coordinates": [ 131.736857039688317, 34.075631746305277 ] } },
{ "type": "Feature", "properties": { "P29_001": "35215", "P29_002": "B135210002418", "P29_003": "16001", "P29_004": "周南市立和田小学校", "P29_005": "山口県周南市大字垰212-1", "P29_006": "3", "P29_007": "1", "P29_008": "00", "P29_009": null }, "geometry": { "type": "Point", "coordinates": [ 131.736693303423465, 34.149846034870329 ] } },
{ "type": "Feature", "properties": { "P29_001": "35215", "P29_002": "B135210002427", "P29_003": "16001", "P29_004": "周南市立福川南小学校", "P29_005": "山口県周南市中畷町6-1", "P29_006": "3", "P29_007": "1", "P29_008": "00", "P29_009": null }, "geometry": { "type": "Point", "coordinates": [ 131.72729617109897, 34.071944163253065 ] } },
{ "type": "Feature", "properties": { "P29_001": "35203", "P29_002": "B135210002436", "P29_003": "16001", "P29_004": "山口市立中央小学校", "P29_005": "山口県山口市徳地堀1551", "P29_006": "3", "P29_007": "1", "P29_008": "00", "P29_009": null }, "geometry": { "type": "Point", "coordinates": [ 131.661631566104148, 34.19012936462687 ] } },
{ "type": "Feature", "properties": { "P29_001": "35203", "P29_002": "B135210002445", "P29_003": "16001", "P29_004": "山口市立島地小学校", "P29_005": "山口県山口市徳地島地16", "P29_006": "3", "P29_007": "1", "P29_008": "00", "P29_009": null }, "geometry": { "type": "Point", "coordinates": [ 131.700262138743341, 34.158807354139888 ] } },
{ "type": "Feature", "properties": { "P29_001": "35203", "P29_002": "B135210002454", "P29_003": "16001", "P29_004": "山口市立串小学校", "P29_005": "山口県山口市徳地鯖河内1421", "P29_006": "3", "P29_007": "1", "P29_008": "00", "P29_009": null }, "geometry": { "type": "Point", "coordinates": [ 131.735867218088202, 34.195316504854446 ] } },
{ "type": "Feature", "properties": { "P29_001": "35203", "P29_002": "B135210002463", "P29_003": "16001", "P29_004": "山口市立八坂小学校", "P29_005": "山口県山口市徳地八坂1226", "P29_006": "3", "P29_007": "1", "P29_008": "00", "P29_009": null }, "geometry": { "type": "Point", "coordinates": [ 131.657879181983191, 34.237989590660789 ] } },
{ "type": "Feature", "properties": { "P29_001": "35203", "P29_002": "B135210002472", "P29_003": "16001", "P29_004": "山口市立柚野木小学校", "P29_005": "山口県山口市徳地柚木2018", "P29_006": "3", "P29_007": "1", "P29_008": "00", "P29_009": null }, "geometry": { "type": "Point", "coordinates": [ 131.72263734365751, 34.341343933766112 ] } },
{ "type": "Feature", "properties": { "P29_001": "35203", "P29_002": "B135210002481", "P29_003": "16001", "P29_004": "山口市立秋穂小学校", "P29_005": "山口県山口市秋穂東6771", "P29_006": "3", "P29_007": "1", "P29_008": "00", "P29_009": null }, "geometry": { "type": "Point", "coordinates": [ 131.435479968351586, 34.017209436838641 ] } },
{ "type": "Feature", "properties": { "P29_001": "35203", "P29_002": "B135210002490", "P29_003": "16001", "P29_004": "山口市立大海小学校", "P29_005": "山口県山口市秋穂東2299", "P29_006": "3", "P29_007": "1", "P29_008": "00", "P29_009": null }, "geometry": { "type": "Point", "coordinates": [ 131.463177133223866, 34.021606396564842 ] } },
{ "type": "Feature", "properties": { "P29_001": "35203", "P29_002": "B135210002506", "P29_003": "16001", "P29_004": "山口市立小郡小学校", "P29_005": "山口県山口市小郡下郷254-3", "P29_006": "3", "P29_007": "1", "P29_008": "00", "P29_009": null }, "geometry": { "type": "Point", "coordinates": [ 131.400085001341978, 34.106457030161209 ] } },
{ "type": "Feature", "properties": { "P29_001": "35203", "P29_002": "B135210002515", "P29_003": "16001", "P29_004": "山口市立上郷小学校", "P29_005": "山口県山口市小郡みらい町2-14-1", "P29_006": "3", "P29_007": "1", "P29_008": "00", "P29_009": null }, "geometry": { "type": "Point", "coordinates": [ 131.398143695462466, 34.121560583775249 ] } },
{ "type": "Feature", "properties": { "P29_001": "35203", "P29_002": "B135210002524", "P29_003": "16001", "P29_004": "山口市立小郡南小学校", "P29_005": "山口県山口市小郡緑町1-1", "P29_006": "3", "P29_007": "1", "P29_008": "00", "P29_009": null }, "geometry": { "type": "Point", "coordinates": [ 131.399976100809681, 34.09060022008331 ] } },
{ "type": "Feature", "properties": { "P29_001": "35203", "P29_002": "B135210002533", "P29_003": "16001", "P29_004": "山口市立阿知須小学校", "P29_005": "山口県山口市阿知須4251", "P29_006": "3", "P29_007": "1", "P29_008": "00", "P29_009": null }, "geometry": { "type": "Point", "coordinates": [ 131.359315700185903, 34.011499493174995 ] } },
{ "type": "Feature", "properties": { "P29_001": "35203", "P29_002": "B135210002542", "P29_003": "16001", "P29_004": "山口市立井関小学校", "P29_005": "山口県山口市阿知須1639", "P29_006": "3", "P29_007": "1", "P29_008": "00", "P29_009": null }, "geometry": { "type": "Point", "coordinates": [ 131.340447418709687, 34.014478218512892 ] } },
{ "type": "Feature", "properties": { "P29_001": "35202", "P29_002": "B135210002551", "P29_003": "16001", "P29_004": "宇部市立吉部小学校", "P29_005": "山口県宇部市大字東吉部字埴生3425-1", "P29_006": "3", "P29_007": "1", "P29_008": "00", "P29_009": null }, "geometry": { "type": "Point", "coordinates": [ 131.281916003506012, 34.124868999712078 ] } },
{ "type": "Feature", "properties": { "P29_001": "35202", "P29_002": "B135210002560", "P29_003": "16001", "P29_004": "宇部市立万倉小学校", "P29_005": "山口県宇部市大字西万倉字宮ノ後1761-1", "P29_006": "3", "P29_007": "1", "P29_008": "00", "P29_009": null }, "geometry": { "type": "Point", "coordinates": [ 131.239731607283034, 34.07251458126045 ] } },
{ "type": "Feature", "properties": { "P29_001": "35202", "P29_002": "B135210002579", "P29_003": "16001", "P29_004": "宇部市立船木小学校", "P29_005": "山口県宇部市大字船木字岡西4483", "P29_006": "3", "P29_007": "1", "P29_008": "00", "P29_009": null }, "geometry": { "type": "Point", "coordinates": [ 131.216500686778659, 34.046298876339883 ] } },
{ "type": "Feature", "properties": { "P29_001": "35216", "P29_002": "B135210002588", "P29_003": "16001", "P29_004": "山陽小野田市立厚狭小学校", "P29_005": "山口県山陽小野田市大字厚狭897-2", "P29_006": "3", "P29_007": "1", "P29_008": "00", "P29_009": null }, "geometry": { "type": "Point", "coordinates": [ 131.169427925824237, 34.057131735739382 ] } },
{ "type": "Feature", "properties": { "P29_001": "35216", "P29_002": "B135210002597", "P29_003": "16001", "P29_004": "山陽小野田市立厚陽小学校", "P29_005": "山口県山陽小野田市大字郡3491-2", "P29_006": "3", "P29_007": "1", "P29_008": "00", "P29_009": null }, "geometry": { "type": "Point", "coordinates": [ 131.141561305572111, 34.01964644156736 ] } },
{ "type": "Feature", "properties": { "P29_001": "35216", "P29_002": "B135210002604", "P29_003": "16001", "P29_004": "山陽小野田市立出合小学校", "P29_005": "山口県山陽小野田市大字山野井2816", "P29_006": "3", "P29_007": "1", "P29_008": "00", "P29_009": null }, "geometry": { "type": "Point", "coordinates": [ 131.140339778637212, 34.058279018530918 ] } },
{ "type": "Feature", "properties": { "P29_001": "35216", "P29_002": "B135210002613", "P29_003": "16001", "P29_004": "山陽小野田市立埴生小学校", "P29_005": "山口県山陽小野田市大字埴生280", "P29_006": "3", "P29_007": "1", "P29_008": "00", "P29_009": null }, "geometry": { "type": "Point", "coordinates": [ 131.09355825257731, 34.04036730941575 ] } },
{ "type": "Feature", "properties": { "P29_001": "35201", "P29_002": "B135210002631", "P29_003": "16001", "P29_004": "下関市立豊東小学校", "P29_005": "山口県下関市菊川町大字上大野字上の原10020-1", "P29_006": "3", "P29_007": "1", "P29_008": "00", "P29_009": null }, "geometry": { "type": "Point", "coordinates": [ 131.049450639841552, 34.115485412193188 ] } },
{ "type": "Feature", "properties": { "P29_001": "35201", "P29_002": "B135210002640", "P29_003": "16001", "P29_004": "下関市立岡枝小学校", "P29_005": "山口県下関市菊川町大字吉賀字金蔵寺2494", "P29_006": "3", "P29_007": "1", "P29_008": "00", "P29_009": null }, "geometry": { "type": "Point", "coordinates": [ 131.019327719820865, 34.134357763313602 ] } },
{ "type": "Feature", "properties": { "P29_001": "35201", "P29_002": "B135210002659", "P29_003": "16001", "P29_004": "下関市立楢崎小学校", "P29_005": "山口県下関市菊川町大字楢崎字殿屋敷215", "P29_006": "3", "P29_007": "1", "P29_008": "00", "P29_009": null }, "geometry": { "type": "Point", "coordinates": [ 130.994181266314143, 34.1351428376231 ] } },
{ "type": "Feature", "properties": { "P29_001": "35201", "P29_002": "B135210002677", "P29_003": "16001", "P29_004": "下関市立西市小学校", "P29_005": "山口県下関市豊田町大字矢田字今熊132", "P29_006": "3", "P29_007": "1", "P29_008": "00", "P29_009": null }, "geometry": { "type": "Point", "coordinates": [ 131.074165443356662, 34.203876250831371 ] } },
{ "type": "Feature", "properties": { "P29_001": "35201", "P29_002": "B135210002686", "P29_003": "16001", "P29_004": "下関市立豊田下小学校", "P29_005": "山口県下関市豊田町大字手洗字貴布祢303", "P29_006": "3", "P29_007": "1", "P29_008": "00", "P29_009": null }, "geometry": { "type": "Point", "coordinates": [ 131.066511398940889, 34.180399657940072 ] } },
{ "type": "Feature", "properties": { "P29_001": "35201", "P29_002": "B135210002695", "P29_003": "16001", "P29_004": "下関市立室津小学校", "P29_005": "山口県下関市豊浦町大字室津下字新田152-1", "P29_006": "3", "P29_007": "1", "P29_008": "00", "P29_009": null }, "geometry": { "type": "Point", "coordinates": [ 130.893121405763253, 34.130847387790986 ] } },
{ "type": "Feature", "properties": { "P29_001": "35201", "P29_002": "B135210002702", "P29_003": "16001", "P29_004": "下関市立誠意小学校", "P29_005": "山口県下関市豊浦町大字黒井字才舛2200", "P29_006": "3", "P29_007": "1", "P29_008": "00", "P29_009": null }, "geometry": { "type": "Point", "coordinates": [ 130.913655128496003, 34.127438491275065 ] } },
{ "type": "Feature", "properties": { "P29_001": "35201", "P29_002": "B135210002711", "P29_003": "16001", "P29_004": "下関市立川棚小学校", "P29_005": "山口県下関市豊浦町大字川棚字後楽3650-1", "P29_006": "3", "P29_007": "1", "P29_008": "00", "P29_009": null }, "geometry": { "type": "Point", "coordinates": [ 130.93169226334777, 34.151135884501961 ] } },
{ "type": "Feature", "properties": { "P29_001": "35201", "P29_002": "B135210002720", "P29_003": "16001", "P29_004": "下関市立小串小学校", "P29_005": "山口県下関市豊浦町大字小串字谷田ヶ浴617", "P29_006": "3", "P29_007": "1", "P29_008": "00", "P29_009": null }, "geometry": { "type": "Point", "coordinates": [ 130.933546094829353, 34.175846013396402 ] } },
{ "type": "Feature", "properties": { "P29_001": "35201", "P29_002": "B135210002739", "P29_003": "16001", "P29_004": "下関市立宇賀小学校", "P29_005": "山口県下関市豊浦町大字宇賀字ふけ4961", "P29_006": "3", "P29_007": "1", "P29_008": "00", "P29_009": null }, "geometry": { "type": "Point", "coordinates": [ 130.931713710738563, 34.220902042120244 ] } },
{ "type": "Feature", "properties": { "P29_001": "35201", "P29_002": "B135210002748", "P29_003": "16001", "P29_004": "下関市立豊北小学校", "P29_005": "山口県下関市下関市豊北町大字滝部1200", "P29_006": "3", "P29_007": "1", "P29_008": "00", "P29_009": null }, "geometry": { "type": "Point", "coordinates": [ 130.954265212687147, 34.293469366361272 ] } },
{ "type": "Feature", "properties": { "P29_001": "35213", "P29_002": "B135210002757", "P29_003": "16001", "P29_004": "美祢市立大田小学校", "P29_005": "山口県美祢市美東町大田6215", "P29_006": "3", "P29_007": "1", "P29_008": "00", "P29_009": null }, "geometry": { "type": "Point", "coordinates": [ 131.343797737959591, 34.22615164570194 ] } },
{ "type": "Feature", "properties": { "P29_001": "35213", "P29_002": "B135210002766", "P29_003": "16001", "P29_004": "美祢市立綾木小学校", "P29_005": "山口県美祢市美東町綾木2125", "P29_006": "3", "P29_007": "1", "P29_008": "00", "P29_009": null }, "geometry": { "type": "Point", "coordinates": [ 131.346747672153782, 34.189106393825362 ] } },
{ "type": "Feature", "properties": { "P29_001": "35213", "P29_002": "B135210002775", "P29_003": "16001", "P29_004": "美祢市立淳美小学校", "P29_005": "山口県美祢市美東町真名472-3", "P29_006": "3", "P29_007": "1", "P29_008": "00", "P29_009": null }, "geometry": { "type": "Point", "coordinates": [ 131.354278940084356, 34.159837325655758 ] } },
{ "type": "Feature", "properties": { "P29_001": "35213", "P29_002": "B135210002784", "P29_003": "16001", "P29_004": "美祢市立秋吉小学校", "P29_005": "山口県美祢市秋芳町秋吉2388", "P29_006": "3", "P29_007": "1", "P29_008": "00", "P29_009": null }, "geometry": { "type": "Point", "coordinates": [ 131.304722492551036, 34.212726523808861 ] } },
{ "type": "Feature", "properties": { "P29_001": "35213", "P29_002": "B135210002793", "P29_003": "16001", "P29_004": "美祢市立秋芳桂花小学校", "P29_005": "山口県美祢市秋芳町嘉万2970", "P29_006": "3", "P29_007": "1", "P29_008": "00", "P29_009": null }, "geometry": { "type": "Point", "coordinates": [ 131.258877489364494, 34.265731075743432 ] } },
{ "type": "Feature", "properties": { "P29_001": "35211", "P29_002": "B135210002800", "P29_003": "16001", "P29_004": "長門市立明倫小学校", "P29_005": "山口県長門市三隅中1512-3", "P29_006": "3", "P29_007": "1", "P29_008": "00", "P29_009": null }, "geometry": { "type": "Point", "coordinates": [ 131.249193838403187, 34.363774252020072 ] } },
{ "type": "Feature", "properties": { "P29_001": "35211", "P29_002": "B135210002819", "P29_003": "16001", "P29_004": "長門市立浅田小学校", "P29_005": "山口県長門市三隅下2002-2", "P29_006": "3", "P29_007": "1", "P29_008": "00", "P29_009": null }, "geometry": { "type": "Point", "coordinates": [ 131.222596106192555, 34.370095018308604 ] } },
{ "type": "Feature", "properties": { "P29_001": "35211", "P29_002": "B135210002828", "P29_003": "16001", "P29_004": "長門市立日置小学校", "P29_005": "山口県長門市日置上6150-1", "P29_006": "3", "P29_007": "1", "P29_008": "00", "P29_009": null }, "geometry": { "type": "Point", "coordinates": [ 131.097938702102169, 34.385459768094229 ] } },
{ "type": "Feature", "properties": { "P29_001": "35211", "P29_002": "B135210002837", "P29_003": "16001", "P29_004": "長門市立神田小学校", "P29_005": "山口県長門市日置上2123", "P29_006": "3", "P29_007": "1", "P29_008": "00", "P29_009": null }, "geometry": { "type": "Point", "coordinates": [ 131.136092688593806, 34.387189368336898 ] } },
{ "type": "Feature", "properties": { "P29_001": "35211", "P29_002": "B135210002846", "P29_003": "16001", "P29_004": "長門市立油谷小学校", "P29_005": "山口県長門市油谷新別名10666", "P29_006": "3", "P29_007": "1", "P29_008": "00", "P29_009": null }, "geometry": { "type": "Point", "coordinates": [ 131.056857434554303, 34.370081716513894 ] } },
{ "type": "Feature", "properties": { "P29_001": "35211", "P29_002": "B135210002855", "P29_003": "16001", "P29_004": "長門市立向津具小学校", "P29_005": "山口県長門市油谷向津具下4102-1", "P29_006": "3", "P29_007": "1", "P29_008": "00", "P29_009": null }, "geometry": { "type": "Point", "coordinates": [ 130.977051217552258, 34.41445466700344 ] } },
{ "type": "Feature", "properties": { "P29_001": "35204", "P29_002": "B135210002864", "P29_003": "16001", "P29_004": "萩市立川上小学校", "P29_005": "山口県萩市川上4462-12", "P29_006": "3", "P29_007": "1", "P29_008": "00", "P29_009": null }, "geometry": { "type": "Point", "coordinates": [ 131.457043127405313, 34.359020810172048 ] } },
{ "type": "Feature", "properties": { "P29_001": "35502", "P29_002": "B135210002873", "P29_003": "16001", "P29_004": "阿武町立阿武小学校", "P29_005": "山口県阿武郡阿武町大字奈古2967-1", "P29_006": "3", "P29_007": "1", "P29_008": "00", "P29_009": null }, "geometry": { "type": "Point", "coordinates": [ 131.474206376922979, 34.504968135517821 ] } },
{ "type": "Feature", "properties": { "P29_001": "35502", "P29_002": "B135210002882", "P29_003": "16001", "P29_004": "阿武町立福賀小学校", "P29_005": "山口県阿武郡阿武町大字福田下1544", "P29_006": "3", "P29_007": "1", "P29_008": "00", "P29_009": null }, "geometry": { "type": "Point", "coordinates": [ 131.601139192586601, 34.517637946741594 ] } },
{ "type": "Feature", "properties": { "P29_001": "35204", "P29_002": "B135210002891", "P29_003": "16001", "P29_004": "萩市立小川小学校", "P29_005": "山口県萩市大字中小川977", "P29_006": "3", "P29_007": "1", "P29_008": "00", "P29_009": null }, "geometry": { "type": "Point", "coordinates": [ 131.686094291291653, 34.591043179770772 ] } },
{ "type": "Feature", "properties": { "P29_001": "35204", "P29_002": "B135210002908", "P29_003": "16001", "P29_004": "萩市立多磨小学校", "P29_005": "山口県萩市大字江崎522", "P29_006": "3", "P29_007": "1", "P29_008": "00", "P29_009": null }, "geometry": { "type": "Point", "coordinates": [ 131.656857686110726, 34.638201693016008 ] } },
{ "type": "Feature", "properties": { "P29_001": "35203", "P29_002": "B135210002917", "P29_003": "16001", "P29_004": "山口市立生雲小学校", "P29_005": "山口県山口市阿東生雲中319", "P29_006": "3", "P29_007": "1", "P29_008": "00", "P29_009": null }, "geometry": { "type": "Point", "coordinates": [ 131.599892083392177, 34.384887401879887 ] } },
{ "type": "Feature", "properties": { "P29_001": "35203", "P29_002": "B135210002926", "P29_003": "16001", "P29_004": "山口市立さくら小学校", "P29_005": "山口県山口市阿東地福下1234-1", "P29_006": "3", "P29_007": "1", "P29_008": "00", "P29_009": null }, "geometry": { "type": "Point", "coordinates": [ 131.661341645573344, 34.358518843930945 ] } },
{ "type": "Feature", "properties": { "P29_001": "35203", "P29_002": "B135210002935", "P29_003": "16001", "P29_004": "山口市立徳佐小学校", "P29_005": "山口県山口市阿東徳佐中3292", "P29_006": "3", "P29_007": "1", "P29_008": "00", "P29_009": null }, "geometry": { "type": "Point", "coordinates": [ 131.724370268191649, 34.396470165752142 ] } },
{ "type": "Feature", "properties": { "P29_001": "35204", "P29_002": "B135210002944", "P29_003": "16001", "P29_004": "萩市立むつみ小学校", "P29_005": "山口県萩市大字吉部上3192", "P29_006": "3", "P29_007": "1", "P29_008": "00", "P29_009": null }, "geometry": { "type": "Point", "coordinates": [ 131.578480526461362, 34.437874550141252 ] } },
{ "type": "Feature", "properties": { "P29_001": "35204", "P29_002": "B135210002953", "P29_003": "16001", "P29_004": "萩市立育英小学校", "P29_005": "山口県萩市大字須佐4373", "P29_006": "3", "P29_007": "1", "P29_008": "00", "P29_009": null }, "geometry": { "type": "Point", "coordinates": [ 131.600739862883529, 34.616669034524193 ] } },
{ "type": "Feature", "properties": { "P29_001": "35204", "P29_002": "B135210002962", "P29_003": "16001", "P29_004": "萩市立弥富小学校", "P29_005": "山口県萩市大字弥富下4083-1", "P29_006": "3", "P29_007": "1", "P29_008": "00", "P29_009": null }, "geometry": { "type": "Point", "coordinates": [ 131.639674955349761, 34.551236688486952 ] } },
{ "type": "Feature", "properties": { "P29_001": "35204", "P29_002": "B135210002971", "P29_003": "16001", "P29_004": "萩市立鈴野川小学校", "P29_005": "山口県萩市大字鈴野川1982", "P29_006": "3", "P29_007": "1", "P29_008": "00", "P29_009": null }, "geometry": { "type": "Point", "coordinates": [ 131.684073823237924, 34.549543612017899 ] } },
{ "type": "Feature", "properties": { "P29_001": "35204", "P29_002": "B135210002980", "P29_003": "16001", "P29_004": "萩市立明木小学校", "P29_005": "山口県萩市大字明木3039", "P29_006": "3", "P29_007": "1", "P29_008": "00", "P29_009": null }, "geometry": { "type": "Point", "coordinates": [ 131.413856169588968, 34.341007226391483 ] } },
{ "type": "Feature", "properties": { "P29_001": "35204", "P29_002": "B135210002999", "P29_003": "16001", "P29_004": "萩市立佐々並小学校", "P29_005": "山口県萩市大字佐々並2499", "P29_006": "3", "P29_007": "1", "P29_008": "00", "P29_009": null }, "geometry": { "type": "Point", "coordinates": [ 131.459064521011015, 34.285139917711206 ] } },
{ "type": "Feature", "properties": { "P29_001": "35204", "P29_002": "B135210003006", "P29_003": "16001", "P29_004": "萩市立福栄小学校", "P29_005": "山口県萩市大字福井下4360-1", "P29_006": "3", "P29_007": "1", "P29_008": "00", "P29_009": null }, "geometry": { "type": "Point", "coordinates": [ 131.486875421223999, 34.436499070431772 ] } },
{ "type": "Feature", "properties": { "P29_001": "35201", "P29_002": "B135210003015", "P29_003": "16001", "P29_004": "下関市立名陵小学校", "P29_005": "山口県下関市名池町10-1", "P29_006": "3", "P29_007": "1", "P29_008": "00", "P29_009": null }, "geometry": { "type": "Point", "coordinates": [ 130.937570783210447, 33.958533831932129 ] } },
{ "type": "Feature", "properties": { "P29_001": "35305", "P29_002": "B135210003024", "P29_003": "16001", "P29_004": "周防大島町立東和小学校", "P29_005": "山口県大島郡周防大島町大字西方2048-1", "P29_006": "3", "P29_007": "1", "P29_008": "00", "P29_009": null }, "geometry": { "type": "Point", "coordinates": [ 132.343041482393431, 33.902367870948908 ] } },
{ "type": "Feature", "properties": { "P29_001": "35204", "P29_002": "B135310000016", "P29_003": "16001", "P29_004": "萩光塩学院小学校", "P29_005": "山口県萩市大字東田町15", "P29_006": "4", "P29_007": "1", "P29_008": "00", "P29_009": null }, "geometry": { "type": "Point", "coordinates": [ 131.404449722100338, 34.412170566767792 ] } }
]
}
