{
"type": "FeatureCollection",
"name": "geo_35_地域密着型特定施設入居者生活介護（有料老人ホーム（サービス付き高齢者向け住宅））",
"crs": { "type": "name", "properties": { "name": "urn:ogc:def:crs:OGC:1.3:CRS84" } },
"features": [
{ "type": "Feature", "properties": { "内容": "のんびり村通津【地域密着型特定施設入居者生活介護（有料老人ホーム（サービス付き高齢者向け住宅））】岩国市通津２２５２－１", "url": "https://www.kaigokensaku.mhlw.go.jp/35/index.php?action_kouhyou_detail_004_kani=true&JigyosyoCd=3590800110-00&ServiceCd=&Type=search", "url2": "https://nonbiri.jp/" }, "geometry": { "type": "Point", "coordinates": [ 132.2092202, 34.0767251 ] } },
{ "type": "Feature", "properties": { "内容": "地域密着型特定施設　のんびり村　今津【地域密着型特定施設入居者生活介護（有料老人ホーム（サービス付き高齢者向け住宅））】岩国市今津4丁目12‐7", "url": "https://www.kaigokensaku.mhlw.go.jp/35/index.php?action_kouhyou_detail_004_kani=true&JigyosyoCd=3590800128-00&ServiceCd=&Type=search", "url2": "http://www.homecare-yamaguchi.co.jp/" }, "geometry": { "type": "Point", "coordinates": [ 132.214678700000036, 34.165284 ] } }
]
}
