{
"type": "FeatureCollection",
"name": "geo_35_高校",
"crs": { "type": "name", "properties": { "name": "urn:ogc:def:crs:EPSG::6668" } },
"features": [
{ "type": "Feature", "properties": { "P29_001": "35208", "P29_002": "D135210000014", "P29_003": "16004", "P29_004": "山口県立岩国高等学校", "P29_005": "山口県岩国市川西4-6-1", "P29_006": "2", "P29_007": "0", "P29_008": "00", "P29_009": null }, "geometry": { "type": "Point", "coordinates": [ 132.178292220842536, 34.155365208215485 ] } },
{ "type": "Feature", "properties": { "P29_001": "35208", "P29_002": "D135210000023", "P29_003": "16004", "P29_004": "山口県立岩国商業高等学校", "P29_005": "山口県岩国市平田5-52-10", "P29_006": "2", "P29_007": "0", "P29_008": "00", "P29_009": null }, "geometry": { "type": "Point", "coordinates": [ 132.195002281253608, 34.145606136628899 ] } },
{ "type": "Feature", "properties": { "P29_001": "35208", "P29_002": "D135210000032", "P29_003": "16004", "P29_004": "山口県立岩国商業高等学校東分校", "P29_005": "山口県岩国市日の出町1-60", "P29_006": "2", "P29_007": "0", "P29_008": "00", "P29_009": null }, "geometry": { "type": "Point", "coordinates": [ 132.230942836450993, 34.168744171475232 ] } },
{ "type": "Feature", "properties": { "P29_001": "35208", "P29_002": "D135210000041", "P29_003": "16004", "P29_004": "山口県立岩国工業高等学校", "P29_005": "山口県岩国市錦見2-4-85", "P29_006": "2", "P29_007": "0", "P29_008": "00", "P29_009": null }, "geometry": { "type": "Point", "coordinates": [ 132.193529309916869, 34.168728527307728 ] } },
{ "type": "Feature", "properties": { "P29_001": "35208", "P29_002": "D135210000050", "P29_003": "16004", "P29_004": "山口県立高森高等学校", "P29_005": "山口県岩国市玖珂町1253", "P29_006": "2", "P29_007": "0", "P29_008": "00", "P29_009": null }, "geometry": { "type": "Point", "coordinates": [ 132.056717697917748, 34.093487886544864 ] } },
{ "type": "Feature", "properties": { "P29_001": "35212", "P29_002": "D135210000069", "P29_003": "16004", "P29_004": "山口県立柳井高等学校", "P29_005": "山口県柳井市古開作611-1", "P29_006": "2", "P29_007": "0", "P29_008": "00", "P29_009": null }, "geometry": { "type": "Point", "coordinates": [ 132.097519524750624, 33.965749481463895 ] } },
{ "type": "Feature", "properties": { "P29_001": "35344", "P29_002": "D135210000078", "P29_003": "16004", "P29_004": "山口県立熊毛南高等学校", "P29_005": "山口県熊毛郡平生町竪ヶ浜666", "P29_006": "2", "P29_007": "0", "P29_008": "00", "P29_009": null }, "geometry": { "type": "Point", "coordinates": [ 132.061467845510464, 33.953320083818021 ] } },
{ "type": "Feature", "properties": { "P29_001": "35215", "P29_002": "D135210000096", "P29_003": "16004", "P29_004": "山口県立熊毛北高等学校", "P29_005": "山口県周南市大字安田字追迫1-2", "P29_006": "2", "P29_007": "0", "P29_008": "00", "P29_009": null }, "geometry": { "type": "Point", "coordinates": [ 131.979304988373002, 34.040422317974603 ] } },
{ "type": "Feature", "properties": { "P29_001": "35207", "P29_002": "D135210000103", "P29_003": "16004", "P29_004": "山口県立下松高等学校", "P29_005": "山口県下松市若宮町12-1", "P29_006": "2", "P29_007": "0", "P29_008": "00", "P29_009": null }, "geometry": { "type": "Point", "coordinates": [ 131.881016137221025, 34.022171319992729 ] } },
{ "type": "Feature", "properties": { "P29_001": "35207", "P29_002": "D135210000112", "P29_003": "16004", "P29_004": "山口県立下松工業高等学校", "P29_005": "山口県下松市美里町4-13-1", "P29_006": "2", "P29_007": "0", "P29_008": "00", "P29_009": null }, "geometry": { "type": "Point", "coordinates": [ 131.858006367471461, 34.019903237960349 ] } },
{ "type": "Feature", "properties": { "P29_001": "35215", "P29_002": "D135210000121", "P29_003": "16004", "P29_004": "山口県立徳山高等学校", "P29_005": "山口県周南市鐘楼町2-50", "P29_006": "2", "P29_007": "0", "P29_008": "00", "P29_009": null }, "geometry": { "type": "Point", "coordinates": [ 131.809013005330996, 34.060321438832098 ] } },
{ "type": "Feature", "properties": { "P29_001": "35215", "P29_002": "D135210000130", "P29_003": "16004", "P29_004": "山口県立南陽工業高等学校", "P29_005": "山口県周南市温田1-1-1", "P29_006": "2", "P29_007": "0", "P29_008": "00", "P29_009": null }, "geometry": { "type": "Point", "coordinates": [ 131.746306362162358, 34.073536832129193 ] } },
{ "type": "Feature", "properties": { "P29_001": "35206", "P29_002": "D135210000149", "P29_003": "16004", "P29_004": "山口県立防府高等学校", "P29_005": "山口県防府市岡村町2-1", "P29_006": "2", "P29_007": "0", "P29_008": "00", "P29_009": null }, "geometry": { "type": "Point", "coordinates": [ 131.570624428419364, 34.047497801703983 ] } },
{ "type": "Feature", "properties": { "P29_001": "35203", "P29_002": "D135210000158", "P29_003": "16004", "P29_004": "山口県立山口高等学校", "P29_005": "山口県山口市糸米1-9-1", "P29_006": "2", "P29_007": "0", "P29_008": "00", "P29_009": null }, "geometry": { "type": "Point", "coordinates": [ 131.465454938873762, 34.175647277404408 ] } },
{ "type": "Feature", "properties": { "P29_001": "35203", "P29_002": "D135210000167", "P29_003": "16004", "P29_004": "山口県立山口中央高等学校", "P29_005": "山口県山口市宮島町6-1", "P29_006": "2", "P29_007": "0", "P29_008": "00", "P29_009": null }, "geometry": { "type": "Point", "coordinates": [ 131.479195082335877, 34.165964173267547 ] } },
{ "type": "Feature", "properties": { "P29_001": "35203", "P29_002": "D135210000176", "P29_003": "16004", "P29_004": "山口県立山口農業高等学校", "P29_005": "山口県山口市小郡上郷980-1", "P29_006": "2", "P29_007": "0", "P29_008": "00", "P29_009": null }, "geometry": { "type": "Point", "coordinates": [ 131.409100840392625, 34.131655024528882 ] } },
{ "type": "Feature", "properties": { "P29_001": "35202", "P29_002": "D135210000185", "P29_003": "16004", "P29_004": "山口県立宇部高等学校", "P29_005": "山口県宇部市寺の前町3-1", "P29_006": "2", "P29_007": "0", "P29_008": "00", "P29_009": null }, "geometry": { "type": "Point", "coordinates": [ 131.268950246163854, 33.962817458080814 ] } },
{ "type": "Feature", "properties": { "P29_001": "35202", "P29_002": "D135210000194", "P29_003": "16004", "P29_004": "山口県立宇部中央高等学校", "P29_005": "山口県宇部市東梶返4-10-30", "P29_006": "2", "P29_007": "0", "P29_008": "00", "P29_009": null }, "geometry": { "type": "Point", "coordinates": [ 131.261836668477315, 33.951624688069863 ] } },
{ "type": "Feature", "properties": { "P29_001": "35202", "P29_002": "D135210000201", "P29_003": "16004", "P29_004": "山口県立宇部西高等学校", "P29_005": "山口県宇部市大字沖ノ旦", "P29_006": "2", "P29_007": "0", "P29_008": "00", "P29_009": null }, "geometry": { "type": "Point", "coordinates": [ 131.235258435522582, 33.991693053083111 ] } },
{ "type": "Feature", "properties": { "P29_001": "35202", "P29_002": "D135210000210", "P29_003": "16004", "P29_004": "山口県立宇部商業高等学校", "P29_005": "山口県宇部市大字際波字岡の原220", "P29_006": "2", "P29_007": "0", "P29_008": "00", "P29_009": null }, "geometry": { "type": "Point", "coordinates": [ 131.22021227448667, 34.008476183032151 ] } },
{ "type": "Feature", "properties": { "P29_001": "35202", "P29_002": "D135210000229", "P29_003": "16004", "P29_004": "山口県立宇部工業高等学校", "P29_005": "山口県宇部市北琴芝1-1-1", "P29_006": "2", "P29_007": "0", "P29_008": "00", "P29_009": null }, "geometry": { "type": "Point", "coordinates": [ 131.254285937190787, 33.961074325835831 ] } },
{ "type": "Feature", "properties": { "P29_001": "35216", "P29_002": "D135210000238", "P29_003": "16004", "P29_004": "山口県立小野田高等学校", "P29_005": "山口県山陽小野田市くし山1-26-1", "P29_006": "2", "P29_007": "0", "P29_008": "00", "P29_009": null }, "geometry": { "type": "Point", "coordinates": [ 131.187241910657406, 34.009987633392917 ] } },
{ "type": "Feature", "properties": { "P29_001": "35216", "P29_002": "D135210000247", "P29_003": "16004", "P29_004": "山口県立小野田工業高等学校", "P29_005": "山口県山陽小野田市中央2-6-1", "P29_006": "2", "P29_007": "0", "P29_008": "00", "P29_009": null }, "geometry": { "type": "Point", "coordinates": [ 131.178352985581881, 33.978596262868045 ] } },
{ "type": "Feature", "properties": { "P29_001": "35216", "P29_002": "D135210000256", "P29_003": "16004", "P29_004": "山口県立厚狭高等学校", "P29_005": "山口県山陽小野田市厚狭束の原1660", "P29_006": "2", "P29_007": "0", "P29_008": "00", "P29_009": null }, "geometry": { "type": "Point", "coordinates": [ 131.1722481332028, 34.061607072881102 ] } },
{ "type": "Feature", "properties": { "P29_001": "35201", "P29_002": "D135210000265", "P29_003": "16004", "P29_004": "山口県立田部高等学校", "P29_005": "山口県下関市菊川町大字田部1074", "P29_006": "2", "P29_007": "0", "P29_008": "00", "P29_009": null }, "geometry": { "type": "Point", "coordinates": [ 131.030553410583622, 34.117938858562532 ] } },
{ "type": "Feature", "properties": { "P29_001": "35201", "P29_002": "D135210000283", "P29_003": "16004", "P29_004": "山口県立豊浦高等学校", "P29_005": "山口県下関市長府宮崎町1-1", "P29_006": "2", "P29_007": "0", "P29_008": "00", "P29_009": null }, "geometry": { "type": "Point", "coordinates": [ 130.992400901154866, 33.991360120048782 ] } },
{ "type": "Feature", "properties": { "P29_001": "35201", "P29_002": "D135210000292", "P29_003": "16004", "P29_004": "山口県立長府高等学校", "P29_005": "山口県下関市長府亀の甲2-3-1", "P29_006": "2", "P29_007": "0", "P29_008": "00", "P29_009": null }, "geometry": { "type": "Point", "coordinates": [ 130.98676270718164, 34.002748462554401 ] } },
{ "type": "Feature", "properties": { "P29_001": "35201", "P29_002": "D135210000309", "P29_003": "16004", "P29_004": "山口県立下関西高等学校", "P29_005": "山口県下関市後田町4-10-1", "P29_006": "2", "P29_007": "0", "P29_008": "00", "P29_009": null }, "geometry": { "type": "Point", "coordinates": [ 130.929093283704475, 33.972431879105827 ] } },
{ "type": "Feature", "properties": { "P29_001": "35201", "P29_002": "D135210000318", "P29_003": "16004", "P29_004": "山口県立下関南高等学校", "P29_005": "山口県下関市後田町1-8-1", "P29_006": "2", "P29_007": "0", "P29_008": "00", "P29_009": null }, "geometry": { "type": "Point", "coordinates": [ 130.931956993763038, 33.969025336083874 ] } },
{ "type": "Feature", "properties": { "P29_001": "35204", "P29_002": "D135210000327", "P29_003": "16004", "P29_004": "山口県立萩高等学校", "P29_005": "山口県萩市大字堀内132", "P29_006": "2", "P29_007": "0", "P29_008": "00", "P29_009": null }, "geometry": { "type": "Point", "coordinates": [ 131.385918580046933, 34.412633601357264 ] } },
{ "type": "Feature", "properties": { "P29_001": "35201", "P29_002": "D135210000336", "P29_003": "16004", "P29_004": "下関市立下関商業高等学校", "P29_005": "山口県下関市後田町4-11-1", "P29_006": "3", "P29_007": "0", "P29_008": "00", "P29_009": null }, "geometry": { "type": "Point", "coordinates": [ 130.928026284766929, 33.973525871385952 ] } },
{ "type": "Feature", "properties": { "P29_001": "35208", "P29_002": "D135210000345", "P29_003": "16004", "P29_004": "山口県立岩国総合高等学校", "P29_005": "山口県岩国市藤生町4-41-1", "P29_006": "2", "P29_007": "0", "P29_008": "00", "P29_009": null }, "geometry": { "type": "Point", "coordinates": [ 132.192440401063124, 34.113775748523167 ] } },
{ "type": "Feature", "properties": { "P29_001": "35206", "P29_002": "D135210000354", "P29_003": "16004", "P29_004": "山口県立防府西高等学校", "P29_005": "山口県防府市大字台道36-1", "P29_006": "2", "P29_007": "0", "P29_008": "00", "P29_009": null }, "geometry": { "type": "Point", "coordinates": [ 131.500806852809347, 34.055085939186718 ] } },
{ "type": "Feature", "properties": { "P29_001": "35215", "P29_002": "D135210000363", "P29_003": "16004", "P29_004": "山口県立新南陽高等学校", "P29_005": "山口県周南市土井1-8-1", "P29_006": "2", "P29_007": "0", "P29_008": "00", "P29_009": null }, "geometry": { "type": "Point", "coordinates": [ 131.771116143337622, 34.077784203113488 ] } },
{ "type": "Feature", "properties": { "P29_001": "35203", "P29_002": "D135210000381", "P29_003": "16004", "P29_004": "山口県立西京高等学校", "P29_005": "山口県山口市黒川2580-1", "P29_006": "2", "P29_007": "0", "P29_008": "00", "P29_009": null }, "geometry": { "type": "Point", "coordinates": [ 131.445286160001274, 34.136156088097096 ] } },
{ "type": "Feature", "properties": { "P29_001": "35207", "P29_002": "D135210000390", "P29_003": "16004", "P29_004": "山口県立華陵高等学校", "P29_005": "山口県下松市末武上217-2", "P29_006": "2", "P29_007": "0", "P29_008": "00", "P29_009": null }, "geometry": { "type": "Point", "coordinates": [ 131.87627326861616, 34.041200060370784 ] } },
{ "type": "Feature", "properties": { "P29_001": "35212", "P29_002": "D135210000407", "P29_003": "16004", "P29_004": "山口県立柳井商工高等学校", "P29_005": "山口県柳井市伊保庄2658", "P29_006": "2", "P29_007": "0", "P29_008": "00", "P29_009": null }, "geometry": { "type": "Point", "coordinates": [ 132.100477664215418, 33.956106053044664 ] } },
{ "type": "Feature", "properties": { "P29_001": "35215", "P29_002": "D135210000416", "P29_003": "16004", "P29_004": "山口県立徳山商工高等学校", "P29_005": "山口県周南市周陽3-1-1", "P29_006": "2", "P29_007": "0", "P29_008": "00", "P29_009": null }, "geometry": { "type": "Point", "coordinates": [ 131.827440908109338, 34.046015090042268 ] } },
{ "type": "Feature", "properties": { "P29_001": "35204", "P29_002": "D135210000425", "P29_003": "16004", "P29_004": "山口県立萩商工高等学校", "P29_005": "山口県萩市大字平安古町544", "P29_006": "2", "P29_007": "0", "P29_008": "00", "P29_009": null }, "geometry": { "type": "Point", "coordinates": [ 131.393308989373821, 34.406991703177908 ] } },
{ "type": "Feature", "properties": { "P29_001": "35305", "P29_002": "D135210000434", "P29_003": "16004", "P29_004": "山口県立周防大島高等学校", "P29_005": "山口県大島郡周防大島町西安下庄489", "P29_006": "2", "P29_007": "0", "P29_008": "00", "P29_009": null }, "geometry": { "type": "Point", "coordinates": [ 132.278468995277223, 33.897199861839887 ] } },
{ "type": "Feature", "properties": { "P29_001": "35208", "P29_002": "D135210000443", "P29_003": "16004", "P29_004": "山口県立岩国高等学校坂上分校", "P29_005": "山口県岩国市美和町渋前1275", "P29_006": "2", "P29_007": "0", "P29_008": "00", "P29_009": null }, "geometry": { "type": "Point", "coordinates": [ 132.087026581069864, 34.22046716882933 ] } },
{ "type": "Feature", "properties": { "P29_001": "35208", "P29_002": "D135210000452", "P29_003": "16004", "P29_004": "山口県立岩国高等学校広瀬分校", "P29_005": "山口県岩国市錦町広瀬87", "P29_006": "2", "P29_007": "0", "P29_008": "00", "P29_009": null }, "geometry": { "type": "Point", "coordinates": [ 131.958149991241584, 34.26286231490603 ] } },
{ "type": "Feature", "properties": { "P29_001": "35203", "P29_002": "D135210000470", "P29_003": "16004", "P29_004": "山口県立山口高等学校徳佐分校", "P29_005": "山口県山口市阿東徳佐中1033-1", "P29_006": "2", "P29_007": "0", "P29_008": "00", "P29_009": null }, "geometry": { "type": "Point", "coordinates": [ 131.72389371012531, 34.401119659918535 ] } },
{ "type": "Feature", "properties": { "P29_001": "35343", "P29_002": "D135210000489", "P29_003": "16004", "P29_004": "山口県立田布施農工高等学校", "P29_005": "山口県熊毛郡田布施町大字波野10195", "P29_006": "2", "P29_007": "0", "P29_008": "00", "P29_009": null }, "geometry": { "type": "Point", "coordinates": [ 132.040641855287078, 33.962023141680135 ] } },
{ "type": "Feature", "properties": { "P29_001": "35211", "P29_002": "D135210000498", "P29_003": "16004", "P29_004": "山口県立大津緑洋高等学校", "P29_005": "山口県長門市東深川427-2", "P29_006": "2", "P29_007": "0", "P29_008": "00", "P29_009": null }, "geometry": { "type": "Point", "coordinates": [ 131.192728729432616, 34.381289818867174 ] } },
{ "type": "Feature", "properties": { "P29_001": "35206", "P29_002": "D135210000504", "P29_003": "16004", "P29_004": "山口県立防府商工高等学校", "P29_005": "山口県防府市中央町3-1", "P29_006": "2", "P29_007": "0", "P29_008": "00", "P29_009": null }, "geometry": { "type": "Point", "coordinates": [ 131.570649141882512, 34.051056550238378 ] } },
{ "type": "Feature", "properties": { "P29_001": "35203", "P29_002": "D135210000522", "P29_003": "16004", "P29_004": "山口県立防府高等学校佐波分校", "P29_005": "山口県山口市徳地堀2429", "P29_006": "2", "P29_007": "0", "P29_008": "00", "P29_009": null }, "geometry": { "type": "Point", "coordinates": [ 131.660821861591131, 34.19699066156938 ] } },
{ "type": "Feature", "properties": { "P29_001": "35213", "P29_002": "D135210000531", "P29_003": "16004", "P29_004": "山口県立美祢青嶺高等学校", "P29_005": "山口県美祢市大嶺町東分299-1", "P29_006": "2", "P29_007": "0", "P29_008": "00", "P29_009": null }, "geometry": { "type": "Point", "coordinates": [ 131.214094969078047, 34.178693153312459 ] } },
{ "type": "Feature", "properties": { "P29_001": "35201", "P29_002": "D135210000540", "P29_003": "16004", "P29_004": "山口県立下関工科高等学校", "P29_005": "山口県下関市富任町4-1-1", "P29_006": "2", "P29_007": "0", "P29_008": "00", "P29_009": null }, "geometry": { "type": "Point", "coordinates": [ 130.920593748257886, 34.023446412664001 ] } },
{ "type": "Feature", "properties": { "P29_001": "35502", "P29_002": "D135210000559", "P29_003": "16004", "P29_004": "山口県立萩高等学校奈古分校", "P29_005": "山口県阿武郡阿武町奈古2968-1", "P29_006": "2", "P29_007": "0", "P29_008": "00", "P29_009": null }, "geometry": { "type": "Point", "coordinates": [ 131.473468692693018, 34.504804386027914 ] } },
{ "type": "Feature", "properties": { "P29_001": "35201", "P29_002": "D135210000568", "P29_003": "16004", "P29_004": "山口県立下関北高等学校", "P29_005": "山口県下関市豊北町大字滝部1003", "P29_006": "2", "P29_007": "0", "P29_008": "00", "P29_009": null }, "geometry": { "type": "Point", "coordinates": [ 130.957610394662993, 34.292368536037472 ] } },
{ "type": "Feature", "properties": { "P29_001": "35201", "P29_002": "D135210000577", "P29_003": "16004", "P29_004": "山口県立下関双葉高等学校", "P29_005": "山口県下関市後田町4-25-1", "P29_006": "2", "P29_007": "0", "P29_008": "00", "P29_009": null }, "geometry": { "type": "Point", "coordinates": [ 130.92559768432605, 33.97349849282012 ] } },
{ "type": "Feature", "properties": { "P29_001": "35201", "P29_002": "D135210000586", "P29_003": "16004", "P29_004": "山口県立山口農業高等学校西市分校", "P29_005": "山口県下関市豊田町殿敷834-5", "P29_006": "2", "P29_007": "0", "P29_008": "00", "P29_009": null }, "geometry": { "type": "Point", "coordinates": [ 131.083251404308868, 34.197789320925111 ] } },
{ "type": "Feature", "properties": { "P29_001": "35210", "P29_002": "D135210000595", "P29_003": "16004", "P29_004": "山口県立光高等学校", "P29_005": "山口県光市光井6-10-1", "P29_006": "2", "P29_007": "0", "P29_008": "00", "P29_009": null }, "geometry": { "type": "Point", "coordinates": [ 131.952816231100343, 33.962780625962765 ] } },
{ "type": "Feature", "properties": { "P29_001": "35203", "P29_002": "D135210000602", "P29_003": "16004", "P29_004": "山口県立山口松風館高等学校", "P29_005": "山口県山口市小郡令和3-6-18", "P29_006": "2", "P29_007": "0", "P29_008": "00", "P29_009": null }, "geometry": { "type": "Point", "coordinates": [ 131.392409934295983, 34.092431983426884 ] } },
{ "type": "Feature", "properties": { "P29_001": "35201", "P29_002": "D135310000012", "P29_003": "16004", "P29_004": "梅光学院高等学校", "P29_005": "山口県下関市丸山町2-9-1", "P29_006": "4", "P29_007": "0", "P29_008": "00", "P29_009": null }, "geometry": { "type": "Point", "coordinates": [ 130.934107267155838, 33.957789815972276 ] } },
{ "type": "Feature", "properties": { "P29_001": "35201", "P29_002": "D135310000021", "P29_003": "16004", "P29_004": "早鞆高等学校", "P29_005": "山口県下関市上田中町8-3-1", "P29_006": "4", "P29_007": "0", "P29_008": "00", "P29_009": null }, "geometry": { "type": "Point", "coordinates": [ 130.935383795236788, 33.964695885686773 ] } },
{ "type": "Feature", "properties": { "P29_001": "35201", "P29_002": "D135310000030", "P29_003": "16004", "P29_004": "下関短期大学付属高等学校", "P29_005": "山口県下関市桜山町1-1", "P29_006": "4", "P29_007": "0", "P29_008": "00", "P29_009": null }, "geometry": { "type": "Point", "coordinates": [ 130.922831921971124, 33.962604417999742 ] } },
{ "type": "Feature", "properties": { "P29_001": "35201", "P29_002": "D135310000049", "P29_003": "16004", "P29_004": "下関国際高等学校", "P29_005": "山口県下関市大字伊倉字四方山7", "P29_006": "4", "P29_007": "0", "P29_008": "00", "P29_009": null }, "geometry": { "type": "Point", "coordinates": [ 130.945451593830342, 34.002772761134864 ] } },
{ "type": "Feature", "properties": { "P29_001": "35202", "P29_002": "D135310000058", "P29_003": "16004", "P29_004": "宇部鴻城高等学校", "P29_005": "山口県宇部市大字際波字的場370", "P29_006": "4", "P29_007": "0", "P29_008": "00", "P29_009": null }, "geometry": { "type": "Point", "coordinates": [ 131.210062965387181, 34.002826460486737 ] } },
{ "type": "Feature", "properties": { "P29_001": "35202", "P29_002": "D135310000067", "P29_003": "16004", "P29_004": "慶進高等学校", "P29_005": "山口県宇部市西琴芝2-12-18", "P29_006": "4", "P29_007": "0", "P29_008": "00", "P29_009": null }, "geometry": { "type": "Point", "coordinates": [ 131.251969214158805, 33.955561733827338 ] } },
{ "type": "Feature", "properties": { "P29_001": "35202", "P29_002": "D135310000076", "P29_003": "16004", "P29_004": "宇部フロンティア大学付属香川高等学校", "P29_005": "山口県宇部市文京町1-25", "P29_006": "4", "P29_007": "0", "P29_008": "00", "P29_009": null }, "geometry": { "type": "Point", "coordinates": [ 131.232513212953677, 33.972776818253379 ] } },
{ "type": "Feature", "properties": { "P29_001": "35203", "P29_002": "D135310000085", "P29_003": "16004", "P29_004": "中村女子高等学校", "P29_005": "山口県山口市駅通り1-1-1", "P29_006": "4", "P29_007": "0", "P29_008": "01", "P29_009": null }, "geometry": { "type": "Point", "coordinates": [ 131.477322171181754, 34.173547098937597 ] } },
{ "type": "Feature", "properties": { "P29_001": "35203", "P29_002": "D135310000094", "P29_003": "16004", "P29_004": "野田学園高等学校", "P29_005": "山口県山口市野田56", "P29_006": "4", "P29_007": "0", "P29_008": "00", "P29_009": null }, "geometry": { "type": "Point", "coordinates": [ 131.4795837180273, 34.186192804266014 ] } },
{ "type": "Feature", "properties": { "P29_001": "35204", "P29_002": "D135310000101", "P29_003": "16004", "P29_004": "萩光塩学院高等学校", "P29_005": "山口県萩市大字東田町15", "P29_006": "4", "P29_007": "0", "P29_008": "00", "P29_009": null }, "geometry": { "type": "Point", "coordinates": [ 131.404446288555022, 34.412113590511751 ] } },
{ "type": "Feature", "properties": { "P29_001": "35215", "P29_002": "D135310000110", "P29_003": "16004", "P29_004": "山口県桜ケ丘高等学校", "P29_005": "山口県周南市大字徳山5626-1", "P29_006": "4", "P29_007": "0", "P29_008": "00", "P29_009": null }, "geometry": { "type": "Point", "coordinates": [ 131.817758879565645, 34.061421251011453 ] } },
{ "type": "Feature", "properties": { "P29_001": "35206", "P29_002": "D135310000129", "P29_003": "16004", "P29_004": "誠英高等学校", "P29_005": "山口県防府市東三田尻1-2-14", "P29_006": "4", "P29_007": "0", "P29_008": "00", "P29_009": null }, "geometry": { "type": "Point", "coordinates": [ 131.576024325815638, 34.048816036941403 ] } },
{ "type": "Feature", "properties": { "P29_001": "35206", "P29_002": "D135310000138", "P29_003": "16004", "P29_004": "高川学園高等学校", "P29_005": "山口県防府市大字台道3635", "P29_006": "4", "P29_007": "0", "P29_008": "00", "P29_009": null }, "geometry": { "type": "Point", "coordinates": [ 131.487419395058765, 34.052198227013157 ] } },
{ "type": "Feature", "properties": { "P29_001": "35208", "P29_002": "D135310000147", "P29_003": "16004", "P29_004": "高水高等学校", "P29_005": "山口県岩国市尾津町2-24-18", "P29_006": "4", "P29_007": "0", "P29_008": "00", "P29_009": null }, "geometry": { "type": "Point", "coordinates": [ 132.204808309466529, 34.138957398885346 ] } },
{ "type": "Feature", "properties": { "P29_001": "35216", "P29_002": "D135310000156", "P29_003": "16004", "P29_004": "サビエル高等学校", "P29_005": "山口県山陽小野田市くし山3-5-1", "P29_006": "4", "P29_007": "0", "P29_008": "00", "P29_009": null }, "geometry": { "type": "Point", "coordinates": [ 131.187736080732066, 34.015743905578177 ] } },
{ "type": "Feature", "properties": { "P29_001": "35210", "P29_002": "D135310000165", "P29_003": "16004", "P29_004": "聖光高等学校", "P29_005": "山口県光市光井9-22-1", "P29_006": "4", "P29_007": "0", "P29_008": "00", "P29_009": null }, "geometry": { "type": "Point", "coordinates": [ 131.944942946275944, 33.961014356892377 ] } },
{ "type": "Feature", "properties": { "P29_001": "35211", "P29_002": "D135310000174", "P29_003": "16004", "P29_004": "長門高等学校", "P29_005": "山口県長門市東深川1621", "P29_006": "4", "P29_007": "0", "P29_008": "00", "P29_009": null }, "geometry": { "type": "Point", "coordinates": [ 131.187127966187433, 34.36987226233542 ] } },
{ "type": "Feature", "properties": { "P29_001": "35212", "P29_002": "D135310000183", "P29_003": "16004", "P29_004": "柳井学園高等学校", "P29_005": "山口県柳井市古開作410", "P29_006": "4", "P29_007": "0", "P29_008": "00", "P29_009": null }, "geometry": { "type": "Point", "coordinates": [ 132.101974451812282, 33.970127549985854 ] } },
{ "type": "Feature", "properties": { "P29_001": "35213", "P29_002": "D135310000192", "P29_003": "16004", "P29_004": "成進高等学校", "P29_005": "山口県美祢市大嶺町中村", "P29_006": "4", "P29_007": "0", "P29_008": "00", "P29_009": null }, "geometry": { "type": "Point", "coordinates": [ 131.202993821139387, 34.173503605238885 ] } },
{ "type": "Feature", "properties": { "P29_001": "35203", "P29_002": "D135310000209", "P29_003": "16004", "P29_004": "山口県鴻城高等学校", "P29_005": "山口県山口市小郡下郷258-2", "P29_006": "4", "P29_007": "0", "P29_008": "00", "P29_009": null }, "geometry": { "type": "Point", "coordinates": [ 131.400916714838843, 34.108792767383157 ] } },
{ "type": "Feature", "properties": { "P29_001": "35203", "P29_002": "D135310000218", "P29_003": "16004", "P29_004": "精華学園高等学校", "P29_005": "山口県山口市小郡栄町5-22", "P29_006": "4", "P29_007": "0", "P29_008": "00", "P29_009": null }, "geometry": { "type": "Point", "coordinates": [ 131.402915475401869, 34.089176452421974 ] } },
{ "type": "Feature", "properties": { "P29_001": "35208", "P29_002": "D135310000227", "P29_003": "16004", "P29_004": "松陰高等学校", "P29_005": "山口県岩国市錦町宇佐郷507", "P29_006": "4", "P29_007": "0", "P29_008": "00", "P29_009": null }, "geometry": { "type": "Point", "coordinates": [ 132.017012948146288, 34.39122148923424 ] } },
{ "type": "Feature", "properties": { "P29_001": "35203", "P29_002": "D135310000085", "P29_003": "16004", "P29_004": "中村女子高等学校", "P29_005": "山口県山口市黒川1280-1", "P29_006": "4", "P29_007": "0", "P29_008": "02", "P29_009": "専攻科校舎" }, "geometry": { "type": "Point", "coordinates": [ 131.454166827381329, 34.140428272012237 ] } }
]
}
