{
"type": "FeatureCollection",
"name": "geo_35_幼保連携型認定こども園",
"crs": { "type": "name", "properties": { "name": "urn:ogc:def:crs:EPSG::6668" } },
"features": [
{ "type": "Feature", "properties": { "P29_001": "35201", "P29_002": "A235210000019", "P29_003": "16013", "P29_004": "下関市立王喜こども園", "P29_005": "山口県下関市王喜本町2-15-1", "P29_006": "3", "P29_007": "0", "P29_008": "00", "P29_009": null }, "geometry": { "type": "Point", "coordinates": [ 131.053516754529227, 34.064352511470112 ] } },
{ "type": "Feature", "properties": { "P29_001": "35201", "P29_002": "A235210000028", "P29_003": "16013", "P29_004": "下関市立菊川こども園", "P29_005": "山口県下関市菊川町大字下岡枝字高田1504", "P29_006": "3", "P29_007": "0", "P29_008": "00", "P29_009": null }, "geometry": { "type": "Point", "coordinates": [ 131.026056768726988, 34.122393445901309 ] } },
{ "type": "Feature", "properties": { "P29_001": "35201", "P29_002": "A235210000037", "P29_003": "16013", "P29_004": "下関市立西市こども園", "P29_005": "山口県下関市豊田町大字矢田字横の田185", "P29_006": "3", "P29_007": "0", "P29_008": "00", "P29_009": null }, "geometry": { "type": "Point", "coordinates": [ 131.072638481437281, 34.203927763652935 ] } },
{ "type": "Feature", "properties": { "P29_001": "35201", "P29_002": "A235210000046", "P29_003": "16013", "P29_004": "下関市立豊田下こども園", "P29_005": "山口県下関市豊田町大字手洗字堂本273-1", "P29_006": "3", "P29_007": "0", "P29_008": "00", "P29_009": null }, "geometry": { "type": "Point", "coordinates": [ 131.067563659722595, 34.179909174317615 ] } },
{ "type": "Feature", "properties": { "P29_001": "35201", "P29_002": "A235210000055", "P29_003": "16013", "P29_004": "下関市立川棚こども園", "P29_005": "山口県下関市豊浦町大字川棚字寺田5281", "P29_006": "3", "P29_007": "0", "P29_008": "00", "P29_009": null }, "geometry": { "type": "Point", "coordinates": [ 130.935419741949971, 34.142326845929503 ] } },
{ "type": "Feature", "properties": { "P29_001": "35201", "P29_002": "A235210000064", "P29_003": "16013", "P29_004": "下関市立豊北こども園", "P29_005": "山口県下関市豊北町大字滝部字上ノ原2992-1", "P29_006": "3", "P29_007": "0", "P29_008": "00", "P29_009": null }, "geometry": { "type": "Point", "coordinates": [ 130.95040131578466, 34.293264424545669 ] } },
{ "type": "Feature", "properties": { "P29_001": "35201", "P29_002": "A235210000073", "P29_003": "16013", "P29_004": "下関市立黒井こども園", "P29_005": "山口県下関市豊浦町大字黒井字下北岡2159-1", "P29_006": "3", "P29_007": "0", "P29_008": "00", "P29_009": null }, "geometry": { "type": "Point", "coordinates": [ 130.915329001509718, 34.127324000589191 ] } },
{ "type": "Feature", "properties": { "P29_001": "35201", "P29_002": "A235210000082", "P29_003": "16013", "P29_004": "下関市立中央こども園", "P29_005": "山口県下関市幡生新町1-10", "P29_006": "3", "P29_007": "0", "P29_008": "00", "P29_009": null }, "geometry": { "type": "Point", "coordinates": [ 130.922045389227264, 33.973583660204532 ] } },
{ "type": "Feature", "properties": { "P29_001": "35201", "P29_002": "A235210000091", "P29_003": "16013", "P29_004": "下関市立垢田こども園", "P29_005": "山口県下関市新垢田東町1-2-7", "P29_006": "3", "P29_007": "0", "P29_008": "00", "P29_009": null }, "geometry": { "type": "Point", "coordinates": [ 130.915385000047991, 33.989324001443471 ] } },
{ "type": "Feature", "properties": { "P29_001": "35321", "P29_002": "A235210000108", "P29_003": "16013", "P29_004": "和木町立和木こども園", "P29_005": "山口県玖珂郡和木町和木2-4-1", "P29_006": "3", "P29_007": "0", "P29_008": "00", "P29_009": null }, "geometry": { "type": "Point", "coordinates": [ 132.222000740066477, 34.203938374042053 ] } },
{ "type": "Feature", "properties": { "P29_001": "35208", "P29_002": "A235210000117", "P29_003": "16013", "P29_004": "岩国市立にこにこちどりこども園", "P29_005": "山口県岩国市由宇町港1-17-1", "P29_006": "3", "P29_007": "0", "P29_008": "00", "P29_009": null }, "geometry": { "type": "Point", "coordinates": [ 132.21507411310472, 34.044071743890548 ] } },
{ "type": "Feature", "properties": { "P29_001": "35208", "P29_002": "A235210000126", "P29_003": "16013", "P29_004": "岩国市立さかうえこども園", "P29_005": "山口県岩国市美和町渋前431-1", "P29_006": "3", "P29_007": "0", "P29_008": "00", "P29_009": null }, "geometry": { "type": "Point", "coordinates": [ 132.10407399440561, 34.227969999258981 ] } },
{ "type": "Feature", "properties": { "P29_001": "35215", "P29_002": "A235210000135", "P29_003": "16013", "P29_004": "周南市立鹿野こども園", "P29_005": "山口県周南市大字鹿野上3039", "P29_006": "3", "P29_007": "0", "P29_008": "00", "P29_009": null }, "geometry": { "type": "Point", "coordinates": [ 131.813139995939252, 34.230562000222683 ] } },
{ "type": "Feature", "properties": { "P29_001": "35203", "P29_002": "A235210000144", "P29_003": "16013", "P29_004": "山口市立山口みなみこども園", "P29_005": "山口県山口市鋳銭司3922-1", "P29_006": "3", "P29_007": "0", "P29_008": "00", "P29_009": null }, "geometry": { "type": "Point", "coordinates": [ 131.45386445708877, 34.083195064523316 ] } },
{ "type": "Feature", "properties": { "P29_001": "35201", "P29_002": "A235210000153", "P29_003": "16013", "P29_004": "下関市立豊浦こども園", "P29_005": "山口県下関市長府亀の甲2-2-82", "P29_006": "3", "P29_007": "0", "P29_008": "00", "P29_009": null }, "geometry": { "type": "Point", "coordinates": [ 130.986562623399465, 34.003913911030345 ] } },
{ "type": "Feature", "properties": { "P29_001": "35201", "P29_002": "A235310000017", "P29_003": "16013", "P29_004": "長府幼稚園", "P29_005": "山口県下関市長府金屋町2-7", "P29_006": "4", "P29_007": "0", "P29_008": "00", "P29_009": null }, "geometry": { "type": "Point", "coordinates": [ 130.990178185533608, 34.002947911391637 ] } },
{ "type": "Feature", "properties": { "P29_001": "35204", "P29_002": "A235310000026", "P29_003": "16013", "P29_004": "認定こども園萩光塩学院幼稚園", "P29_005": "山口県萩市大字江向597", "P29_006": "4", "P29_007": "0", "P29_008": "00", "P29_009": null }, "geometry": { "type": "Point", "coordinates": [ 131.395432002115541, 34.411308996589874 ] } },
{ "type": "Feature", "properties": { "P29_001": "35204", "P29_002": "A235310000035", "P29_003": "16013", "P29_004": "認定こども園萩幼稚園", "P29_005": "山口県萩市大字西田町17", "P29_006": "4", "P29_007": "0", "P29_008": "00", "P29_009": null }, "geometry": { "type": "Point", "coordinates": [ 131.399582150520928, 34.413109601855751 ] } },
{ "type": "Feature", "properties": { "P29_001": "35201", "P29_002": "A235310000044", "P29_003": "16013", "P29_004": "聖母園", "P29_005": "山口県下関市彦島緑町11-6", "P29_006": "4", "P29_007": "0", "P29_008": "00", "P29_009": null }, "geometry": { "type": "Point", "coordinates": [ 130.909757682873988, 33.931851915665064 ] } },
{ "type": "Feature", "properties": { "P29_001": "35201", "P29_002": "A235310000053", "P29_003": "16013", "P29_004": "でしまつ子ども園", "P29_005": "山口県下関市彦島杉田町2-3-10", "P29_006": "4", "P29_007": "0", "P29_008": "00", "P29_009": null }, "geometry": { "type": "Point", "coordinates": [ 130.920921503597782, 33.926879708621939 ] } },
{ "type": "Feature", "properties": { "P29_001": "35201", "P29_002": "A235310000062", "P29_003": "16013", "P29_004": "吉田緑こども園", "P29_005": "山口県下関市大字吉田1085-1", "P29_006": "4", "P29_007": "0", "P29_008": "00", "P29_009": null }, "geometry": { "type": "Point", "coordinates": [ 131.071921707313038, 34.086865381294373 ] } },
{ "type": "Feature", "properties": { "P29_001": "35201", "P29_002": "A235310000071", "P29_003": "16013", "P29_004": "くりのみ子供園", "P29_005": "山口県下関市彦島田の首町2-6-10", "P29_006": "4", "P29_007": "0", "P29_008": "00", "P29_009": null }, "geometry": { "type": "Point", "coordinates": [ 130.915982862898773, 33.917003423823559 ] } },
{ "type": "Feature", "properties": { "P29_001": "35201", "P29_002": "A235310000080", "P29_003": "16013", "P29_004": "ひがし子ども園", "P29_005": "山口県下関市東向山町13-31", "P29_006": "4", "P29_007": "0", "P29_008": "00", "P29_009": null }, "geometry": { "type": "Point", "coordinates": [ 130.928820997553942, 33.967968000498644 ] } },
{ "type": "Feature", "properties": { "P29_001": "35201", "P29_002": "A235310000099", "P29_003": "16013", "P29_004": "豊北きらきらこども園", "P29_005": "山口県下関市豊北町大字神田2408", "P29_006": "4", "P29_007": "0", "P29_008": "00", "P29_009": null }, "geometry": { "type": "Point", "coordinates": [ 130.89573886233984, 34.33139498600098 ] } },
{ "type": "Feature", "properties": { "P29_001": "35201", "P29_002": "A235310000106", "P29_003": "16013", "P29_004": "しおかぜの里こども園", "P29_005": "山口県下関市彦島迫町6-7-22", "P29_006": "4", "P29_007": "0", "P29_008": "00", "P29_009": null }, "geometry": { "type": "Point", "coordinates": [ 130.896184528915683, 33.943127006953787 ] } },
{ "type": "Feature", "properties": { "P29_001": "35215", "P29_002": "A235310000115", "P29_003": "16013", "P29_004": "ふくがわこども園", "P29_005": "山口県周南市福川南町3-30", "P29_006": "4", "P29_007": "0", "P29_008": "00", "P29_009": null }, "geometry": { "type": "Point", "coordinates": [ 131.739319298600293, 34.071945755374863 ] } },
{ "type": "Feature", "properties": { "P29_001": "35208", "P29_002": "A235310000124", "P29_003": "16013", "P29_004": "認定こども園梅が丘保育園", "P29_005": "山口県岩国市平田6-50-27", "P29_006": "4", "P29_007": "0", "P29_008": "00", "P29_009": null }, "geometry": { "type": "Point", "coordinates": [ 132.18309474855181, 34.136910152433018 ] } },
{ "type": "Feature", "properties": { "P29_001": "35208", "P29_002": "A235310000133", "P29_003": "16013", "P29_004": "認定こども園川西保育園", "P29_005": "山口県岩国市川西1-7-3", "P29_006": "4", "P29_007": "0", "P29_008": "00", "P29_009": null }, "geometry": { "type": "Point", "coordinates": [ 132.175462996016876, 34.161683001743896 ] } },
{ "type": "Feature", "properties": { "P29_001": "35206", "P29_002": "A235310000142", "P29_003": "16013", "P29_004": "幼保連携型認定こども園きんこう保育園", "P29_005": "山口県防府市大字田島433", "P29_006": "4", "P29_007": "0", "P29_008": "00", "P29_009": null }, "geometry": { "type": "Point", "coordinates": [ 131.551776692872068, 34.024032590821157 ] } },
{ "type": "Feature", "properties": { "P29_001": "35206", "P29_002": "A235310000151", "P29_003": "16013", "P29_004": "幼保連携型認定こども園きんこう第２保育園", "P29_005": "山口県防府市大字田島2585-1", "P29_006": "4", "P29_007": "0", "P29_008": "00", "P29_009": null }, "geometry": { "type": "Point", "coordinates": [ 131.534648242559484, 34.013774638948881 ] } },
{ "type": "Feature", "properties": { "P29_001": "35215", "P29_002": "A235310000160", "P29_003": "16013", "P29_004": "認定こども園共楽保育園", "P29_005": "山口県周南市大字久米1311", "P29_006": "4", "P29_007": "0", "P29_008": "00", "P29_009": null }, "geometry": { "type": "Point", "coordinates": [ 131.842269789137589, 34.032568563937531 ] } },
{ "type": "Feature", "properties": { "P29_001": "35203", "P29_002": "A235310000179", "P29_003": "16013", "P29_004": "認定こども園野田学園幼稚園", "P29_005": "山口県山口市天花1-3-1", "P29_006": "4", "P29_007": "0", "P29_008": "00", "P29_009": null }, "geometry": { "type": "Point", "coordinates": [ 131.478772585773697, 34.187027027768018 ] } },
{ "type": "Feature", "properties": { "P29_001": "35201", "P29_002": "A235310000188", "P29_003": "16013", "P29_004": "小月こども園", "P29_005": "山口県下関市小月茶屋2-9-1", "P29_006": "4", "P29_007": "0", "P29_008": "00", "P29_009": null }, "geometry": { "type": "Point", "coordinates": [ 131.029556634490746, 34.067199962687972 ] } },
{ "type": "Feature", "properties": { "P29_001": "35206", "P29_002": "A235310000197", "P29_003": "16013", "P29_004": "幼保連携型認定こども園勝間保育園", "P29_005": "山口県防府市東三田尻1-8-1", "P29_006": "4", "P29_007": "0", "P29_008": "00", "P29_009": null }, "geometry": { "type": "Point", "coordinates": [ 131.574875471511319, 34.047581422595009 ] } },
{ "type": "Feature", "properties": { "P29_001": "35206", "P29_002": "A235310000204", "P29_003": "16013", "P29_004": "幼保連携型認定こども園三田尻保育園", "P29_005": "山口県防府市岡村町9-9", "P29_006": "4", "P29_007": "0", "P29_008": "00", "P29_009": null }, "geometry": { "type": "Point", "coordinates": [ 131.569545037040626, 34.045362826570539 ] } }
]
}
