{
"type": "FeatureCollection",
"name": "geo_35_短期入所生活介護",
"crs": { "type": "name", "properties": { "name": "urn:ogc:def:crs:OGC:1.3:CRS84" } },
"features": [
{ "type": "Feature", "properties": { "内容": "サテライト梨花の里アスピア【短期入所生活介護】山口県下関市豊北町大字滝部2969番地1", "url": "https://www.kaigokensaku.mhlw.go.jp/35/index.php?action_kouhyou_detail_004_kani=true&JigyosyoCd=3570104285-00&ServiceCd=210&Type=search", "url2": "http://houhokufukushikai.jp/" }, "geometry": { "type": "Point", "coordinates": [ 130.949768799999987, 34.289334 ] } },
{ "type": "Feature", "properties": { "内容": "特別養護老人ホーム富任荘【短期入所生活介護】下関市富任町６丁目１８番８号", "url": "https://www.kaigokensaku.mhlw.go.jp/35/index.php?action_kouhyou_detail_004_kani=true&JigyosyoCd=3570104293-00&ServiceCd=210&Type=search", "url2": "www.mizunoki.jp/syafuku/tomitou/" }, "geometry": { "type": "Point", "coordinates": [ 130.923703599999925, 34.0176608 ] } },
{ "type": "Feature", "properties": { "内容": "特別養護老人ホーム　白滝荘【短期入所生活介護】山口県下関市豊北町大字田耕12426番地1", "url": "https://www.kaigokensaku.mhlw.go.jp/35/index.php?action_kouhyou_detail_004_kani=true&JigyosyoCd=3577800083-00&ServiceCd=210&Type=search", "url2": "http://care-net.biz/35/shirataki/index.php" }, "geometry": { "type": "Point", "coordinates": [ 130.9885365, 34.2714973 ] } },
{ "type": "Feature", "properties": { "内容": "特別養護老人ホーム　豊田喜楽園【短期入所生活介護】下関市豊田町大字中村821-1", "url": "https://www.kaigokensaku.mhlw.go.jp/35/index.php?action_kouhyou_detail_004_kani=true&JigyosyoCd=3570106785-00&ServiceCd=210&Type=search", "url2": "houyuukai@festa.ocn.ne.jp" }, "geometry": { "type": "Point", "coordinates": [ 131.0688934, 34.1839223 ] } },
{ "type": "Feature", "properties": { "内容": "アイユウの苑　ゆめタウン　ショートステイ【短期入所生活介護】山口県下関市ゆめタウン2-24", "url": "https://www.kaigokensaku.mhlw.go.jp/35/index.php?action_kouhyou_detail_004_kani=true&JigyosyoCd=3570103329-00&ServiceCd=210&Type=search", "url2": "http://www.shoubikai.or.jp/index.html" }, "geometry": { "type": "Point", "coordinates": [ 131.012990400000035, 34.0276187 ] } },
{ "type": "Feature", "properties": { "内容": "特別養護老人ホームフェニックス一の宮【短期入所生活介護】山口県下関市一の宮学園町19-1", "url": "https://www.kaigokensaku.mhlw.go.jp/35/index.php?action_kouhyou_detail_004_kani=true&JigyosyoCd=3570105381-00&ServiceCd=210&Type=search", "url2": "http://www.akatsukikai.com" }, "geometry": { "type": "Point", "coordinates": [ 130.947512294581657, 33.997284914978202 ] } },
{ "type": "Feature", "properties": { "内容": "社会福祉法人やまばと会員光園【短期入所生活介護】山口県下関市員光１５４４番地", "url": "https://www.kaigokensaku.mhlw.go.jp/35/index.php?action_kouhyou_detail_004_kani=true&JigyosyoCd=3570104988-00&ServiceCd=210&Type=search", "url2": "http://care-net.biz/35/yamabatokai/" }, "geometry": { "type": "Point", "coordinates": [ 130.984031499999986, 34.0510493 ] } },
{ "type": "Feature", "properties": { "内容": "特別養護老人ホーム　はまゆう苑【短期入所生活介護】下関市横野町3-15-10", "url": "https://www.kaigokensaku.mhlw.go.jp/35/index.php?action_kouhyou_detail_004_kani=true&JigyosyoCd=3570100093-00&ServiceCd=210&Type=search", "url2": "http://www.syoutoukai.or.jp/" }, "geometry": { "type": "Point", "coordinates": [ 130.910112600000048, 34.0351028 ] } },
{ "type": "Feature", "properties": { "内容": "特別養護老人ホームはまゆう苑なぎさ短期入所【短期入所生活介護】山口県下関市横野町３丁目１５番１０号", "url": "https://www.kaigokensaku.mhlw.go.jp/35/index.php?action_kouhyou_detail_004_kani=true&JigyosyoCd=3570104962-00&ServiceCd=210&Type=search", "url2": "http://www.syoutoukai.or.jp/" }, "geometry": { "type": "Point", "coordinates": [ 130.910112600000048, 34.0351028 ] } },
{ "type": "Feature", "properties": { "内容": "特別養護老人ホーム　貴船園【短期入所生活介護】下関市貴船町3丁目4-1", "url": "https://www.kaigokensaku.mhlw.go.jp/35/index.php?action_kouhyou_detail_004_kani=true&JigyosyoCd=3570102198-00&ServiceCd=210&Type=search", "url2": "http://www.kifuneen.saiseikai.or.jp" }, "geometry": { "type": "Point", "coordinates": [ 130.942592200000036, 33.9692601 ] } },
{ "type": "Feature", "properties": { "内容": "特別養護老人ホーム　きくがわ苑【短期入所生活介護】山口県下関市菊川町大字下岡枝1064番地", "url": "https://www.kaigokensaku.mhlw.go.jp/35/index.php?action_kouhyou_detail_004_kani=true&JigyosyoCd=3577800208-00&ServiceCd=210&Type=search", "url2": "https://www.kikusuikai.jp/" }, "geometry": { "type": "Point", "coordinates": [ 131.0415524, 34.1263641 ] } },
{ "type": "Feature", "properties": { "内容": "ショートステイフロイデ金比羅【短期入所生活介護】山口県下関市金比羅町10番1号", "url": "https://www.kaigokensaku.mhlw.go.jp/35/index.php?action_kouhyou_detail_004_kani=true&JigyosyoCd=3570105373-00&ServiceCd=210&Type=search", "url2": "http://www.syoutoukai.or.jp/" }, "geometry": { "type": "Point", "coordinates": [ 130.919252699999987, 33.9698016 ] } },
{ "type": "Feature", "properties": { "内容": "特別養護老人ホームフェニックス【短期入所生活介護】下関市大字小野64番地1", "url": "https://www.kaigokensaku.mhlw.go.jp/35/index.php?action_kouhyou_detail_004_kani=true&JigyosyoCd=3570100630-00&ServiceCd=210&Type=search", "url2": "http://www.akatsukikai.com" }, "geometry": { "type": "Point", "coordinates": [ 130.961961699999961, 34.0353505 ] } },
{ "type": "Feature", "properties": { "内容": "ユニット型　特別養護老人ホーム　フェニックス【短期入所生活介護】山口県下関市大字小野６４－１", "url": "https://www.kaigokensaku.mhlw.go.jp/35/index.php?action_kouhyou_detail_004_kani=true&JigyosyoCd=3570104970-00&ServiceCd=210&Type=search", "url2": "http://www.akatsukikai.com" }, "geometry": { "type": "Point", "coordinates": [ 130.961961699999961, 34.0353505 ] } },
{ "type": "Feature", "properties": { "内容": "特別養護老人ホーム　夢の里【短期入所生活介護】山口県下関市新地町３番２８号", "url": "https://www.kaigokensaku.mhlw.go.jp/35/index.php?action_kouhyou_detail_004_kani=true&JigyosyoCd=3570105860-00&ServiceCd=210&Type=search", "url2": null }, "geometry": { "type": "Point", "coordinates": [ 130.921541299999944, 33.9561751 ] } },
{ "type": "Feature", "properties": { "内容": "特別養護老人ホーム椋野喜楽園【短期入所生活介護】山口県下関市新椋野三丁目3番38号", "url": "https://www.kaigokensaku.mhlw.go.jp/35/index.php?action_kouhyou_detail_004_kani=true&JigyosyoCd=3570106330-00&ServiceCd=210&Type=search", "url2": "http://houyuukai.or.jp/" }, "geometry": { "type": "Point", "coordinates": [ 130.9432256, 33.9846719 ] } },
{ "type": "Feature", "properties": { "内容": "アイユウ長府ショートステイ【短期入所生活介護】山口県下関市長府金屋浜町1-5", "url": "https://www.kaigokensaku.mhlw.go.jp/35/index.php?action_kouhyou_detail_004_kani=true&JigyosyoCd=3570102180-00&ServiceCd=210&Type=search", "url2": "http://www.shoueikai-aiyuu.com/" }, "geometry": { "type": "Point", "coordinates": [ 130.991981200000026, 34.002732 ] } },
{ "type": "Feature", "properties": { "内容": "特別養護老人ホーム　みどり園【短期入所生活介護】山口県下関市長府才川二丁目21-1", "url": "https://www.kaigokensaku.mhlw.go.jp/35/index.php?action_kouhyou_detail_004_kani=true&JigyosyoCd=3570100440-00&ServiceCd=210&Type=search", "url2": "http://wwwcare-net.biz/35/houaikai/" }, "geometry": { "type": "Point", "coordinates": [ 130.9995583, 34.0252383 ] } },
{ "type": "Feature", "properties": { "内容": "特別養護老人ホーム　慈公園【短期入所生活介護】山口県下関市稗田中町8番38号", "url": "https://www.kaigokensaku.mhlw.go.jp/35/index.php?action_kouhyou_detail_004_kani=true&JigyosyoCd=3570100465-00&ServiceCd=210&Type=search", "url2": "http://hieda-fukushikai.com/" }, "geometry": { "type": "Point", "coordinates": [ 130.926020699999981, 33.9959854 ] } },
{ "type": "Feature", "properties": { "内容": "特別養護老人ホーム稗田喜楽園【短期入所生活介護】山口県下関市稗田町8-18", "url": "https://www.kaigokensaku.mhlw.go.jp/35/index.php?action_kouhyou_detail_004_kani=true&JigyosyoCd=3570105936-00&ServiceCd=210&Type=search", "url2": "http://houyuukai.or.jp/" }, "geometry": { "type": "Point", "coordinates": [ 130.926642899999933, 33.9954882 ] } },
{ "type": "Feature", "properties": { "内容": "特別養護老人ホーム　アイユウの苑【短期入所生活介護】山口県下関市彦島迫町三丁目17番2号", "url": "https://www.kaigokensaku.mhlw.go.jp/35/index.php?action_kouhyou_detail_004_kani=true&JigyosyoCd=3570100580-00&ServiceCd=210&Type=search", "url2": "http://www.shoubikai.or.jp" }, "geometry": { "type": "Point", "coordinates": [ 130.9002994, 33.9383705 ] } },
{ "type": "Feature", "properties": { "内容": "サテライト　望海苑【短期入所生活介護】下関市武久町２丁目４８－１７", "url": "https://www.kaigokensaku.mhlw.go.jp/35/index.php?action_kouhyou_detail_004_kani=true&JigyosyoCd=3570103212-00&ServiceCd=210&Type=search", "url2": "http://shoujuen.jp/publics/index/32/" }, "geometry": { "type": "Point", "coordinates": [ 130.917865963229389, 33.981247999825094 ] } },
{ "type": "Feature", "properties": { "内容": "特別養護老人ホーム　寿海荘【短期入所生活介護】下関市武久町２丁目５３－８", "url": "https://www.kaigokensaku.mhlw.go.jp/35/index.php?action_kouhyou_detail_004_kani=true&JigyosyoCd=3570100606-00&ServiceCd=210&Type=search", "url2": "http://shoujuen.jp" }, "geometry": { "type": "Point", "coordinates": [ 130.916864241139223, 33.98111431395283 ] } },
{ "type": "Feature", "properties": { "内容": "特別養護老人ホーム豊寿苑【短期入所生活介護】山口県下関市豊浦町大字厚母郷10442番地", "url": "https://www.kaigokensaku.mhlw.go.jp/35/index.php?action_kouhyou_detail_004_kani=true&JigyosyoCd=3570102883-00&ServiceCd=210&Type=search", "url2": "http://care-net.biz/35/houjyu/" }, "geometry": { "type": "Point", "coordinates": [ 130.905915991598249, 34.118540036649144 ] } },
{ "type": "Feature", "properties": { "内容": "特別養護老人ホーム　ほたるホームとよた（ユニット型）【短期入所生活介護】山口県下関市豊田町大字荒木10051番地2", "url": "https://www.kaigokensaku.mhlw.go.jp/35/index.php?action_kouhyou_detail_004_kani=true&JigyosyoCd=3570104996-00&ServiceCd=210&Type=search", "url2": "http://houzyukai.jp/" }, "geometry": { "type": "Point", "coordinates": [ 131.042815900000051, 34.2528649 ] } },
{ "type": "Feature", "properties": { "内容": "特別養護老人ホーム　ほたるホームとよた【短期入所生活介護】山口県下関市豊田町大字荒木10051番地2", "url": "https://www.kaigokensaku.mhlw.go.jp/35/index.php?action_kouhyou_detail_004_kani=true&JigyosyoCd=3577800117-00&ServiceCd=210&Type=search", "url2": "http://houzyukai.jp/" }, "geometry": { "type": "Point", "coordinates": [ 131.042815900000051, 34.2528649 ] } },
{ "type": "Feature", "properties": { "内容": "特別養護老人ホーム梨花の里【短期入所生活介護】山口県下関市豊北町大字滝部11042番地1", "url": "https://www.kaigokensaku.mhlw.go.jp/35/index.php?action_kouhyou_detail_004_kani=true&JigyosyoCd=3570103477-00&ServiceCd=210&Type=search", "url2": "http://houhokufukushikai.jp/" }, "geometry": { "type": "Point", "coordinates": [ 130.94958734718162, 34.292542541413056 ] } },
{ "type": "Feature", "properties": { "内容": "むべの里ショートステイ東芝中【短期入所生活介護】宇部市東芝中町3番26号", "url": "https://www.kaigokensaku.mhlw.go.jp/35/index.php?action_kouhyou_detail_004_kani=true&JigyosyoCd=3570202469-00&ServiceCd=210&Type=search", "url2": null }, "geometry": { "type": "Point", "coordinates": [ 131.259388199999989, 33.9390159 ] } },
{ "type": "Feature", "properties": { "内容": "特別養護老人ホームあすとぴあ【短期入所生活介護】宇部市あすとぴあ七丁目１番２号", "url": "https://www.kaigokensaku.mhlw.go.jp/35/index.php?action_kouhyou_detail_004_kani=true&JigyosyoCd=3570202691-00&ServiceCd=210&Type=search", "url2": "http://www.asuwansansou.jp" }, "geometry": { "type": "Point", "coordinates": [ 131.296998499999972, 33.980565 ] } },
{ "type": "Feature", "properties": { "内容": "むべの里ショートステイ輝き【短期入所生活介護】山口県宇部市厚南北三丁目1番42号", "url": "https://www.kaigokensaku.mhlw.go.jp/35/index.php?action_kouhyou_detail_004_kani=true&JigyosyoCd=3570204564-00&ServiceCd=210&Type=search", "url2": null }, "geometry": { "type": "Point", "coordinates": [ 131.213531601991264, 34.00149883613107 ] } },
{ "type": "Feature", "properties": { "内容": "特別養護老人ホーム　センチュリー21【短期入所生活介護】山口県宇部市大字山中126－1", "url": "https://www.kaigokensaku.mhlw.go.jp/35/index.php?action_kouhyou_detail_004_kani=true&JigyosyoCd=3570200240-00&ServiceCd=210&Type=search", "url2": "http://www.ube-century21.jp/" }, "geometry": { "type": "Point", "coordinates": [ 131.332999, 34.0598685 ] } },
{ "type": "Feature", "properties": { "内容": "特別養護老人ホーム神原苑【短期入所生活介護】宇部市神原町2丁目１－２２", "url": "https://www.kaigokensaku.mhlw.go.jp/35/index.php?action_kouhyou_detail_004_kani=true&JigyosyoCd=3570200356-00&ServiceCd=210&Type=search", "url2": "http://www.kamiharaen.com" }, "geometry": { "type": "Point", "coordinates": [ 131.261287700000025, 33.9488954 ] } },
{ "type": "Feature", "properties": { "内容": "特別養護老人ホーム　宇部あかり園【短期入所生活介護】宇部市大字西岐波229-105", "url": "https://www.kaigokensaku.mhlw.go.jp/35/index.php?action_kouhyou_detail_004_kani=true&JigyosyoCd=3570200422-00&ServiceCd=210&Type=search", "url2": "http://www.hakuaikai-yamaguchi.jp" }, "geometry": { "type": "Point", "coordinates": [ 131.301498700000025, 33.9665968 ] } },
{ "type": "Feature", "properties": { "内容": "特別養護老人ホーム　楠園【短期入所生活介護】宇部市大字船木字向ヒ833番3", "url": "https://www.kaigokensaku.mhlw.go.jp/35/index.php?action_kouhyou_detail_004_kani=true&JigyosyoCd=3577700085-00&ServiceCd=210&Type=search", "url2": "http://www.furoukai.jp" }, "geometry": { "type": "Point", "coordinates": [ 131.191896115325761, 34.049984653411229 ] } },
{ "type": "Feature", "properties": { "内容": "安心ライフ中宇部　短期入所生活介護　はなみずき【短期入所生活介護】山口県宇部市大字中宇部字西岩田1562-1", "url": "https://www.kaigokensaku.mhlw.go.jp/35/index.php?action_kouhyou_detail_004_kani=true&JigyosyoCd=3570203426-00&ServiceCd=210&Type=search", "url2": "jinsinkai.or.jp" }, "geometry": { "type": "Point", "coordinates": [ 131.256427404785171, 33.968269961651472 ] } },
{ "type": "Feature", "properties": { "内容": "特別養護老人ホームむべの里　なかやま【短期入所生活介護】山口県宇部市中山1135-1", "url": "https://www.kaigokensaku.mhlw.go.jp/35/index.php?action_kouhyou_detail_004_kani=true&JigyosyoCd=3570203749-00&ServiceCd=210&Type=search", "url2": "https://mubekouei.com" }, "geometry": { "type": "Point", "coordinates": [ 131.240338, 33.982905300000034 ] } },
{ "type": "Feature", "properties": { "内容": "特別養護老人ホーム　むべの里　博愛園【短期入所生活介護】宇部市中村2丁目7-18", "url": "https://www.kaigokensaku.mhlw.go.jp/35/index.php?action_kouhyou_detail_004_kani=true&JigyosyoCd=3570202048-00&ServiceCd=210&Type=search", "url2": "https://mubekouei.com/service/service-1670/" }, "geometry": { "type": "Point", "coordinates": [ 131.261567900000045, 33.963377 ] } },
{ "type": "Feature", "properties": { "内容": "特別養護老人ホーム日の山園【短期入所生活介護】山口県宇部市東岐波２２３番地", "url": "https://www.kaigokensaku.mhlw.go.jp/35/index.php?action_kouhyou_detail_004_kani=true&JigyosyoCd=3570204341-00&ServiceCd=210&Type=search", "url2": "http://www.mubenosato.com" }, "geometry": { "type": "Point", "coordinates": [ 131.358121, 33.9889872 ] } },
{ "type": "Feature", "properties": { "内容": "特別養護老人ホームむべの里【短期入所生活介護】宇部市大字東須恵字大浴320-1", "url": "https://www.kaigokensaku.mhlw.go.jp/35/index.php?action_kouhyou_detail_004_kani=true&JigyosyoCd=3570200380-00&ServiceCd=210&Type=search", "url2": "http://www.mubenosato.com" }, "geometry": { "type": "Point", "coordinates": [ 131.209417700000017, 33.9918928 ] } },
{ "type": "Feature", "properties": { "内容": "特別養護老人ホーム　アスワン山荘【短期入所生活介護】宇部市二俣瀬山王坂40-221", "url": "https://www.kaigokensaku.mhlw.go.jp/35/index.php?action_kouhyou_detail_004_kani=true&JigyosyoCd=3570200364-00&ServiceCd=210&Type=search", "url2": "http://www.asuwansansou.jp/" }, "geometry": { "type": "Point", "coordinates": [ 131.281579415341156, 34.063161934151175 ] } },
{ "type": "Feature", "properties": { "内容": "特別養護老人ホームむべの里岬【短期入所生活介護】山口県宇部市明神町1丁目3番25号", "url": "https://www.kaigokensaku.mhlw.go.jp/35/index.php?action_kouhyou_detail_004_kani=true&JigyosyoCd=3570203434-00&ServiceCd=210&Type=search", "url2": "https://mubekouei.com/" }, "geometry": { "type": "Point", "coordinates": [ 131.260756957008454, 33.930748843188816 ] } },
{ "type": "Feature", "properties": { "内容": "あいあい山口短期入所生活介護【短期入所生活介護】山口市鋳銭司5964番地1", "url": "https://www.kaigokensaku.mhlw.go.jp/35/index.php?action_kouhyou_detail_004_kani=true&JigyosyoCd=3570301998-00&ServiceCd=210&Type=search", "url2": "http://www.aikawaiin.or.jp" }, "geometry": { "type": "Point", "coordinates": [ 131.443733400000042, 34.0839761 ] } },
{ "type": "Feature", "properties": { "内容": "特別養護老人ホーム　山口あかり園【短期入所生活介護】山口県山口市黒川３３６３番地", "url": "https://www.kaigokensaku.mhlw.go.jp/35/index.php?action_kouhyou_detail_004_kani=true&JigyosyoCd=3570300370-00&ServiceCd=210&Type=search", "url2": "http://www.hakuaikai-yamaguchi.jp" }, "geometry": { "type": "Point", "coordinates": [ 131.438716399999947, 34.1310547 ] } },
{ "type": "Feature", "properties": { "内容": "特別養護老人ホーム阿東園【短期入所生活介護】山口県山口市阿東地福下２８８番地１", "url": "https://www.kaigokensaku.mhlw.go.jp/35/index.php?action_kouhyou_detail_004_kani=true&JigyosyoCd=3578100285-00&ServiceCd=210&Type=search", "url2": "https://c-able.ne.jp/~atouen" }, "geometry": { "type": "Point", "coordinates": [ 131.6312193, 34.3439371 ] } },
{ "type": "Feature", "properties": { "内容": "ケアタウン日の山ショートステイ【短期入所生活介護】山口県山口市阿知須2581-1", "url": "https://www.kaigokensaku.mhlw.go.jp/35/index.php?action_kouhyou_detail_004_kani=true&JigyosyoCd=3570303705-00&ServiceCd=210&Type=search", "url2": "https://www.mubekouei.com" }, "geometry": { "type": "Point", "coordinates": [ 131.3310303, 34.0161877 ] } },
{ "type": "Feature", "properties": { "内容": "特別養護老人ホーム白松苑【短期入所生活介護】山口県山口市阿知須4167番地1", "url": "https://www.kaigokensaku.mhlw.go.jp/35/index.php?action_kouhyou_detail_004_kani=true&JigyosyoCd=3577600178-00&ServiceCd=210&Type=search", "url2": "https://www.hakusyoen.jp/" }, "geometry": { "type": "Point", "coordinates": [ 131.358177322394113, 34.008591635072143 ] } },
{ "type": "Feature", "properties": { "内容": "複合型高齢者福祉施設オ・サーバaioi【短期入所生活介護】山口県山口市下小鯖11331-12", "url": "https://www.kaigokensaku.mhlw.go.jp/35/index.php?action_kouhyou_detail_004_kani=true&JigyosyoCd=3570303663-00&ServiceCd=210&Type=search", "url2": "https://hitotsunokai.jp/" }, "geometry": { "type": "Point", "coordinates": [ 131.531268899999986, 34.1373438 ] } },
{ "type": "Feature", "properties": { "内容": "特別養護老人ホームよしき悠々苑【短期入所生活介護】山口県山口市吉敷佐畑四丁目8番1号", "url": "https://www.kaigokensaku.mhlw.go.jp/35/index.php?action_kouhyou_detail_004_kani=true&JigyosyoCd=3570300420-00&ServiceCd=210&Type=search", "url2": "https://care-net.biz/35/yoshiki-yuuyuuen/" }, "geometry": { "type": "Point", "coordinates": [ 131.428243800000018, 34.1687066 ] } },
{ "type": "Feature", "properties": { "内容": "賀宝の里白松苑【短期入所生活介護】山口市佐山158番地", "url": "https://www.kaigokensaku.mhlw.go.jp/35/index.php?action_kouhyou_detail_004_kani=true&JigyosyoCd=3570301386-00&ServiceCd=210&Type=search", "url2": "http://www.hakusyoen.jp/kagaho" }, "geometry": { "type": "Point", "coordinates": [ 131.350200699999959, 34.0496921 ] } },
{ "type": "Feature", "properties": { "内容": "特別養護老人ホーム　秋穂あかり園【短期入所生活介護】山口市秋穂東3980番地", "url": "https://www.kaigokensaku.mhlw.go.jp/35/index.php?action_kouhyou_detail_004_kani=true&JigyosyoCd=3577600194-00&ServiceCd=210&Type=search", "url2": "http://www.hakuaikai-yamaguchi.jp/" }, "geometry": { "type": "Point", "coordinates": [ 131.444992400000046, 34.0142506 ] } },
{ "type": "Feature", "properties": { "内容": "なぎの木在宅ケアセンター・ショートステイ【短期入所生活介護】山口市小郡下郷751-4", "url": "https://www.kaigokensaku.mhlw.go.jp/35/index.php?action_kouhyou_detail_004_kani=true&JigyosyoCd=3577600434-00&ServiceCd=210&Type=search", "url2": "https://www.hp-hahashi.or.jp/" }, "geometry": { "type": "Point", "coordinates": [ 131.392965799999956, 34.1005071 ] } },
{ "type": "Feature", "properties": { "内容": "特別養護老人ホーム　小郡・山手一番館【短期入所生活介護】山口市小郡尾崎町２番１号", "url": "https://www.kaigokensaku.mhlw.go.jp/35/index.php?action_kouhyou_detail_004_kani=true&JigyosyoCd=3577600145-00&ServiceCd=210&Type=search", "url2": "http://yamate-ichiban.ｉｎｆｏ/" }, "geometry": { "type": "Point", "coordinates": [ 131.396007, 34.1095533 ] } },
{ "type": "Feature", "properties": { "内容": "特別養護老人ホーム山口喜楽園【短期入所生活介護】山口県山口市大内長野636番地特別養護老人ホーム山口喜楽園", "url": "https://www.kaigokensaku.mhlw.go.jp/35/index.php?action_kouhyou_detail_004_kani=true&JigyosyoCd=3570303457-00&ServiceCd=210&Type=search", "url2": "http://houyuukai.or.jp/" }, "geometry": { "type": "Point", "coordinates": [ 131.528770399999985, 34.1637255 ] } },
{ "type": "Feature", "properties": { "内容": "特別養護老人ホーム　梅光苑【短期入所生活介護】山口市鋳銭司12361-3", "url": "https://www.kaigokensaku.mhlw.go.jp/35/index.php?action_kouhyou_detail_004_kani=true&JigyosyoCd=3570300339-00&ServiceCd=210&Type=search", "url2": "ｈｔｔｐ//www.aikawaiin.or.jp/ｂａｉｋｏｕｅｎ/" }, "geometry": { "type": "Point", "coordinates": [ 131.438836700000024, 34.0666588 ] } },
{ "type": "Feature", "properties": { "内容": "特別養護老人ホーム　とくぢ苑【短期入所生活介護】山口県山口市徳地八坂1330番地", "url": "https://www.kaigokensaku.mhlw.go.jp/35/index.php?action_kouhyou_detail_004_kani=true&JigyosyoCd=3577500063-00&ServiceCd=210&Type=search", "url2": null }, "geometry": { "type": "Point", "coordinates": [ 131.659968299999946, 34.2341075 ] } },
{ "type": "Feature", "properties": { "内容": "ハートホーム南山口ショートステイ【短期入所生活介護】山口県山口市深溝803-1", "url": "https://www.kaigokensaku.mhlw.go.jp/35/index.php?action_kouhyou_detail_004_kani=true&JigyosyoCd=3570300750-00&ServiceCd=210&Type=search", "url2": "http://www.seirankai.or.jp" }, "geometry": { "type": "Point", "coordinates": [ 131.36716320000005, 34.0515201 ] } },
{ "type": "Feature", "properties": { "内容": "特別養護老人ホームむつみ園【短期入所生活介護】山口県萩市大字吉部上3301-1", "url": "https://www.kaigokensaku.mhlw.go.jp/35/index.php?action_kouhyou_detail_004_kani=true&JigyosyoCd=3578100269-00&ServiceCd=210&Type=search", "url2": "http://siukai.jp/" }, "geometry": { "type": "Point", "coordinates": [ 131.57447, 34.4374346 ] } },
{ "type": "Feature", "properties": { "内容": "特別養護老人ホーム阿北苑【短期入所生活介護】山口県萩市大字上小川東分1406番地", "url": "https://www.kaigokensaku.mhlw.go.jp/35/index.php?action_kouhyou_detail_004_kani=true&JigyosyoCd=3578100301-00&ServiceCd=210&Type=search", "url2": "http://www.ahoku.or.jp/" }, "geometry": { "type": "Point", "coordinates": [ 131.671739500000058, 34.5894553 ] } },
{ "type": "Feature", "properties": { "内容": "特別養護老人ホームすさ苑【短期入所生活介護】萩市大字須佐1378-1", "url": "https://www.kaigokensaku.mhlw.go.jp/35/index.php?action_kouhyou_detail_004_kani=true&JigyosyoCd=3578100277-00&ServiceCd=210&Type=search", "url2": null }, "geometry": { "type": "Point", "coordinates": [ 131.607869, 34.6128762 ] } },
{ "type": "Feature", "properties": { "内容": "特別養護老人ホームオアシスはぎ園【短期入所生活介護】山口県萩市大井1723番地6", "url": "https://www.kaigokensaku.mhlw.go.jp/35/index.php?action_kouhyou_detail_004_kani=true&JigyosyoCd=3570400436-00&ServiceCd=210&Type=search", "url2": "https://jigyodan-yg.jp/hagien/" }, "geometry": { "type": "Point", "coordinates": [ 131.4460884, 34.473904 ] } },
{ "type": "Feature", "properties": { "内容": "萩市特別養護老人ホームかがやき【短期入所生活介護】山口県萩市大字椿字門田3460-2", "url": "https://www.kaigokensaku.mhlw.go.jp/35/index.php?action_kouhyou_detail_004_kani=true&JigyosyoCd=3570400386-00&ServiceCd=210&Type=search", "url2": "http://hagi-kagayaki.or.jp" }, "geometry": { "type": "Point", "coordinates": [ 131.394144270994502, 34.397621212195112 ] } },
{ "type": "Feature", "properties": { "内容": "特別養護老人ホームちはるえん【短期入所生活介護】萩市大字明木４７８１番地の１", "url": "https://www.kaigokensaku.mhlw.go.jp/35/index.php?action_kouhyou_detail_004_kani=true&JigyosyoCd=3578100327-00&ServiceCd=210&Type=search", "url2": null }, "geometry": { "type": "Point", "coordinates": [ 131.420324, 34.3596736 ] } },
{ "type": "Feature", "properties": { "内容": "特別養護老人ホームかわかみ苑【短期入所生活介護】萩市川上４９２１番地の１", "url": "https://www.kaigokensaku.mhlw.go.jp/35/index.php?action_kouhyou_detail_004_kani=true&JigyosyoCd=3578100244-00&ServiceCd=210&Type=search", "url2": "https://kawakamien.jp/" }, "geometry": { "type": "Point", "coordinates": [ 131.477503899999988, 34.3587996 ] } },
{ "type": "Feature", "properties": { "内容": "コミュニティプレイス生きいき【短期入所生活介護】山口県防府市国衙5丁目9－27", "url": "https://www.kaigokensaku.mhlw.go.jp/35/index.php?action_kouhyou_detail_004_kani=true&JigyosyoCd=3570601637-00&ServiceCd=210&Type=search", "url2": null }, "geometry": { "type": "Point", "coordinates": [ 131.588919138623083, 34.054751667363398 ] } },
{ "type": "Feature", "properties": { "内容": "特別養護老人ホーム　ヘスティア華城【短期入所生活介護】防府市伊佐江1039番地の１", "url": "https://www.kaigokensaku.mhlw.go.jp/35/index.php?action_kouhyou_detail_004_kani=true&JigyosyoCd=3570600456-00&ServiceCd=210&Type=search", "url2": "http://kaseikai.com/" }, "geometry": { "type": "Point", "coordinates": [ 131.5441558, 34.0395198 ] } },
{ "type": "Feature", "properties": { "内容": "特別養護老人ホームフィラージュ開出【短期入所生活介護】山口県防府市開出西町32-8", "url": "https://www.kaigokensaku.mhlw.go.jp/35/index.php?action_kouhyou_detail_004_kani=true&JigyosyoCd=3570602015-00&ServiceCd=210&Type=search", "url2": "http://hitotsunokai.jp/" }, "geometry": { "type": "Point", "coordinates": [ 131.542472299999986, 34.0511848 ] } },
{ "type": "Feature", "properties": { "内容": "特別養護老人ホーム　岸津苑【短期入所生活介護】防府市岸津二丁目２４番２０号", "url": "https://www.kaigokensaku.mhlw.go.jp/35/index.php?action_kouhyou_detail_004_kani=true&JigyosyoCd=3570600233-00&ServiceCd=210&Type=search", "url2": "http://www.shuyou.jp/" }, "geometry": { "type": "Point", "coordinates": [ 131.593606899999941, 34.0496799 ] } },
{ "type": "Feature", "properties": { "内容": "特別養護老人ホーム　あかつき苑防府【短期入所生活介護】山口県防府市大字江泊１７９０番地", "url": "https://www.kaigokensaku.mhlw.go.jp/35/index.php?action_kouhyou_detail_004_kani=true&JigyosyoCd=3570601983-00&ServiceCd=210&Type=search", "url2": "http://www.akatsukikai.com" }, "geometry": { "type": "Point", "coordinates": [ 131.60618850000003, 34.0544439 ] } },
{ "type": "Feature", "properties": { "内容": "特別養護老人ホーム　ライフケア高砂【短期入所生活介護】防府市上右田334", "url": "https://www.kaigokensaku.mhlw.go.jp/35/index.php?action_kouhyou_detail_004_kani=true&JigyosyoCd=3570600274-00&ServiceCd=210&Type=search", "url2": "qqzw8uy9k@eco.ocn.ne.jp" }, "geometry": { "type": "Point", "coordinates": [ 131.5808677, 34.0951633 ] } },
{ "type": "Feature", "properties": { "内容": "特別養護老人ホーム　まめ舎【短期入所生活介護】山口県防府市大字新田６７２番地", "url": "https://www.kaigokensaku.mhlw.go.jp/35/index.php?action_kouhyou_detail_004_kani=true&JigyosyoCd=3570600688-00&ServiceCd=210&Type=search", "url2": "http://www.c-able.ne.jp/~keiten/" }, "geometry": { "type": "Point", "coordinates": [ 131.563215475502034, 34.032494702394821 ] } },
{ "type": "Feature", "properties": { "内容": "特別養護老人ホーム防府あかり園【短期入所生活介護】防府市大字台道１６５５番地", "url": "https://www.kaigokensaku.mhlw.go.jp/35/index.php?action_kouhyou_detail_004_kani=true&JigyosyoCd=3570600258-00&ServiceCd=210&Type=search", "url2": "http://www.hakuaikai-yamaguchi.jp/" }, "geometry": { "type": "Point", "coordinates": [ 131.492829, 34.0698294 ] } },
{ "type": "Feature", "properties": { "内容": "特別養護老人ホーム自由の杜【短期入所生活介護】山口県防府市大字大崎801-1", "url": "https://www.kaigokensaku.mhlw.go.jp/35/index.php?action_kouhyou_detail_004_kani=true&JigyosyoCd=3570601512-00&ServiceCd=210&Type=search", "url2": "http://hitotsunokai.jp/" }, "geometry": { "type": "Point", "coordinates": [ 131.539211099999989, 34.0637358 ] } },
{ "type": "Feature", "properties": { "内容": "ショートステイひごろもそう【短期入所生活介護】山口県防府市大字浜方８番地1", "url": "https://www.kaigokensaku.mhlw.go.jp/35/index.php?action_kouhyou_detail_004_kani=true&JigyosyoCd=3570601801-00&ServiceCd=210&Type=search", "url2": null }, "geometry": { "type": "Point", "coordinates": [ 131.573216825795043, 34.025551591059482 ] } },
{ "type": "Feature", "properties": { "内容": "社会福祉法人元気の会　地域密着型特別養護老人ホームほがらか【短期入所生活介護】山田256", "url": "https://www.kaigokensaku.mhlw.go.jp/35/index.php?action_kouhyou_detail_004_kani=true&JigyosyoCd=3570701031-00&ServiceCd=210&Type=search", "url2": "http://genkinokai.jpn.org/" }, "geometry": { "type": "Point", "coordinates": [ 131.90535338372959, 34.03483572322628 ] } },
{ "type": "Feature", "properties": { "内容": "ショートステイ野の花【短期入所生活介護】下松市瑞穂町二丁目21-1", "url": "https://www.kaigokensaku.mhlw.go.jp/35/index.php?action_kouhyou_detail_004_kani=true&JigyosyoCd=3570700421-00&ServiceCd=210&Type=search", "url2": "www.abe‐medicare.jp" }, "geometry": { "type": "Point", "coordinates": [ 131.851790700000038, 34.0237453 ] } },
{ "type": "Feature", "properties": { "内容": "ほしのさと　短期入所生活介護事業所【短期入所生活介護】山口県下松市生野屋南1丁目13番1号特別養護老人ホーム　ほしのさと", "url": "https://www.kaigokensaku.mhlw.go.jp/35/index.php?action_kouhyou_detail_004_kani=true&JigyosyoCd=3570700132-00&ServiceCd=210&Type=search", "url2": "http://www.hoshiosato.jp" }, "geometry": { "type": "Point", "coordinates": [ 131.87411910000003, 34.031442500000011 ] } },
{ "type": "Feature", "properties": { "内容": "特別養護老人ホーム　松寿苑【短期入所生活介護】山口県下松市大字来巻９４４番地の１", "url": "https://www.kaigokensaku.mhlw.go.jp/35/index.php?action_kouhyou_detail_004_kani=true&JigyosyoCd=3570700173-00&ServiceCd=210&Type=search", "url2": "http://www.syojuen.com" }, "geometry": { "type": "Point", "coordinates": [ 131.930286600000045, 34.0238309 ] } },
{ "type": "Feature", "properties": { "内容": "特別養護老人ホーム　灘海園【短期入所生活介護】山口県岩国市愛宕町一丁目5番1号", "url": "https://www.kaigokensaku.mhlw.go.jp/35/index.php?action_kouhyou_detail_004_kani=true&JigyosyoCd=3570800908-00&ServiceCd=210&Type=search", "url2": "https://jigyodan-yg.jp/nadami/" }, "geometry": { "type": "Point", "coordinates": [ 132.199875248965412, 34.145926424797899 ] } },
{ "type": "Feature", "properties": { "内容": "特別養護老人ホーム光葉苑【短期入所生活介護】山口県岩国市下317番地2", "url": "https://www.kaigokensaku.mhlw.go.jp/35/index.php?action_kouhyou_detail_004_kani=true&JigyosyoCd=3570800239-00&ServiceCd=210&Type=search", "url2": "http://kouyouen-iwakuni.jimdo.com/" }, "geometry": { "type": "Point", "coordinates": [ 132.093511600000056, 34.15983 ] } },
{ "type": "Feature", "properties": { "内容": "特別養護老人ホーム　かなえ【短期入所生活介護】山口県岩国市錦見３丁目７番５５号", "url": "https://www.kaigokensaku.mhlw.go.jp/35/index.php?action_kouhyou_detail_004_kani=true&JigyosyoCd=3570800585-00&ServiceCd=210&Type=search", "url2": "www.kanaekai.jp/" }, "geometry": { "type": "Point", "coordinates": [ 132.198668600000019, 34.1669171 ] } },
{ "type": "Feature", "properties": { "内容": "特別養護老人ホーム　錦苑【短期入所生活介護】山口県岩国市錦町広瀬758番地", "url": "https://www.kaigokensaku.mhlw.go.jp/35/index.php?action_kouhyou_detail_004_kani=true&JigyosyoCd=3577200391-00&ServiceCd=210&Type=search", "url2": "http://nishikien-f.com" }, "geometry": { "type": "Point", "coordinates": [ 131.950292200000035, 34.2569949 ] } },
{ "type": "Feature", "properties": { "内容": "特別養護老人ホーム玖珂苑【短期入所生活介護】山口県岩国市玖珂町3813番地6", "url": "https://www.kaigokensaku.mhlw.go.jp/35/index.php?action_kouhyou_detail_004_kani=true&JigyosyoCd=3577200284-00&ServiceCd=210&Type=search", "url2": "http://www.takamori-fukushikai.hello-net.info/" }, "geometry": { "type": "Point", "coordinates": [ 132.098622400000068, 34.0818525 ] } },
{ "type": "Feature", "properties": { "内容": "特別養護老人ホーム高森苑【短期入所生活介護】山口県岩国市周東町西長野621番地1", "url": "https://www.kaigokensaku.mhlw.go.jp/35/index.php?action_kouhyou_detail_004_kani=true&JigyosyoCd=3577200250-00&ServiceCd=210&Type=search", "url2": "http://www.takamori-fukushikai.or.jp/" }, "geometry": { "type": "Point", "coordinates": [ 132.027920900000026, 34.0875034 ] } },
{ "type": "Feature", "properties": { "内容": "シンシアゆうわ【短期入所生活介護】岩国市藤生町３丁目２７番８号", "url": "https://www.kaigokensaku.mhlw.go.jp/35/index.php?action_kouhyou_detail_004_kani=true&JigyosyoCd=3570801724-00&ServiceCd=210&Type=search", "url2": "http://www.yuwaen.net" }, "geometry": { "type": "Point", "coordinates": [ 132.191473200000019, 34.1195723 ] } },
{ "type": "Feature", "properties": { "内容": "特別養護老人ホーム美川苑【短期入所生活介護】山口県岩国市美川町小川437-1", "url": "https://www.kaigokensaku.mhlw.go.jp/35/index.php?action_kouhyou_detail_004_kani=true&JigyosyoCd=3577200466-00&ServiceCd=210&Type=search", "url2": "http://mikawa-en.com/" }, "geometry": { "type": "Point", "coordinates": [ 132.000744, 34.2422228 ] } },
{ "type": "Feature", "properties": { "内容": "特別養護老人ホーム　ヴィラ本郷【短期入所生活介護】山口県岩国市本郷町本郷2086", "url": "https://www.kaigokensaku.mhlw.go.jp/35/index.php?action_kouhyou_detail_004_kani=true&JigyosyoCd=3577200458-00&ServiceCd=210&Type=search", "url2": "http://hongo.tokuyou.jp" }, "geometry": { "type": "Point", "coordinates": [ 132.0401041, 34.2935263 ] } },
{ "type": "Feature", "properties": { "内容": "介護老人福祉施設　ヴィータ【短期入所生活介護】山口県岩国市麻里布町3丁目5-30", "url": "https://www.kaigokensaku.mhlw.go.jp/35/index.php?action_kouhyou_detail_004_kani=true&JigyosyoCd=3570801922-00&ServiceCd=210&Type=search", "url2": "http://www.nishiki-f.com/" }, "geometry": { "type": "Point", "coordinates": [ 132.222181, 34.1701806 ] } },
{ "type": "Feature", "properties": { "内容": "特別養護老人ホーム　緑風荘【短期入所生活介護】山口県岩国市由宇町3018番地1", "url": "https://www.kaigokensaku.mhlw.go.jp/35/index.php?action_kouhyou_detail_004_kani=true&JigyosyoCd=3577200383-00&ServiceCd=210&Type=search", "url2": "http://ryokufuukai.net/" }, "geometry": { "type": "Point", "coordinates": [ 132.1632257, 34.0282774 ] } },
{ "type": "Feature", "properties": { "内容": "特別養護老人ホーム　美和苑【短期入所生活介護】山口県岩国市美和町生見1２５３８", "url": "https://www.kaigokensaku.mhlw.go.jp/35/index.php?action_kouhyou_detail_004_kani=true&JigyosyoCd=3577200425-00&ServiceCd=210&Type=search", "url2": "http://miwafukushikai.jp" }, "geometry": { "type": "Point", "coordinates": [ 132.068314399999963, 34.227100399999983 ] } },
{ "type": "Feature", "properties": { "内容": "特別養護老人ホーム　やまと苑ショートステイ【短期入所生活介護】山口県光市大字岩田267番地", "url": "https://www.kaigokensaku.mhlw.go.jp/35/index.php?action_kouhyou_detail_004_kani=true&JigyosyoCd=3577300241-00&ServiceCd=210&Type=search", "url2": "http://www.yamatofukushikai.jp" }, "geometry": { "type": "Point", "coordinates": [ 131.9886438, 33.9744753 ] } },
{ "type": "Feature", "properties": { "内容": "地域密着型特別養護老人ホーム光富士白苑四季の風【短期入所生活介護】山口県光市光ヶ丘4番2号", "url": "https://www.kaigokensaku.mhlw.go.jp/35/index.php?action_kouhyou_detail_004_kani=true&JigyosyoCd=3571000946-00&ServiceCd=210&Type=search", "url2": "info@h-fuji.com" }, "geometry": { "type": "Point", "coordinates": [ 131.9205773, 33.981728 ] } },
{ "type": "Feature", "properties": { "内容": "ショートステイ光ケ丘【短期入所生活介護】山口県光市光ケ丘5番18号", "url": "https://www.kaigokensaku.mhlw.go.jp/35/index.php?action_kouhyou_detail_004_kani=true&JigyosyoCd=3571000862-00&ServiceCd=210&Type=search", "url2": "http://www.hikari-en.jp" }, "geometry": { "type": "Point", "coordinates": [ 131.919272099999944, 33.9813378 ] } },
{ "type": "Feature", "properties": { "内容": "地域密着型特別養護老人ホームひいらぎ【短期入所生活介護】山口県光市光井9丁目8番30号", "url": "https://www.kaigokensaku.mhlw.go.jp/35/index.php?action_kouhyou_detail_004_kani=true&JigyosyoCd=3571000888-00&ServiceCd=210&Type=search", "url2": "https://www.kohjinkai-s.or.jp/" }, "geometry": { "type": "Point", "coordinates": [ 131.9457375, 33.9598547 ] } },
{ "type": "Feature", "properties": { "内容": "特別養護老人ホーム　光寿苑【短期入所生活介護】光市室積沖田5番1号", "url": "https://www.kaigokensaku.mhlw.go.jp/35/index.php?action_kouhyou_detail_004_kani=true&JigyosyoCd=3571000094-00&ServiceCd=210&Type=search", "url2": "https://koujyuen-top.jimdofree.com/" }, "geometry": { "type": "Point", "coordinates": [ 131.974385282061803, 33.934782880101082 ] } },
{ "type": "Feature", "properties": { "内容": "短期入所生活介護サポートひかり【短期入所生活介護】光市中央3丁目2番26号", "url": "https://www.kaigokensaku.mhlw.go.jp/35/index.php?action_kouhyou_detail_004_kani=true&JigyosyoCd=3571000235-00&ServiceCd=210&Type=search", "url2": "https://kohjinkai-i.or.jp" }, "geometry": { "type": "Point", "coordinates": [ 131.945903700000031, 33.959097100000015 ] } },
{ "type": "Feature", "properties": { "内容": "特別養護老人ホーム　光富士白苑【短期入所生活介護】光市虹ヶ浜2丁目5番7号", "url": "https://www.kaigokensaku.mhlw.go.jp/35/index.php?action_kouhyou_detail_004_kani=true&JigyosyoCd=3571000102-00&ServiceCd=210&Type=search", "url2": "http://www.h-fuji.com" }, "geometry": { "type": "Point", "coordinates": [ 131.9186836, 33.9684448 ] } },
{ "type": "Feature", "properties": { "内容": "特別養護老人ホームひかり苑【短期入所生活介護】光市大字三井1056番地1", "url": "https://www.kaigokensaku.mhlw.go.jp/35/index.php?action_kouhyou_detail_004_kani=true&JigyosyoCd=3571000698-00&ServiceCd=210&Type=search", "url2": "http://hikari-en.jp/" }, "geometry": { "type": "Point", "coordinates": [ 131.950892417196627, 33.993551742487838 ] } },
{ "type": "Feature", "properties": { "内容": "特別養護老人ホーム　明和苑【短期入所生活介護】長門市三隅中1811番地", "url": "https://www.kaigokensaku.mhlw.go.jp/35/index.php?action_kouhyou_detail_004_kani=true&JigyosyoCd=3578000139-00&ServiceCd=210&Type=search", "url2": "http:/meiwaen.jp/" }, "geometry": { "type": "Point", "coordinates": [ 131.265298199999961, 34.3619474 ] } },
{ "type": "Feature", "properties": { "内容": "特別養護老人ホーム恵光苑【短期入所生活介護】山口県長門市東深川堤山10062番地27", "url": "https://www.kaigokensaku.mhlw.go.jp/35/index.php?action_kouhyou_detail_004_kani=true&JigyosyoCd=3571100100-00&ServiceCd=210&Type=search", "url2": "http://www.keikouen.jp/" }, "geometry": { "type": "Point", "coordinates": [ 131.182194699999968, 34.3709562 ] } },
{ "type": "Feature", "properties": { "内容": "特別養護老人ホーム　へき楽園【短期入所生活介護】山口県長門市日置上3114番地", "url": "https://www.kaigokensaku.mhlw.go.jp/35/index.php?action_kouhyou_detail_004_kani=true&JigyosyoCd=3578000121-00&ServiceCd=210&Type=search", "url2": "https://hekirakuen.or.jp" }, "geometry": { "type": "Point", "coordinates": [ 131.133383699999968, 34.3968969 ] } },
{ "type": "Feature", "properties": { "内容": "特別養護老人ホーム　養寿苑【短期入所生活介護】山口県長門市油谷向津具上10344番地", "url": "https://www.kaigokensaku.mhlw.go.jp/35/index.php?action_kouhyou_detail_004_kani=true&JigyosyoCd=3578000154-00&ServiceCd=210&Type=search", "url2": null }, "geometry": { "type": "Point", "coordinates": [ 130.983074095770206, 34.407156791669678 ] } },
{ "type": "Feature", "properties": { "内容": "特別養護老人ホーム　吉祥苑【短期入所生活介護】長門市深川湯本１０６００番地1", "url": "https://www.kaigokensaku.mhlw.go.jp/35/index.php?action_kouhyou_detail_004_kani=true&JigyosyoCd=3571100159-00&ServiceCd=210&Type=search", "url2": "https://www.fukushoukai.or.jp" }, "geometry": { "type": "Point", "coordinates": [ 131.178624600000035, 34.339081899999982 ] } },
{ "type": "Feature", "properties": { "内容": "特別養護老人ホーム松風苑【短期入所生活介護】山口県柳井市余田3762番地の1", "url": "https://www.kaigokensaku.mhlw.go.jp/35/index.php?action_kouhyou_detail_004_kani=true&JigyosyoCd=3571200116-00&ServiceCd=210&Type=search", "url2": "http://shoueikai.or.jp/shoueikai.or.jp/wp-sf/" }, "geometry": { "type": "Point", "coordinates": [ 132.065235499999972, 33.960141499999985 ] } },
{ "type": "Feature", "properties": { "内容": "特別養護老人ホーム伊保庄園【短期入所生活介護】山口県柳井市伊保庄1番地２", "url": "https://www.kaigokensaku.mhlw.go.jp/35/index.php?action_kouhyou_detail_004_kani=true&JigyosyoCd=3571200488-00&ServiceCd=210&Type=search", "url2": "https://jigyodan-yg.jp/ihonosyou/" }, "geometry": { "type": "Point", "coordinates": [ 132.129884400000037, 33.9108729 ] } },
{ "type": "Feature", "properties": { "内容": "特別養護老人ホーム大畠苑【短期入所生活介護】山口県柳井市遠崎１０４１２番地４", "url": "https://www.kaigokensaku.mhlw.go.jp/35/index.php?action_kouhyou_detail_004_kani=true&JigyosyoCd=3577200292-00&ServiceCd=210&Type=search", "url2": "https://senjukai-oobatakeen.jp/" }, "geometry": { "type": "Point", "coordinates": [ 132.15782088803735, 33.958670263967448 ] } },
{ "type": "Feature", "properties": { "内容": "特別養護老人ホーム幸嶺園【短期入所生活介護】山口県美祢市伊佐町伊佐字下田5656-1", "url": "https://www.kaigokensaku.mhlw.go.jp/35/index.php?action_kouhyou_detail_004_kani=true&JigyosyoCd=3571300064-00&ServiceCd=210&Type=search", "url2": "http://www.shubikai.com/shisetu01/index.html" }, "geometry": { "type": "Point", "coordinates": [ 131.199736365366306, 34.164045565917291 ] } },
{ "type": "Feature", "properties": { "内容": "特別養護老人ホームみのり園【短期入所生活介護】美祢市於福町上4071－1番地", "url": "https://www.kaigokensaku.mhlw.go.jp/35/index.php?action_kouhyou_detail_004_kani=true&JigyosyoCd=3571300072-00&ServiceCd=210&Type=search", "url2": "http://www.f-doho.com/" }, "geometry": { "type": "Point", "coordinates": [ 131.206392700000038, 34.2367319 ] } },
{ "type": "Feature", "properties": { "内容": "青景園サテライト秋芳の里【短期入所生活介護】美祢市秋芳町秋吉5243番3番地", "url": "https://www.kaigokensaku.mhlw.go.jp/35/index.php?action_kouhyou_detail_004_kani=true&JigyosyoCd=3571300387-00&ServiceCd=210&Type=search", "url2": null }, "geometry": { "type": "Point", "coordinates": [ 131.291449300000068, 34.2150943 ] } },
{ "type": "Feature", "properties": { "内容": "特別養護老人ホーム　青景園【短期入所生活介護】美祢市秋芳町青景1873番地", "url": "https://www.kaigokensaku.mhlw.go.jp/35/index.php?action_kouhyou_detail_004_kani=true&JigyosyoCd=3577900073-00&ServiceCd=210&Type=search", "url2": "https://aokage52.jp" }, "geometry": { "type": "Point", "coordinates": [ 131.278329, 34.2719531 ] } },
{ "type": "Feature", "properties": { "内容": "特別養護老人ホーム　みとう悠々苑【短期入所生活介護】山口県美祢市美東町大田5378番1", "url": "https://www.kaigokensaku.mhlw.go.jp/35/index.php?action_kouhyou_detail_004_kani=true&JigyosyoCd=3577900065-00&ServiceCd=210&Type=search", "url2": null }, "geometry": { "type": "Point", "coordinates": [ 131.3467544, 34.2158783 ] } },
{ "type": "Feature", "properties": { "内容": "特別養護老人ホームくりや苑【短期入所生活介護】周南市大字栗屋792番地の1", "url": "https://www.kaigokensaku.mhlw.go.jp/35/index.php?action_kouhyou_detail_004_kani=true&JigyosyoCd=3571501224-00&ServiceCd=210&Type=search", "url2": "https://www.kuriyaen.jp" }, "geometry": { "type": "Point", "coordinates": [ 131.838010152114862, 34.01975724672451 ] } },
{ "type": "Feature", "properties": { "内容": "特別養護老人ホームやまなみ荘【短期入所生活介護】山口県周南市大字鹿野上2755番地の１", "url": "https://www.kaigokensaku.mhlw.go.jp/35/index.php?action_kouhyou_detail_004_kani=true&JigyosyoCd=3577400058-00&ServiceCd=210&Type=search", "url2": "https://www.kanofukushikai.or.jp/" }, "geometry": { "type": "Point", "coordinates": [ 131.809668099999953, 34.2296147 ] } },
{ "type": "Feature", "properties": { "内容": "地域密着型特別養護老人ホームくすのき苑【短期入所生活介護】山口県周南市城ヶ丘三丁目6番1号", "url": "https://www.kaigokensaku.mhlw.go.jp/35/index.php?action_kouhyou_detail_004_kani=true&JigyosyoCd=3571501414-00&ServiceCd=210&Type=search", "url2": "http://koujinkai-tokuyou.jimdo.com/" }, "geometry": { "type": "Point", "coordinates": [ 131.8415245, 34.0431182 ] } },
{ "type": "Feature", "properties": { "内容": "特別養護老人ホーム友愛園【短期入所生活介護】周南市大字須々万本郷28-1", "url": "https://www.kaigokensaku.mhlw.go.jp/35/index.php?action_kouhyou_detail_004_kani=true&JigyosyoCd=3570500284-00&ServiceCd=210&Type=search", "url2": "http://ryokuzankai.jp" }, "geometry": { "type": "Point", "coordinates": [ 131.858113199999906, 34.1232886 ] } },
{ "type": "Feature", "properties": { "内容": "特別養護老人ホーム　つづみ園【短期入所生活介護】山口県周南市瀬戸見町12番30号", "url": "https://www.kaigokensaku.mhlw.go.jp/35/index.php?action_kouhyou_detail_004_kani=true&JigyosyoCd=3571501364-00&ServiceCd=210&Type=search", "url2": "https://www.shunan-jigyodan.jp/" }, "geometry": { "type": "Point", "coordinates": [ 131.832961819821207, 34.050857808088686 ] } },
{ "type": "Feature", "properties": { "内容": "特別養護老人ホーム天王園【短期入所生活介護】山口県周南市大字大河内10518番10", "url": "https://www.kaigokensaku.mhlw.go.jp/35/index.php?action_kouhyou_detail_004_kani=true&JigyosyoCd=3577300217-00&ServiceCd=210&Type=search", "url2": "http://www.tennouen.com" }, "geometry": { "type": "Point", "coordinates": [ 131.940857483853137, 34.02598777295988 ] } },
{ "type": "Feature", "properties": { "内容": "特別養護老人ホームやすらぎ苑【短期入所生活介護】山口県周南市大字湯野１５８番地", "url": "https://www.kaigokensaku.mhlw.go.jp/35/index.php?action_kouhyou_detail_004_kani=true&JigyosyoCd=3570500276-00&ServiceCd=210&Type=search", "url2": "http://www.yasuragi-en.jp/" }, "geometry": { "type": "Point", "coordinates": [ 131.67826690000004, 34.0918682 ] } },
{ "type": "Feature", "properties": { "内容": "特別養護老人ホーム福寿荘【短期入所生活介護】山口県周南市大字米光３６１番地", "url": "https://www.kaigokensaku.mhlw.go.jp/35/index.php?action_kouhyou_detail_004_kani=true&JigyosyoCd=3571400062-00&ServiceCd=210&Type=search", "url2": "http://www.shinnanyofukushi.com" }, "geometry": { "type": "Point", "coordinates": [ 131.722045200000053, 34.136953399999989 ] } },
{ "type": "Feature", "properties": { "内容": "ショートステイ　ウィンクル三丘【短期入所生活介護】山口県周南市小松原1248-4", "url": "https://www.kaigokensaku.mhlw.go.jp/35/index.php?action_kouhyou_detail_004_kani=true&JigyosyoCd=3571501067-00&ServiceCd=210&Type=search", "url2": "https://sgpnet.co.jp" }, "geometry": { "type": "Point", "coordinates": [ 131.992803900000013, 34.0344282 ] } },
{ "type": "Feature", "properties": { "内容": "特別養護老人ホーム　フクシア【短期入所生活介護】山陽小野田市厚狭字埴生田503番1", "url": "https://www.kaigokensaku.mhlw.go.jp/35/index.php?action_kouhyou_detail_004_kani=true&JigyosyoCd=3571600422-00&ServiceCd=210&Type=search", "url2": "http://asashion.wixsite.com/kenjinkai" }, "geometry": { "type": "Point", "coordinates": [ 131.174037711730961, 34.05329494716365 ] } },
{ "type": "Feature", "properties": { "内容": "地域密着型特別養護老人ホーム　なごみの里ななせ【短期入所生活介護】山口県山陽小野田市大字郡１７７３番地２", "url": "https://www.kaigokensaku.mhlw.go.jp/35/index.php?action_kouhyou_detail_004_kani=true&JigyosyoCd=3571600984-00&ServiceCd=210&Type=search", "url2": "care-net.biz/35/sanraifu/" }, "geometry": { "type": "Point", "coordinates": [ 131.151905, 34.03681 ] } },
{ "type": "Feature", "properties": { "内容": "短期入所生活介護　フクシア【短期入所生活介護】山口県山陽小野田市大字厚狭字埴生田503番1", "url": "https://www.kaigokensaku.mhlw.go.jp/35/index.php?action_kouhyou_detail_004_kani=true&JigyosyoCd=3571600463-00&ServiceCd=210&Type=search", "url2": null }, "geometry": { "type": "Point", "coordinates": [ 131.173866050354036, 34.05341050439462 ] } },
{ "type": "Feature", "properties": { "内容": "短期入所生活介護　あさ紫苑【短期入所生活介護】山陽小野田市桜一丁目３番１号", "url": "https://www.kaigokensaku.mhlw.go.jp/35/index.php?action_kouhyou_detail_004_kani=true&JigyosyoCd=3577700218-00&ServiceCd=210&Type=search", "url2": "http://asashion.wixsite.com/kenjinkai" }, "geometry": { "type": "Point", "coordinates": [ 131.155706799999962, 34.0532217 ] } },
{ "type": "Feature", "properties": { "内容": "特別養護老人ホーム　長寿園【短期入所生活介護】山口県山陽小野田市大字小野田１１３２４番地10", "url": "https://www.kaigokensaku.mhlw.go.jp/35/index.php?action_kouhyou_detail_004_kani=true&JigyosyoCd=3570900096-00&ServiceCd=210&Type=search", "url2": "http://care-net.biz/35/choujukai01/" }, "geometry": { "type": "Point", "coordinates": [ 131.1836644, 33.9911759 ] } },
{ "type": "Feature", "properties": { "内容": "特別養護老人ホーム　サンライフ山陽【短期入所生活介護】山陽小野田市大字埴生2156番地", "url": "https://www.kaigokensaku.mhlw.go.jp/35/index.php?action_kouhyou_detail_004_kani=true&JigyosyoCd=3577700093-00&ServiceCd=210&Type=search", "url2": "http://care-net.biz/35/sanraifu/" }, "geometry": { "type": "Point", "coordinates": [ 131.076557500000035, 34.0448622 ] } },
{ "type": "Feature", "properties": { "内容": "特別養護老人ホーム　高千帆苑【短期入所生活介護】山陽小野田市大字有帆字佛石１０６６２番地８", "url": "https://www.kaigokensaku.mhlw.go.jp/35/index.php?action_kouhyou_detail_004_kani=true&JigyosyoCd=3570900153-00&ServiceCd=210&Type=search", "url2": "http://otakaro.wixsite.com/my-site" }, "geometry": { "type": "Point", "coordinates": [ 131.196924342795569, 34.027593454336198 ] } },
{ "type": "Feature", "properties": { "内容": "特別養護老人ホーム　やまびこ苑【短期入所生活介護】山口県大島郡周防大島町大字久賀5375-1", "url": "https://www.kaigokensaku.mhlw.go.jp/35/index.php?action_kouhyou_detail_004_kani=true&JigyosyoCd=3577100153-00&ServiceCd=210&Type=search", "url2": null }, "geometry": { "type": "Point", "coordinates": [ 132.258794800000032, 33.9461137 ] } },
{ "type": "Feature", "properties": { "内容": "特別養護老人ホームほのぼの苑【短期入所生活介護】大島郡周防大島町大字小松133番地1", "url": "https://www.kaigokensaku.mhlw.go.jp/35/index.php?action_kouhyou_detail_004_kani=true&JigyosyoCd=3577100187-00&ServiceCd=210&Type=search", "url2": "http://satｓukikai-oshima.com" }, "geometry": { "type": "Point", "coordinates": [ 132.196356299999934, 33.9275143 ] } },
{ "type": "Feature", "properties": { "内容": "特別養護老人ホーム白寿苑【短期入所生活介護】山口県大島郡周防大島町大字西方１６２３－３", "url": "https://www.kaigokensaku.mhlw.go.jp/35/index.php?action_kouhyou_detail_004_kani=true&JigyosyoCd=3577100260-00&ServiceCd=210&Type=search", "url2": "https://www.oshima-hakujukai.com/" }, "geometry": { "type": "Point", "coordinates": [ 132.337312800000063, 33.9001784 ] } },
{ "type": "Feature", "properties": { "内容": "特別養護老人ホーム　オレンジ苑【短期入所生活介護】大島郡周防大島町大字東安下庄７７４番地９", "url": "https://www.kaigokensaku.mhlw.go.jp/35/index.php?action_kouhyou_detail_004_kani=true&JigyosyoCd=3577100179-00&ServiceCd=210&Type=search", "url2": null }, "geometry": { "type": "Point", "coordinates": [ 132.292620599999964, 33.8990826 ] } },
{ "type": "Feature", "properties": { "内容": "特別養護老人ホームわきあいあい苑【短期入所生活介護】山口県玖珂郡和木町瀬田４－１－１", "url": "https://www.kaigokensaku.mhlw.go.jp/35/index.php?action_kouhyou_detail_004_kani=true&JigyosyoCd=3577200300-00&ServiceCd=210&Type=search", "url2": "https://wakiaiaien.tkc.best-hp.jp/" }, "geometry": { "type": "Point", "coordinates": [ 132.2245524, 34.1919204 ] } },
{ "type": "Feature", "properties": { "内容": "特別養護老人ホーム　かみのせき苑【短期入所生活介護】熊毛郡上関町大字長島１５６１－１", "url": "https://www.kaigokensaku.mhlw.go.jp/35/index.php?action_kouhyou_detail_004_kani=true&JigyosyoCd=3577300266-00&ServiceCd=210&Type=search", "url2": null }, "geometry": { "type": "Point", "coordinates": [ 132.073751099999981, 33.8152633 ] } },
{ "type": "Feature", "properties": { "内容": "特別養護老人ホームたぶせ苑【短期入所生活介護】山口県熊毛郡田布施町大字宿井４０６番地", "url": "https://www.kaigokensaku.mhlw.go.jp/35/index.php?action_kouhyou_detail_004_kani=true&JigyosyoCd=3577300274-00&ServiceCd=210&Type=search", "url2": "http://care-net.biz/35/shifuku/sitemap.php" }, "geometry": { "type": "Point", "coordinates": [ 132.028290500000026, 33.9655012 ] } },
{ "type": "Feature", "properties": { "内容": "特別養護老人ホームつつじ苑【短期入所生活介護】山口県熊毛郡平生町大字曽根10126-2", "url": "https://www.kaigokensaku.mhlw.go.jp/35/index.php?action_kouhyou_detail_004_kani=true&JigyosyoCd=3577300209-00&ServiceCd=210&Type=search", "url2": "http://www.uchiumikai.or.jp/" }, "geometry": { "type": "Point", "coordinates": [ 132.065694, 33.920437 ] } },
{ "type": "Feature", "properties": { "内容": "特別養護老人ホーム　恵寿苑【短期入所生活介護】山口県阿武郡阿武町大字木与10039番地5", "url": "https://www.kaigokensaku.mhlw.go.jp/35/index.php?action_kouhyou_detail_004_kani=true&JigyosyoCd=3578100350-00&ServiceCd=210&Type=search", "url2": "http://abufukushi.com" }, "geometry": { "type": "Point", "coordinates": [ 131.5058371, 34.536138 ] } }
]
}
