{
"type": "FeatureCollection",
"name": "geo_35_短期大学",
"crs": { "type": "name", "properties": { "name": "urn:ogc:def:crs:EPSG::6668" } },
"features": [
{ "type": "Feature", "properties": { "P29_001": "35202", "P29_002": "F235310110157", "P29_003": "16006", "P29_004": "宇部フロンティア大学短期大学部", "P29_005": "山口県宇部市文京台2-1-1", "P29_006": "4", "P29_007": "0", "P29_008": "00", "P29_009": null }, "geometry": { "type": "Point", "coordinates": [ 131.233879383067318, 33.980272521061337 ] } },
{ "type": "Feature", "properties": { "P29_001": "35201", "P29_002": "F235310110166", "P29_003": "16006", "P29_004": "下関短期大学", "P29_005": "山口県下関市桜山町1-1", "P29_006": "4", "P29_007": "0", "P29_008": "00", "P29_009": null }, "geometry": { "type": "Point", "coordinates": [ 130.922985719291546, 33.962538021564967 ] } },
{ "type": "Feature", "properties": { "P29_001": "35206", "P29_002": "F235310110175", "P29_003": "16006", "P29_004": "山口短期大学", "P29_005": "山口県防府市大字台道字大繁枝11346-2", "P29_006": "4", "P29_007": "0", "P29_008": "00", "P29_009": null }, "geometry": { "type": "Point", "coordinates": [ 131.494011138475173, 34.051049178088469 ] } },
{ "type": "Feature", "properties": { "P29_001": "35203", "P29_002": "F235310110184", "P29_003": "16006", "P29_004": "山口芸術短期大学", "P29_005": "山口県山口市小郡みらい町1-7-1", "P29_006": "4", "P29_007": "0", "P29_008": "00", "P29_009": null }, "geometry": { "type": "Point", "coordinates": [ 131.403012664163299, 34.120445161703365 ] } },
{ "type": "Feature", "properties": { "P29_001": "35208", "P29_002": "F235310110193", "P29_003": "16006", "P29_004": "岩国短期大学", "P29_005": "山口県岩国市尾津町2-24-18", "P29_006": "4", "P29_007": "0", "P29_008": "00", "P29_009": null }, "geometry": { "type": "Point", "coordinates": [ 132.2058742339606, 34.140282395094985 ] } }
]
}
