{
"type": "FeatureCollection",
"name": "geo_35_特定福祉用具販売",
"crs": { "type": "name", "properties": { "name": "urn:ogc:def:crs:OGC:1.3:CRS84" } },
"features": [
{ "type": "Feature", "properties": { "内容": "合同会社つなぎ【特定福祉用具販売】山口県下関市綾羅木本町6丁目19番1号　第二伊藤荘　103号室", "url": "https://www.kaigokensaku.mhlw.go.jp/35/index.php?action_kouhyou_detail_004_kani=true&JigyosyoCd=3570106314-00&ServiceCd=410&Type=search", "url2": "g.tunagi@ag,wakwak.com" }, "geometry": { "type": "Point", "coordinates": [ 130.9195506, 34.0055084 ] } },
{ "type": "Feature", "properties": { "内容": "ダスキンヘルスレント下関ステーション【特定福祉用具販売】卸新町7-1", "url": "https://www.kaigokensaku.mhlw.go.jp/35/index.php?action_kouhyou_detail_004_kani=true&JigyosyoCd=3570106371-00&ServiceCd=410&Type=search", "url2": "https://healthrent.duskin.jp/station/yamaguchi/shimonoseki.html" }, "geometry": { "type": "Point", "coordinates": [ 130.948804, 33.983903 ] } },
{ "type": "Feature", "properties": { "内容": "ふくふく介護事業所【特定福祉用具販売】山口県下関市小月本町１丁目7番8号", "url": "https://www.kaigokensaku.mhlw.go.jp/35/index.php?action_kouhyou_detail_004_kani=true&JigyosyoCd=3570106744-00&ServiceCd=410&Type=search", "url2": null }, "geometry": { "type": "Point", "coordinates": [ 131.034263, 34.0712813 ] } },
{ "type": "Feature", "properties": { "内容": "アイユウ長府福祉用具サービス事業部【特定福祉用具販売】山口県下関市長府金屋浜町１－５", "url": "https://www.kaigokensaku.mhlw.go.jp/35/index.php?action_kouhyou_detail_004_kani=true&JigyosyoCd=3570105191-00&ServiceCd=410&Type=search", "url2": "http://shoueikai-aiyuu.com/service/index.html" }, "geometry": { "type": "Point", "coordinates": [ 130.9920301, 34.0023325 ] } },
{ "type": "Feature", "properties": { "内容": "株式会社ぴーす【特定福祉用具販売】山口県下関市安岡町4丁目14-22", "url": "https://www.kaigokensaku.mhlw.go.jp/35/index.php?action_kouhyou_detail_004_kani=true&JigyosyoCd=3570104665-00&ServiceCd=410&Type=search", "url2": null }, "geometry": { "type": "Point", "coordinates": [ 130.915559499999972, 34.0304618 ] } },
{ "type": "Feature", "properties": { "内容": "有限会社ベストライフ福祉用具サービス【特定福祉用具販売】豊浦町黒井10634-5", "url": "https://www.kaigokensaku.mhlw.go.jp/35/index.php?action_kouhyou_detail_004_kani=true&JigyosyoCd=3570105043-00&ServiceCd=410&Type=search", "url2": "http://carelife1165.web.fc2.com/" }, "geometry": { "type": "Point", "coordinates": [ 130.9094483, 34.1263024 ] } },
{ "type": "Feature", "properties": { "内容": "株式会社キロク【特定福祉用具販売】山口県下関市秋根北町8-1", "url": "https://www.kaigokensaku.mhlw.go.jp/35/index.php?action_kouhyou_detail_004_kani=true&JigyosyoCd=3570104152-00&ServiceCd=410&Type=search", "url2": "URL:http://www.k-kiroku.co.jp/" }, "geometry": { "type": "Point", "coordinates": [ 130.953181200000017, 34.0133713 ] } },
{ "type": "Feature", "properties": { "内容": "金剛住機株式会社下関支店【特定福祉用具販売】下関市貴船町4丁目1番23号", "url": "https://www.kaigokensaku.mhlw.go.jp/35/index.php?action_kouhyou_detail_004_kani=true&JigyosyoCd=3570100655-00&ServiceCd=410&Type=search", "url2": "http://yutorio.co.jp" }, "geometry": { "type": "Point", "coordinates": [ 130.938103700000056, 33.9689823 ] } },
{ "type": "Feature", "properties": { "内容": "株式会社　ひまわり【特定福祉用具販売】山口県下関市一の宮卸本町３番３０号", "url": "https://www.kaigokensaku.mhlw.go.jp/35/index.php?action_kouhyou_detail_004_kani=true&JigyosyoCd=3570100507-00&ServiceCd=410&Type=search", "url2": "http://www.himawari-co.jp" }, "geometry": { "type": "Point", "coordinates": [ 130.949666, 33.98865 ] } },
{ "type": "Feature", "properties": { "内容": "王司病院福祉用具貸与・販売事業所【特定福祉用具販売】下関市王司本町1丁目18番27号", "url": "https://www.kaigokensaku.mhlw.go.jp/35/index.php?action_kouhyou_detail_004_kani=true&JigyosyoCd=3570106835-00&ServiceCd=410&Type=search", "url2": "http://www.kihoukai.or.jp/" }, "geometry": { "type": "Point", "coordinates": [ 131.0153895, 34.0411882 ] } },
{ "type": "Feature", "properties": { "内容": "西日本商事株式会社　下関営業所【特定福祉用具販売】下関市秋根北町8番9号", "url": "https://www.kaigokensaku.mhlw.go.jp/35/index.php?action_kouhyou_detail_004_kani=true&JigyosyoCd=3570103501-00&ServiceCd=410&Type=search", "url2": null }, "geometry": { "type": "Point", "coordinates": [ 130.953215401875553, 34.01265957783081 ] } },
{ "type": "Feature", "properties": { "内容": "下関福祉サービス【特定福祉用具販売】下関市石原65-5", "url": "https://www.kaigokensaku.mhlw.go.jp/35/index.php?action_kouhyou_detail_004_kani=true&JigyosyoCd=3570103444-00&ServiceCd=410&Type=search", "url2": null }, "geometry": { "type": "Point", "coordinates": [ 130.953034300000013, 34.0170521 ] } },
{ "type": "Feature", "properties": { "内容": "ＺＯＮ福祉レンタルサービス【特定福祉用具販売】山口県下関市川中本町12-18", "url": "https://www.kaigokensaku.mhlw.go.jp/35/index.php?action_kouhyou_detail_004_kani=true&JigyosyoCd=3570104046-00&ServiceCd=410&Type=search", "url2": null }, "geometry": { "type": "Point", "coordinates": [ 130.929266868016043, 34.000814618466549 ] } },
{ "type": "Feature", "properties": { "内容": "株式会社ホームケアサービス山口　下関店【特定福祉用具販売】下関市長府才川1丁目35-21", "url": "https://www.kaigokensaku.mhlw.go.jp/35/index.php?action_kouhyou_detail_004_kani=true&JigyosyoCd=3570100499-00&ServiceCd=410&Type=search", "url2": "http://www.homecare-yamaguchi.co.jp" }, "geometry": { "type": "Point", "coordinates": [ 131.00837690000003, 34.0280936 ] } },
{ "type": "Feature", "properties": { "内容": "はんど下関営業所【特定福祉用具販売】下関市長府扇町9-5", "url": "https://www.kaigokensaku.mhlw.go.jp/35/index.php?action_kouhyou_detail_004_kani=true&JigyosyoCd=3570101604-00&ServiceCd=410&Type=search", "url2": "http://www.ee-hand.co.jp/" }, "geometry": { "type": "Point", "coordinates": [ 131.009565400000042, 34.0480917 ] } },
{ "type": "Feature", "properties": { "内容": "かけはし【特定福祉用具販売】山口県下関市武久町二丁目81番14号", "url": "https://www.kaigokensaku.mhlw.go.jp/35/index.php?action_kouhyou_detail_004_kani=true&JigyosyoCd=3570106850-00&ServiceCd=410&Type=search", "url2": null }, "geometry": { "type": "Point", "coordinates": [ 130.918898633117863, 33.987126020716694 ] } },
{ "type": "Feature", "properties": { "内容": "株式会社東武住販【特定福祉用具販売】山口県下関市岬之町11番46号", "url": "https://www.kaigokensaku.mhlw.go.jp/35/index.php?action_kouhyou_detail_004_kani=true&JigyosyoCd=3570103352-00&ServiceCd=410&Type=search", "url2": "https://www.toubu.co.jp/" }, "geometry": { "type": "Point", "coordinates": [ 130.936320542991666, 33.951883651253915 ] } },
{ "type": "Feature", "properties": { "内容": "日本基準寝具株式会社　下関営業所【特定福祉用具販売】下関市一の宮町4-3-7", "url": "https://www.kaigokensaku.mhlw.go.jp/35/index.php?action_kouhyou_detail_004_kani=true&JigyosyoCd=3570106975-00&ServiceCd=410&Type=search", "url2": "https://www.nihonkijun.jp" }, "geometry": { "type": "Point", "coordinates": [ 130.9517078, 33.9928974 ] } },
{ "type": "Feature", "properties": { "内容": "金剛住機株式会社【特定福祉用具販売】山口県下関市貴船町4-1-23", "url": "https://www.kaigokensaku.mhlw.go.jp/35/index.php?action_kouhyou_detail_004_kani=true&JigyosyoCd=3570106983-00&ServiceCd=410&Type=search", "url2": "https://yutorio.co.jp/" }, "geometry": { "type": "Point", "coordinates": [ 130.938119199999988, 33.9689579 ] } },
{ "type": "Feature", "properties": { "内容": "株式会社フルケア　下関営業所【特定福祉用具販売】山口県下関市金比羅町5-12", "url": "https://www.kaigokensaku.mhlw.go.jp/35/index.php?action_kouhyou_detail_004_kani=true&JigyosyoCd=3570105928-00&ServiceCd=410&Type=search", "url2": "http://www.full-care.jp" }, "geometry": { "type": "Point", "coordinates": [ 130.918938200000042, 33.9675364 ] } },
{ "type": "Feature", "properties": { "内容": "合同会社Ｌｉｇｈｔｈｏｕｓｅ【特定福祉用具販売】山口県宇部市小松原町二丁目2-3", "url": "https://www.kaigokensaku.mhlw.go.jp/35/index.php?action_kouhyou_detail_004_kani=true&JigyosyoCd=3570203517-00&ServiceCd=410&Type=search", "url2": "http://lighthouse-ube.jp/" }, "geometry": { "type": "Point", "coordinates": [ 131.2415701, 33.9631653 ] } },
{ "type": "Feature", "properties": { "内容": "ケアサポートきわなみ【特定福祉用具販売】山口県宇部市大字際波726-3", "url": "https://www.kaigokensaku.mhlw.go.jp/35/index.php?action_kouhyou_detail_004_kani=true&JigyosyoCd=3570203764-00&ServiceCd=410&Type=search", "url2": "https://kiwanami-kaigo.com/" }, "geometry": { "type": "Point", "coordinates": [ 131.2217747, 33.9935703 ] } },
{ "type": "Feature", "properties": { "内容": "西日本商事株式会社　宇部営業所【特定福祉用具販売】宇部市常盤町２丁目１－２９", "url": "https://www.kaigokensaku.mhlw.go.jp/35/index.php?action_kouhyou_detail_004_kani=true&JigyosyoCd=3570202659-00&ServiceCd=410&Type=search", "url2": null }, "geometry": { "type": "Point", "coordinates": [ 131.248996799999986, 33.9499423 ] } },
{ "type": "Feature", "properties": { "内容": "サンケン実業株式会社ひまわり宇部【特定福祉用具販売】宇部市神原町2丁目2番9号", "url": "https://www.kaigokensaku.mhlw.go.jp/35/index.php?action_kouhyou_detail_004_kani=true&JigyosyoCd=3570200448-00&ServiceCd=410&Type=search", "url2": null }, "geometry": { "type": "Point", "coordinates": [ 131.262593199999969, 33.9487343 ] } },
{ "type": "Feature", "properties": { "内容": "株式会社ホームケアサービス山口　宇部店【特定福祉用具販売】山口県宇部市厚南中央6丁目4-20", "url": "https://www.kaigokensaku.mhlw.go.jp/35/index.php?action_kouhyou_detail_004_kani=true&JigyosyoCd=3570201958-00&ServiceCd=410&Type=search", "url2": "http://www.homecare-yamaguchi.co.jp" }, "geometry": { "type": "Point", "coordinates": [ 131.209992756995433, 33.992783815328025 ] } },
{ "type": "Feature", "properties": { "内容": "合同会社　うさぎの介護用品店【特定福祉用具販売】宇部市東新川町6番44号コ－ポ高丸101号", "url": "https://www.kaigokensaku.mhlw.go.jp/35/index.php?action_kouhyou_detail_004_kani=true&JigyosyoCd=3570203061-00&ServiceCd=410&Type=search", "url2": null }, "geometry": { "type": "Point", "coordinates": [ 131.25521040000001, 33.9463956 ] } },
{ "type": "Feature", "properties": { "内容": "エネックス株式会社【特定福祉用具販売】宇部市東須恵３８４０－１", "url": "https://www.kaigokensaku.mhlw.go.jp/35/index.php?action_kouhyou_detail_004_kani=true&JigyosyoCd=3570200299-00&ServiceCd=410&Type=search", "url2": "http//www.enex-inc.com" }, "geometry": { "type": "Point", "coordinates": [ 131.193065100000013, 33.9605041 ] } },
{ "type": "Feature", "properties": { "内容": "かぶしきがいしゃはんど【特定福祉用具販売】宇部市助田町7-13", "url": "https://www.kaigokensaku.mhlw.go.jp/35/index.php?action_kouhyou_detail_004_kani=true&JigyosyoCd=3570200463-00&ServiceCd=410&Type=search", "url2": "http://www.ee-hand.co.jp/" }, "geometry": { "type": "Point", "coordinates": [ 131.2407746, 33.9641128 ] } },
{ "type": "Feature", "properties": { "内容": "福祉用具事業所アドバンス【特定福祉用具販売】山口県山口市湯田温泉1-1-7", "url": "https://www.kaigokensaku.mhlw.go.jp/35/index.php?action_kouhyou_detail_004_kani=true&JigyosyoCd=3570303846-00&ServiceCd=410&Type=search", "url2": null }, "geometry": { "type": "Point", "coordinates": [ 131.4603966, 34.1658657 ] } },
{ "type": "Feature", "properties": { "内容": "山口病院福祉用具事業所【特定福祉用具販売】山口県山口市駅通り2丁目8番5号", "url": "https://www.kaigokensaku.mhlw.go.jp/35/index.php?action_kouhyou_detail_004_kani=true&JigyosyoCd=3570303531-00&ServiceCd=410&Type=search", "url2": "http://www.yamaguchibyouin.jp/" }, "geometry": { "type": "Point", "coordinates": [ 131.4803198, 34.1749861 ] } },
{ "type": "Feature", "properties": { "内容": "株式会社ぐりーん【特定福祉用具販売】山口市赤妻町3－20信和ビル105", "url": "https://www.kaigokensaku.mhlw.go.jp/35/index.php?action_kouhyou_detail_004_kani=true&JigyosyoCd=3570301691-00&ServiceCd=410&Type=search", "url2": null }, "geometry": { "type": "Point", "coordinates": [ 131.4482054, 34.1674073 ] } },
{ "type": "Feature", "properties": { "内容": "株式会社フルケア山口営業所【特定福祉用具販売】山口県山口市小郡下郷788-2", "url": "https://www.kaigokensaku.mhlw.go.jp/35/index.php?action_kouhyou_detail_004_kani=true&JigyosyoCd=3570303234-00&ServiceCd=410&Type=search", "url2": "https://www.full-care.jp/" }, "geometry": { "type": "Point", "coordinates": [ 131.391066300000034, 34.090175 ] } },
{ "type": "Feature", "properties": { "内容": "株式会社　河村福祉サービス【特定福祉用具販売】山口県山口市阿知須４８２５－１サンパーク阿知須内２Ｆ", "url": "https://www.kaigokensaku.mhlw.go.jp/35/index.php?action_kouhyou_detail_004_kani=true&JigyosyoCd=3570302798-00&ServiceCd=410&Type=search", "url2": "http://www.kawamura-fs.com/ube.html" }, "geometry": { "type": "Point", "coordinates": [ 131.351540699999987, 34.009388100000017 ] } },
{ "type": "Feature", "properties": { "内容": "ダスキンヘルスレント山口北ステーション【特定福祉用具販売】山口県山口市宮野上190-2", "url": "https://www.kaigokensaku.mhlw.go.jp/35/index.php?action_kouhyou_detail_004_kani=true&JigyosyoCd=3570303879-00&ServiceCd=410&Type=search", "url2": "https://hanasakamura.net/" }, "geometry": { "type": "Point", "coordinates": [ 131.50829, 34.2023078 ] } },
{ "type": "Feature", "properties": { "内容": "株式会社岩多屋　福祉事業部山口【特定福祉用具販売】小郡上郷3541番地3", "url": "https://www.kaigokensaku.mhlw.go.jp/35/index.php?action_kouhyou_detail_004_kani=true&JigyosyoCd=3570303374-00&ServiceCd=410&Type=search", "url2": "https://www.iwataya-net.co.jp/" }, "geometry": { "type": "Point", "coordinates": [ 131.412953499999986, 34.1213065 ] } },
{ "type": "Feature", "properties": { "内容": "日本基準寝具株式会社　エコール山口営業所【特定福祉用具販売】山口県山口市小郡上郷字仁保津5256", "url": "https://www.kaigokensaku.mhlw.go.jp/35/index.php?action_kouhyou_detail_004_kani=true&JigyosyoCd=3577600384-00&ServiceCd=410&Type=search", "url2": "https://www.nihonkijun.jp" }, "geometry": { "type": "Point", "coordinates": [ 131.4097997, 34.1250157 ] } },
{ "type": "Feature", "properties": { "内容": "はんど山口営業所【特定福祉用具販売】山口市朝田流通センター601-13", "url": "https://www.kaigokensaku.mhlw.go.jp/35/index.php?action_kouhyou_detail_004_kani=true&JigyosyoCd=3570302483-00&ServiceCd=410&Type=search", "url2": "http://www.ee-hand.co.jp/" }, "geometry": { "type": "Point", "coordinates": [ 131.415868, 34.138414 ] } },
{ "type": "Feature", "properties": { "内容": "株式会社　ホームケアサービス山口　山口店【特定福祉用具販売】山口県山口市陶４５４２－１", "url": "https://www.kaigokensaku.mhlw.go.jp/35/index.php?action_kouhyou_detail_004_kani=true&JigyosyoCd=3570300388-00&ServiceCd=410&Type=search", "url2": "http://www.homecare-yamaguchi.co.jp" }, "geometry": { "type": "Point", "coordinates": [ 131.419316200000026, 34.0919081 ] } },
{ "type": "Feature", "properties": { "内容": "有限会社　アイフィット山口【特定福祉用具販売】山口市平井705番地", "url": "https://www.kaigokensaku.mhlw.go.jp/35/index.php?action_kouhyou_detail_004_kani=true&JigyosyoCd=3570300834-00&ServiceCd=410&Type=search", "url2": "http://ifit-y.com" }, "geometry": { "type": "Point", "coordinates": [ 131.463307100000065, 34.154581 ] } },
{ "type": "Feature", "properties": { "内容": "福祉用具リライフ【特定福祉用具販売】山口県山口市秋穂東1192-7", "url": "https://www.kaigokensaku.mhlw.go.jp/35/index.php?action_kouhyou_detail_004_kani=true&JigyosyoCd=3570303986-00&ServiceCd=410&Type=search", "url2": null }, "geometry": { "type": "Point", "coordinates": [ 131.463923200000011, 34.0272188 ] } },
{ "type": "Feature", "properties": { "内容": "合同会社ここも【特定福祉用具販売】山口県萩市大字川島４４４", "url": "https://www.kaigokensaku.mhlw.go.jp/35/index.php?action_kouhyou_detail_004_kani=true&JigyosyoCd=3570400964-00&ServiceCd=410&Type=search", "url2": null }, "geometry": { "type": "Point", "coordinates": [ 131.405613197648677, 34.404572861990843 ] } },
{ "type": "Feature", "properties": { "内容": "あおば【特定福祉用具販売】山口県萩市椿東２８５８", "url": "https://www.kaigokensaku.mhlw.go.jp/35/index.php?action_kouhyou_detail_004_kani=true&JigyosyoCd=3540440439-00&ServiceCd=410&Type=search", "url2": null }, "geometry": { "type": "Point", "coordinates": [ 131.4142085, 34.4189248 ] } },
{ "type": "Feature", "properties": { "内容": "株式会社ホームケアサービス山口　萩店【特定福祉用具販売】山口県萩市椿東2880-1", "url": "https://www.kaigokensaku.mhlw.go.jp/35/index.php?action_kouhyou_detail_004_kani=true&JigyosyoCd=3570400501-00&ServiceCd=410&Type=search", "url2": "http://www.homecare-yamaguchi.co.jp" }, "geometry": { "type": "Point", "coordinates": [ 131.41264769999998, 34.418915 ] } },
{ "type": "Feature", "properties": { "内容": "有限会社ひまわり【特定福祉用具販売】萩市大字山田4731番地1", "url": "https://www.kaigokensaku.mhlw.go.jp/35/index.php?action_kouhyou_detail_004_kani=true&JigyosyoCd=3570400048-00&ServiceCd=410&Type=search", "url2": "https://himawari-hagi.com/" }, "geometry": { "type": "Point", "coordinates": [ 131.38139417332161, 34.404942434812789 ] } },
{ "type": "Feature", "properties": { "内容": "株式会社ぴーす　防府営業所【特定福祉用具販売】山口県防府市三田尻３丁目７－３０", "url": "https://www.kaigokensaku.mhlw.go.jp/35/index.php?action_kouhyou_detail_004_kani=true&JigyosyoCd=3570602551-00&ServiceCd=410&Type=search", "url2": "http://hp.kaipoke.biz/zgz/" }, "geometry": { "type": "Point", "coordinates": [ 131.5787387, 34.0445881 ] } },
{ "type": "Feature", "properties": { "内容": "（株）ナカニシ【特定福祉用具販売】防府市開出西町５－２２", "url": "https://www.kaigokensaku.mhlw.go.jp/35/index.php?action_kouhyou_detail_004_kani=true&JigyosyoCd=3570600332-00&ServiceCd=410&Type=search", "url2": null }, "geometry": { "type": "Point", "coordinates": [ 131.54853, 34.0539095 ] } },
{ "type": "Feature", "properties": { "内容": "有限会社スマイル・ケア【特定福祉用具販売】山口県防府市大字江泊1906番地", "url": "https://www.kaigokensaku.mhlw.go.jp/35/index.php?action_kouhyou_detail_004_kani=true&JigyosyoCd=3570600571-00&ServiceCd=410&Type=search", "url2": null }, "geometry": { "type": "Point", "coordinates": [ 131.6055284, 34.0500584 ] } },
{ "type": "Feature", "properties": { "内容": "ダスキンヘルスレント山口防府ステーション【特定福祉用具販売】山口県防府市国衙2-2-30", "url": "https://www.kaigokensaku.mhlw.go.jp/35/index.php?action_kouhyou_detail_004_kani=true&JigyosyoCd=3570602403-00&ServiceCd=410&Type=search", "url2": "https://healthrent.duskin.jp/" }, "geometry": { "type": "Point", "coordinates": [ 131.5838455, 34.0564248 ] } },
{ "type": "Feature", "properties": { "内容": "有限会社　加賀メディカル【特定福祉用具販売】防府市佐波2丁目10-12", "url": "https://www.kaigokensaku.mhlw.go.jp/35/index.php?action_kouhyou_detail_004_kani=true&JigyosyoCd=3570600324-00&ServiceCd=410&Type=search", "url2": "http://kaga-medical.co.jp/" }, "geometry": { "type": "Point", "coordinates": [ 131.563723200000027, 34.0560621 ] } },
{ "type": "Feature", "properties": { "内容": "株式会社　ひまわり　山口支店【特定福祉用具販売】防府市鋳物師町9-38", "url": "https://www.kaigokensaku.mhlw.go.jp/35/index.php?action_kouhyou_detail_004_kani=true&JigyosyoCd=3570601389-00&ServiceCd=410&Type=search", "url2": "http://www.himawari-co.jp/" }, "geometry": { "type": "Point", "coordinates": [ 131.575030800000036, 34.0502185 ] } },
{ "type": "Feature", "properties": { "内容": "株式会社　ホームケアサービス山口　防府店【特定福祉用具販売】山口県防府市華園町１１－１１", "url": "https://www.kaigokensaku.mhlw.go.jp/35/index.php?action_kouhyou_detail_004_kani=true&JigyosyoCd=3570602106-00&ServiceCd=410&Type=search", "url2": "http://www.homecare-yamaguchi.co.jp" }, "geometry": { "type": "Point", "coordinates": [ 131.557596466270439, 34.04370772324625 ] } },
{ "type": "Feature", "properties": { "内容": "指定福祉用具貸与・販売事業所げんき【特定福祉用具販売】山口県下松市大字西豊井1655番地3", "url": "https://www.kaigokensaku.mhlw.go.jp/35/index.php?action_kouhyou_detail_004_kani=true&JigyosyoCd=3570701098-00&ServiceCd=410&Type=search", "url2": "https://www.kaigo-genki.info/" }, "geometry": { "type": "Point", "coordinates": [ 131.875774113877952, 34.018472232178603 ] } },
{ "type": "Feature", "properties": { "内容": "株式会社ホームケアサービス山口　周南店【特定福祉用具販売】下松市大字末武上久保田1800-1", "url": "https://www.kaigokensaku.mhlw.go.jp/35/index.php?action_kouhyou_detail_004_kani=true&JigyosyoCd=3570700355-00&ServiceCd=410&Type=search", "url2": "http://www.homecare-yamaguchi.co.jp/" }, "geometry": { "type": "Point", "coordinates": [ 131.870947, 34.0373613 ] } },
{ "type": "Feature", "properties": { "内容": "有限会社　カガミ【特定福祉用具販売】岩国1-15-17", "url": "https://www.kaigokensaku.mhlw.go.jp/35/index.php?action_kouhyou_detail_004_kani=true&JigyosyoCd=3570801765-00&ServiceCd=410&Type=search", "url2": null }, "geometry": { "type": "Point", "coordinates": [ 132.180691877315553, 34.164723263955743 ] } },
{ "type": "Feature", "properties": { "内容": "アイテム株式会社【特定福祉用具販売】山口県岩国市玖珂町1017-5", "url": "https://www.kaigokensaku.mhlw.go.jp/35/index.php?action_kouhyou_detail_004_kani=true&JigyosyoCd=3570802433-00&ServiceCd=410&Type=search", "url2": null }, "geometry": { "type": "Point", "coordinates": [ 132.085978358860814, 34.096436833202858 ] } },
{ "type": "Feature", "properties": { "内容": "株式会社ホームケアサービス山口岩国店【特定福祉用具販売】岩国市今津町4丁目12-7", "url": "https://www.kaigokensaku.mhlw.go.jp/35/index.php?action_kouhyou_detail_004_kani=true&JigyosyoCd=3570800874-00&ServiceCd=410&Type=search", "url2": "http://www.homecare-yamaguchi.co.jp/" }, "geometry": { "type": "Point", "coordinates": [ 132.214678700000036, 34.165284 ] } },
{ "type": "Feature", "properties": { "内容": "西日本医療サービス株式会社　岩国営業所【特定福祉用具販売】山口県岩国市周東町下久原624番地", "url": "https://www.kaigokensaku.mhlw.go.jp/35/index.php?action_kouhyou_detail_004_kani=true&JigyosyoCd=3570802128-00&ServiceCd=410&Type=search", "url2": "http://www.nishinihoniryou.jp/" }, "geometry": { "type": "Point", "coordinates": [ 132.057398353923759, 34.090152153977925 ] } },
{ "type": "Feature", "properties": { "内容": "サンハイティー【特定福祉用具販売】岩国市多田1丁目105番6", "url": "https://www.kaigokensaku.mhlw.go.jp/35/index.php?action_kouhyou_detail_004_kani=true&JigyosyoCd=3570800767-00&ServiceCd=410&Type=search", "url2": "https://sunhighty.jp/" }, "geometry": { "type": "Point", "coordinates": [ 132.1632769, 34.175609771362829 ] } },
{ "type": "Feature", "properties": { "内容": "株式会社　エヌ・エス・サービス　本社事業所【特定福祉用具販売】岩国市由宇町南沖4丁目3－3", "url": "https://www.kaigokensaku.mhlw.go.jp/35/index.php?action_kouhyou_detail_004_kani=true&JigyosyoCd=3570800023-00&ServiceCd=410&Type=search", "url2": "http://www.nss-bs.co.jp/" }, "geometry": { "type": "Point", "coordinates": [ 132.2134542, 34.0384381 ] } },
{ "type": "Feature", "properties": { "内容": "株式会社フルケア　岩国営業所【特定福祉用具販売】山口県岩国市多田3丁目104-4", "url": "https://www.kaigokensaku.mhlw.go.jp/35/index.php?action_kouhyou_detail_004_kani=true&JigyosyoCd=3570802219-00&ServiceCd=410&Type=search", "url2": "https://www.full-care.jp" }, "geometry": { "type": "Point", "coordinates": [ 132.1687624, 34.1802957 ] } },
{ "type": "Feature", "properties": { "内容": "ダスキンヘルスレント周南ステーション【特定福祉用具販売】光市光井一丁目14-17", "url": "https://www.kaigokensaku.mhlw.go.jp/35/index.php?action_kouhyou_detail_004_kani=true&JigyosyoCd=3570700322-00&ServiceCd=410&Type=search", "url2": "http://www.kasite.net/" }, "geometry": { "type": "Point", "coordinates": [ 131.954267, 33.9521651 ] } },
{ "type": "Feature", "properties": { "内容": "株式会社あすなろ【特定福祉用具販売】山口県光市中央二丁目17番26号", "url": "https://www.kaigokensaku.mhlw.go.jp/35/index.php?action_kouhyou_detail_004_kani=true&JigyosyoCd=3571000920-00&ServiceCd=410&Type=search", "url2": "asunaro-hikari.com" }, "geometry": { "type": "Point", "coordinates": [ 131.9488264, 33.9549838 ] } },
{ "type": "Feature", "properties": { "内容": "マザー【特定福祉用具販売】長門市西深川430-2", "url": "https://www.kaigokensaku.mhlw.go.jp/35/index.php?action_kouhyou_detail_004_kani=true&JigyosyoCd=3570400212-00&ServiceCd=410&Type=search", "url2": null }, "geometry": { "type": "Point", "coordinates": [ 131.166126040774515, 34.371359582640963 ] } },
{ "type": "Feature", "properties": { "内容": "株式会社　西日本光洋【特定福祉用具販売】柳井市柳井6764-1", "url": "https://www.kaigokensaku.mhlw.go.jp/35/index.php?action_kouhyou_detail_004_kani=true&JigyosyoCd=3571200108-00&ServiceCd=410&Type=search", "url2": null }, "geometry": { "type": "Point", "coordinates": [ 132.104768, 33.992379800000023 ] } },
{ "type": "Feature", "properties": { "内容": "株式会社狼煙【特定福祉用具販売】山口県美祢市美東町大田６０６５番地", "url": "https://www.kaigokensaku.mhlw.go.jp/35/index.php?action_kouhyou_detail_004_kani=true&JigyosyoCd=3571300593-00&ServiceCd=410&Type=search", "url2": "https://hp.kaipoke.biz/xps/" }, "geometry": { "type": "Point", "coordinates": [ 131.343071900000012, 34.2218474 ] } },
{ "type": "Feature", "properties": { "内容": "有限会社サンリツ【特定福祉用具販売】山口県周南市大字久米4197-1", "url": "https://www.kaigokensaku.mhlw.go.jp/35/index.php?action_kouhyou_detail_004_kani=true&JigyosyoCd=3571501166-00&ServiceCd=410&Type=search", "url2": "office@cs-sanritsu.jp" }, "geometry": { "type": "Point", "coordinates": [ 131.833596199999988, 34.0349466 ] } },
{ "type": "Feature", "properties": { "内容": "日本基準寝具株式会社　周南営業所【特定福祉用具販売】周南市大字久米852-2", "url": "https://www.kaigokensaku.mhlw.go.jp/35/index.php?action_kouhyou_detail_004_kani=true&JigyosyoCd=3571500846-00&ServiceCd=410&Type=search", "url2": "https://www.nihonkijun.jp" }, "geometry": { "type": "Point", "coordinates": [ 131.848163, 34.0343803 ] } },
{ "type": "Feature", "properties": { "内容": "株式会社　西日本光洋　周南営業所【特定福祉用具販売】周南市大字久米717-1", "url": "https://www.kaigokensaku.mhlw.go.jp/35/index.php?action_kouhyou_detail_004_kani=true&JigyosyoCd=3571501356-00&ServiceCd=410&Type=search", "url2": null }, "geometry": { "type": "Point", "coordinates": [ 131.851187988098047, 34.036319432793334 ] } },
{ "type": "Feature", "properties": { "内容": "有限会社　マイ・サポート【特定福祉用具販売】山口県周南市権現町5番21号", "url": "https://www.kaigokensaku.mhlw.go.jp/35/index.php?action_kouhyou_detail_004_kani=true&JigyosyoCd=3571500515-00&ServiceCd=410&Type=search", "url2": null }, "geometry": { "type": "Point", "coordinates": [ 131.798027889010626, 34.057954689032762 ] } },
{ "type": "Feature", "properties": { "内容": "海井医科器械株式会社　周南営業所【特定福祉用具販売】周南市鼓海２丁目１１８－７２", "url": "https://www.kaigokensaku.mhlw.go.jp/35/index.php?action_kouhyou_detail_004_kani=true&JigyosyoCd=3570500292-00&ServiceCd=410&Type=search", "url2": "www.umii.co.jp/" }, "geometry": { "type": "Point", "coordinates": [ 131.820126499999986, 34.019953 ] } },
{ "type": "Feature", "properties": { "内容": "JA福祉用具レンタル山口【特定福祉用具販売】山口県周南市清水1丁目12番7号JA福祉用具レンタル山口", "url": "https://www.kaigokensaku.mhlw.go.jp/35/index.php?action_kouhyou_detail_004_kani=true&JigyosyoCd=3571501505-00&ServiceCd=410&Type=search", "url2": null }, "geometry": { "type": "Point", "coordinates": [ 131.767630599999961, 34.0708579 ] } },
{ "type": "Feature", "properties": { "内容": "有限会社ゆとり工房【特定福祉用具販売】周南市桜木3-5-82", "url": "https://www.kaigokensaku.mhlw.go.jp/35/index.php?action_kouhyou_detail_004_kani=true&JigyosyoCd=3571500093-00&ServiceCd=410&Type=search", "url2": "http://www.yutori-kobo.net" }, "geometry": { "type": "Point", "coordinates": [ 131.837291981722927, 34.038401615068672 ] } },
{ "type": "Feature", "properties": { "内容": "株式会社フルケア周南営業所【特定福祉用具販売】山口県周南市久米1124", "url": "https://www.kaigokensaku.mhlw.go.jp/35/index.php?action_kouhyou_detail_004_kani=true&JigyosyoCd=3571501745-00&ServiceCd=410&Type=search", "url2": "https://www.full-care.jp/" }, "geometry": { "type": "Point", "coordinates": [ 131.844024499999932, 34.0288501 ] } },
{ "type": "Feature", "properties": { "内容": "西日本商事株式会社　山口営業所【特定福祉用具販売】山陽小野田市中川四丁目４番８号", "url": "https://www.kaigokensaku.mhlw.go.jp/35/index.php?action_kouhyou_detail_004_kani=true&JigyosyoCd=3571600190-00&ServiceCd=410&Type=search", "url2": "https://www.yasuragi-ehime.com/" }, "geometry": { "type": "Point", "coordinates": [ 131.177181499999961, 33.9881233 ] } },
{ "type": "Feature", "properties": { "内容": "有限会社　しらき【特定福祉用具販売】山口県大島郡周防大島町大字西方14番地", "url": "https://www.kaigokensaku.mhlw.go.jp/35/index.php?action_kouhyou_detail_004_kani=true&JigyosyoCd=3577100310-00&ServiceCd=410&Type=search", "url2": null }, "geometry": { "type": "Point", "coordinates": [ 132.3274609, 33.9038443 ] } },
{ "type": "Feature", "properties": { "内容": "海井医科器械株式会社・海井福祉サービス【特定福祉用具販売】山口県玖珂郡和木町和木5-9-43", "url": "https://www.kaigokensaku.mhlw.go.jp/35/index.php?action_kouhyou_detail_004_kani=true&JigyosyoCd=3570800205-00&ServiceCd=410&Type=search", "url2": "http://www.umii.co.jp/" }, "geometry": { "type": "Point", "coordinates": [ 132.230212700000038, 34.2065246 ] } }
]
}
