{
"type": "FeatureCollection",
"name": "geo_35_専修学校",
"crs": { "type": "name", "properties": { "name": "urn:ogc:def:crs:EPSG::6668" } },
"features": [
{ "type": "Feature", "properties": { "P29_001": "35204", "P29_002": "H135210000015", "P29_003": "16016", "P29_004": "山口県立萩看護学校", "P29_005": "山口県萩市大字堀内菊ヶ浜489-5", "P29_006": "2", "P29_007": "0", "P29_008": "00", "P29_009": null }, "geometry": { "type": "Point", "coordinates": [ 131.391982438177735, 34.416587238855264 ] } },
{ "type": "Feature", "properties": { "P29_001": "35206", "P29_002": "H135210000024", "P29_003": "16016", "P29_004": "山口県立農業大学校", "P29_005": "山口県防府市大字牟礼318", "P29_006": "2", "P29_007": "0", "P29_008": "00", "P29_009": null }, "geometry": { "type": "Point", "coordinates": [ 131.614211780051221, 34.069380809144981 ] } },
{ "type": "Feature", "properties": { "P29_001": "35305", "P29_002": "H135210000033", "P29_003": "16016", "P29_004": "周防大島町立大島看護専門学校", "P29_005": "山口県大島郡周防大島町大字家房1595-1", "P29_006": "3", "P29_007": "0", "P29_008": "00", "P29_009": null }, "geometry": { "type": "Point", "coordinates": [ 132.236640356932014, 33.878308406257425 ] } },
{ "type": "Feature", "properties": { "P29_001": "35201", "P29_002": "H135310000013", "P29_003": "16016", "P29_004": "立修館高等専修学校", "P29_005": "山口県下関市小月茶屋3-4-26", "P29_006": "4", "P29_007": "0", "P29_008": "00", "P29_009": null }, "geometry": { "type": "Point", "coordinates": [ 131.027883601251659, 34.069461995331125 ] } },
{ "type": "Feature", "properties": { "P29_001": "35201", "P29_002": "H135310000022", "P29_003": "16016", "P29_004": "下関文化産業専門学校", "P29_005": "山口県下関市小月茶屋3-4-26", "P29_006": "4", "P29_007": "0", "P29_008": "00", "P29_009": null }, "geometry": { "type": "Point", "coordinates": [ 131.027873541266814, 34.069400785683186 ] } },
{ "type": "Feature", "properties": { "P29_001": "35201", "P29_002": "H135310000040", "P29_003": "16016", "P29_004": "下関理容美容専門学校", "P29_005": "山口県下関市貴船町3-12-14", "P29_006": "4", "P29_007": "0", "P29_008": "00", "P29_009": null }, "geometry": { "type": "Point", "coordinates": [ 130.940988737280207, 33.96904400475821 ] } },
{ "type": "Feature", "properties": { "P29_001": "35201", "P29_002": "H135310000059", "P29_003": "16016", "P29_004": "下関歯科技工専門学校", "P29_005": "山口県下関市貴船町3-1-37", "P29_006": "4", "P29_007": "0", "P29_008": "00", "P29_009": null }, "geometry": { "type": "Point", "coordinates": [ 130.941661142316434, 33.968158193704546 ] } },
{ "type": "Feature", "properties": { "P29_001": "35201", "P29_002": "H135310000068", "P29_003": "16016", "P29_004": "下関福祉専門学校", "P29_005": "山口県下関市小月茶屋3-4-26", "P29_006": "4", "P29_007": "0", "P29_008": "00", "P29_009": null }, "geometry": { "type": "Point", "coordinates": [ 131.027933901175942, 34.068979273789452 ] } },
{ "type": "Feature", "properties": { "P29_001": "35201", "P29_002": "H135310000077", "P29_003": "16016", "P29_004": "下関看護リハビリテーション学校", "P29_005": "山口県下関市竹崎町3-4-17", "P29_006": "4", "P29_007": "0", "P29_008": "00", "P29_009": null }, "geometry": { "type": "Point", "coordinates": [ 130.921714732033308, 33.953395405116787 ] } },
{ "type": "Feature", "properties": { "P29_001": "35201", "P29_002": "H135310000086", "P29_003": "16016", "P29_004": "さくら国際言語学院", "P29_005": "山口県下関市竹崎町3-5-19", "P29_006": "4", "P29_007": "0", "P29_008": "00", "P29_009": null }, "geometry": { "type": "Point", "coordinates": [ 130.922505325983337, 33.952027907615502 ] } },
{ "type": "Feature", "properties": { "P29_001": "35201", "P29_002": "H135310000095", "P29_003": "16016", "P29_004": "日本医療専門学校", "P29_005": "山口県下関市一の宮町3-12-28", "P29_006": "4", "P29_007": "0", "P29_008": "00", "P29_009": null }, "geometry": { "type": "Point", "coordinates": [ 130.948741560837135, 33.996154695040502 ] } },
{ "type": "Feature", "properties": { "P29_001": "35201", "P29_002": "H135310000102", "P29_003": "16016", "P29_004": "専門学校公務員ゼミナール下関校", "P29_005": "山口県下関市竹崎町4-4-1　下関商業ビル2Ｆ", "P29_006": "4", "P29_007": "0", "P29_008": "00", "P29_009": null }, "geometry": { "type": "Point", "coordinates": [ 130.924836539855249, 33.949796014624795 ] } },
{ "type": "Feature", "properties": { "P29_001": "35202", "P29_002": "H135310000111", "P29_003": "16016", "P29_004": "宇部看護専門学校", "P29_005": "山口県宇部市中村3-12-53", "P29_006": "4", "P29_007": "0", "P29_008": "00", "P29_009": null }, "geometry": { "type": "Point", "coordinates": [ 131.258719503528823, 33.963251599118834 ] } },
{ "type": "Feature", "properties": { "P29_001": "35203", "P29_002": "H135310000120", "P29_003": "16016", "P29_004": "ＹＩＣ情報ビジネス専門学校", "P29_005": "山口県山口市小郡黄金町2-24", "P29_006": "4", "P29_007": "0", "P29_008": "00", "P29_009": null }, "geometry": { "type": "Point", "coordinates": [ 131.397551557935856, 34.092141432769516 ] } },
{ "type": "Feature", "properties": { "P29_001": "35202", "P29_002": "H135310000139", "P29_003": "16016", "P29_004": "専門学校ＹＩＣリハビリテーション大学校", "P29_005": "山口県宇部市西宇部南4-11-1", "P29_006": "4", "P29_007": "0", "P29_008": "00", "P29_009": null }, "geometry": { "type": "Point", "coordinates": [ 131.218417231905079, 34.003883435584427 ] } },
{ "type": "Feature", "properties": { "P29_001": "35203", "P29_002": "H135310000148", "P29_003": "16016", "P29_004": "山口コアカレッジ", "P29_005": "山口県山口市富田原町2-23", "P29_006": "4", "P29_007": "0", "P29_008": "00", "P29_009": null }, "geometry": { "type": "Point", "coordinates": [ 131.46549368546539, 34.161760001628153 ] } },
{ "type": "Feature", "properties": { "P29_001": "35203", "P29_002": "H135310000157", "P29_003": "16016", "P29_004": "山口コ・メディカル学院", "P29_005": "山口県山口市富田原町2-24", "P29_006": "4", "P29_007": "0", "P29_008": "00", "P29_009": null }, "geometry": { "type": "Point", "coordinates": [ 131.465200355828784, 34.161479320254941 ] } },
{ "type": "Feature", "properties": { "P29_001": "35203", "P29_002": "H135310000166", "P29_003": "16016", "P29_004": "山口県高等歯科衛生士学院", "P29_005": "山口県山口市吉敷下東1-4-1", "P29_006": "4", "P29_007": "0", "P29_008": "00", "P29_009": null }, "geometry": { "type": "Point", "coordinates": [ 131.448773079077597, 34.165903763773997 ] } },
{ "type": "Feature", "properties": { "P29_001": "35203", "P29_002": "H135310000175", "P29_003": "16016", "P29_004": "ユーガーグルーミングスクール山口専修学校", "P29_005": "山口県山口市本町2-2-24", "P29_006": "4", "P29_007": "0", "P29_008": "00", "P29_009": null }, "geometry": { "type": "Point", "coordinates": [ 131.472994869874015, 34.172290727623107 ] } },
{ "type": "Feature", "properties": { "P29_001": "35203", "P29_002": "H135310000184", "P29_003": "16016", "P29_004": "専門学校公務員ゼミナール山口校", "P29_005": "山口県山口市緑町5-11", "P29_006": "4", "P29_007": "0", "P29_008": "00", "P29_009": null }, "geometry": { "type": "Point", "coordinates": [ 131.464585142331629, 34.169411411836663 ] } },
{ "type": "Feature", "properties": { "P29_001": "35215", "P29_002": "H135310000193", "P29_003": "16016", "P29_004": "萩高等専修学校", "P29_005": "山口県萩市大字椿東字北谷2190-8", "P29_006": "4", "P29_007": "0", "P29_008": "00", "P29_009": null }, "geometry": { "type": "Point", "coordinates": [ 131.817198591676998, 34.050463885047442 ] } },
{ "type": "Feature", "properties": { "P29_001": "35215", "P29_002": "H135310000200", "P29_003": "16016", "P29_004": "徳山看護専門学校", "P29_005": "山口県周南市慶万町10-1", "P29_006": "4", "P29_007": "0", "P29_008": "00", "P29_009": null }, "geometry": { "type": "Point", "coordinates": [ 131.815991460685382, 34.050278279391819 ] } },
{ "type": "Feature", "properties": { "P29_001": "35215", "P29_002": "H135310000228", "P29_003": "16016", "P29_004": "徳山総合ビジネス専門学校", "P29_005": "山口県周南市本町2-13", "P29_006": "4", "P29_007": "0", "P29_008": "00", "P29_009": null }, "geometry": { "type": "Point", "coordinates": [ 131.802088057271021, 34.054979088440959 ] } },
{ "type": "Feature", "properties": { "P29_001": "35203", "P29_002": "H135310000237", "P29_003": "16016", "P29_004": "ＹＩＣビューティモード専門学校", "P29_005": "山口県山口市小郡黄金町2-24", "P29_006": "4", "P29_007": "0", "P29_008": "00", "P29_009": null }, "geometry": { "type": "Point", "coordinates": [ 131.397580462681077, 34.092088138837894 ] } },
{ "type": "Feature", "properties": { "P29_001": "35206", "P29_002": "H135310000255", "P29_003": "16016", "P29_004": "防府看護専門学校", "P29_005": "山口県防府市三田尻1-3-1", "P29_006": "4", "P29_007": "0", "P29_008": "00", "P29_009": null }, "geometry": { "type": "Point", "coordinates": [ 131.573486486260975, 34.049346534230068 ] } },
{ "type": "Feature", "properties": { "P29_001": "35206", "P29_002": "H135310000264", "P29_003": "16016", "P29_004": "ＹＩＣ看護福祉専門学校", "P29_005": "山口県防府市中央町1-8", "P29_006": "4", "P29_007": "0", "P29_008": "00", "P29_009": null }, "geometry": { "type": "Point", "coordinates": [ 131.571803556793014, 34.052168014087677 ] } },
{ "type": "Feature", "properties": { "P29_001": "35203", "P29_002": "H135310000273", "P29_003": "16016", "P29_004": "山口ビジネス学院", "P29_005": "山口県山口市小郡新町5-5-1", "P29_006": "4", "P29_007": "0", "P29_008": "00", "P29_009": null }, "geometry": { "type": "Point", "coordinates": [ 131.401720723642569, 34.11576166787021 ] } },
{ "type": "Feature", "properties": { "P29_001": "35207", "P29_002": "H135310000282", "P29_003": "16016", "P29_004": "下松デンタルアカデミー専門学校", "P29_005": "山口県下松市東柳1-6-2", "P29_006": "4", "P29_007": "0", "P29_008": "00", "P29_009": null }, "geometry": { "type": "Point", "coordinates": [ 131.864793673598882, 34.012713103964323 ] } },
{ "type": "Feature", "properties": { "P29_001": "35208", "P29_002": "H135310000291", "P29_003": "16016", "P29_004": "岩国ＹＭＣＡ保健看護専門学校", "P29_005": "山口県岩国市麻里布町2-6-25", "P29_006": "4", "P29_007": "0", "P29_008": "00", "P29_009": null }, "geometry": { "type": "Point", "coordinates": [ 132.223167123905228, 34.170285068163402 ] } },
{ "type": "Feature", "properties": { "P29_001": "35208", "P29_002": "H135310000308", "P29_003": "16016", "P29_004": "国立病院機構岩国医療センター附属岩国看護学校", "P29_005": "山口県岩国市愛宕町1-3-1", "P29_006": "0", "P29_007": "0", "P29_008": "00", "P29_009": null }, "geometry": { "type": "Point", "coordinates": [ 132.202017969507409, 34.143008522392016 ] } },
{ "type": "Feature", "properties": { "P29_001": "35212", "P29_002": "H135310000317", "P29_003": "16016", "P29_004": "柳井音楽専門学校", "P29_005": "山口県柳井市大字柳井津507", "P29_006": "4", "P29_007": "0", "P29_008": "00", "P29_009": null }, "geometry": { "type": "Point", "coordinates": [ 132.106806984442471, 33.96922804240743 ] } },
{ "type": "Feature", "properties": { "P29_001": "35344", "P29_002": "H135310000326", "P29_003": "16016", "P29_004": "平生看護専門学校", "P29_005": "山口県熊毛郡平生町大字曽根字宮ノ前1376-2", "P29_006": "4", "P29_007": "0", "P29_008": "00", "P29_009": null }, "geometry": { "type": "Point", "coordinates": [ 132.073284416221099, 33.92218626977688 ] } },
{ "type": "Feature", "properties": { "P29_001": "35203", "P29_002": "H135310000335", "P29_003": "16016", "P29_004": "山口県理容美容専門学校", "P29_005": "山口県山口市小郡下郷2314-1", "P29_006": "4", "P29_007": "0", "P29_008": "00", "P29_009": null }, "geometry": { "type": "Point", "coordinates": [ 131.392016152813596, 34.093893327844754 ] } },
{ "type": "Feature", "properties": { "P29_001": "35203", "P29_002": "H135310000344", "P29_003": "16016", "P29_004": "北九州予備校山口校", "P29_005": "山口県山口市小郡御幸町1-39", "P29_006": "4", "P29_007": "0", "P29_008": "00", "P29_009": null }, "geometry": { "type": "Point", "coordinates": [ 131.395666774554144, 34.091897871926392 ] } },
{ "type": "Feature", "properties": { "P29_001": "35203", "P29_002": "H135310000353", "P29_003": "16016", "P29_004": "ＹＩＣ調理製菓専門学校", "P29_005": "山口県山口市小郡黄金町9-8", "P29_006": "4", "P29_007": "0", "P29_008": "00", "P29_009": null }, "geometry": { "type": "Point", "coordinates": [ 131.397444981875907, 34.090720697158979 ] } },
{ "type": "Feature", "properties": { "P29_001": "35203", "P29_002": "H135310000362", "P29_003": "16016", "P29_004": "ＹＩＣ公務員専門学校", "P29_005": "山口県山口市小郡黄金町2-24", "P29_006": "4", "P29_007": "0", "P29_008": "00", "P29_009": null }, "geometry": { "type": "Point", "coordinates": [ 131.39760722633406, 34.092044615460402 ] } },
{ "type": "Feature", "properties": { "P29_001": "35201", "P29_002": "H135310000371", "P29_003": "16016", "P29_004": "よしみず病院附属看護学院", "P29_005": "山口県下関市大坪本町44-20", "P29_006": "4", "P29_007": "0", "P29_008": "00", "P29_009": null }, "geometry": { "type": "Point", "coordinates": [ 130.920466202557634, 33.972790897788528 ] } },
{ "type": "Feature", "properties": { "P29_001": "35204", "P29_002": "H135310000380", "P29_003": "16016", "P29_004": "さくら国際言語教育学院", "P29_005": "山口県萩市大字椿東字大広津3000-10", "P29_006": "4", "P29_007": "0", "P29_008": "00", "P29_009": null }, "geometry": { "type": "Point", "coordinates": [ 131.40942752021428, 34.416423411488765 ] } },
{ "type": "Feature", "properties": { "P29_001": "35203", "P29_002": "H135310000406", "P29_003": "16016", "P29_004": "ネムハイスクール高等専修学校", "P29_005": "山口県山口市小郡高砂町3-4", "P29_006": "4", "P29_007": "0", "P29_008": "00", "P29_009": null }, "geometry": { "type": "Point", "coordinates": [ 131.39954414958828, 34.092332872051905 ] } },
{ "type": "Feature", "properties": { "P29_001": "35201", "P29_002": "H135310000415", "P29_003": "16016", "P29_004": "東亜大学附属下関看護専門学校", "P29_005": "山口県下関市一の宮学園町2-1", "P29_006": "4", "P29_007": "0", "P29_008": "00", "P29_009": null }, "geometry": { "type": "Point", "coordinates": [ 130.949263782982229, 34.000271784633753 ] } }
]
}
