{
"type": "FeatureCollection",
"name": "geo_35_各種学校",
"crs": { "type": "name", "properties": { "name": "urn:ogc:def:crs:EPSG::6668" } },
"features": [
{ "type": "Feature", "properties": { "P29_001": "35201", "P29_002": "H235310000012", "P29_003": "16015", "P29_004": "山口県下関自動車学校", "P29_005": "山口県下関市後田町4-16-1", "P29_006": "4", "P29_007": "0", "P29_008": "00", "P29_009": null }, "geometry": { "type": "Point", "coordinates": [ 130.927178040836566, 33.970293166196733 ] } },
{ "type": "Feature", "properties": { "P29_001": "35201", "P29_002": "H235310000021", "P29_003": "16015", "P29_004": "山陽自動車学校", "P29_005": "山口県下関市長府高場町1-1", "P29_006": "4", "P29_007": "0", "P29_008": "00", "P29_009": null }, "geometry": { "type": "Point", "coordinates": [ 130.974712821563486, 33.978542727989563 ] } },
{ "type": "Feature", "properties": { "P29_001": "35201", "P29_002": "H235310000030", "P29_003": "16015", "P29_004": "下関西南ドレスメーカー女学院", "P29_005": "山口県下関市彦島本村町7-5-19", "P29_006": "4", "P29_007": "0", "P29_008": "00", "P29_009": null }, "geometry": { "type": "Point", "coordinates": [ 130.91225999814003, 33.937929999845949 ] } },
{ "type": "Feature", "properties": { "P29_001": "35201", "P29_002": "H235310000049", "P29_003": "16015", "P29_004": "山口朝鮮初中級学校", "P29_005": "山口県下関市神田町2-8-1", "P29_006": "4", "P29_007": "0", "P29_008": "00", "P29_009": null }, "geometry": { "type": "Point", "coordinates": [ 130.926148558550125, 33.962866392862793 ] } },
{ "type": "Feature", "properties": { "P29_001": "35201", "P29_002": "H235310000058", "P29_003": "16015", "P29_004": "早鞆自動車学校", "P29_005": "山口県下関市安岡本町3-20-1", "P29_006": "4", "P29_007": "0", "P29_008": "00", "P29_009": null }, "geometry": { "type": "Point", "coordinates": [ 130.90637409919907, 34.027474423343953 ] } },
{ "type": "Feature", "properties": { "P29_001": "35201", "P29_002": "H235310000067", "P29_003": "16015", "P29_004": "下関文化服装学院", "P29_005": "山口県下関市大和町1-2-8", "P29_006": "4", "P29_007": "0", "P29_008": "00", "P29_009": null }, "geometry": { "type": "Point", "coordinates": [ 130.920883913095821, 33.949830820124639 ] } },
{ "type": "Feature", "properties": { "P29_001": "35202", "P29_002": "H235310000076", "P29_003": "16015", "P29_004": "宇部中央自動車学校", "P29_005": "山口県宇部市西琴芝1-8-31", "P29_006": "4", "P29_007": "0", "P29_008": "00", "P29_009": null }, "geometry": { "type": "Point", "coordinates": [ 131.25396293506077, 33.958379504519755 ] } },
{ "type": "Feature", "properties": { "P29_001": "35202", "P29_002": "H235310000094", "P29_003": "16015", "P29_004": "山口県宇部自動車学校", "P29_005": "山口県宇部市大字沖宇部1", "P29_006": "4", "P29_007": "0", "P29_008": "00", "P29_009": null }, "geometry": { "type": "Point", "coordinates": [ 131.291159474230852, 33.957133372495711 ] } },
{ "type": "Feature", "properties": { "P29_001": "35202", "P29_002": "H235310000101", "P29_003": "16015", "P29_004": "西日本自動車学校", "P29_005": "山口県宇部市大字妻崎開作934-1", "P29_006": "4", "P29_007": "0", "P29_008": "00", "P29_009": null }, "geometry": { "type": "Point", "coordinates": [ 131.209700642477657, 33.976006316570093 ] } },
{ "type": "Feature", "properties": { "P29_001": "35202", "P29_002": "H235310000110", "P29_003": "16015", "P29_004": "宇部文化洋裁学院", "P29_005": "山口県宇部市琴芝町1-495-3", "P29_006": "4", "P29_007": "0", "P29_008": "00", "P29_009": null }, "geometry": { "type": "Point", "coordinates": [ 131.266854156907669, 33.932799664182419 ] } },
{ "type": "Feature", "properties": { "P29_001": "35203", "P29_002": "H235310000138", "P29_003": "16015", "P29_004": "山口県湯田自動車学校", "P29_005": "山口県山口市葵2-4-55", "P29_006": "4", "P29_007": "0", "P29_008": "00", "P29_009": null }, "geometry": { "type": "Point", "coordinates": [ 131.452859925348065, 34.164200813056347 ] } },
{ "type": "Feature", "properties": { "P29_001": "35203", "P29_002": "H235310000147", "P29_003": "16015", "P29_004": "山口そうごう自動車学校", "P29_005": "山口県山口市大内千坊6-8-10", "P29_006": "4", "P29_007": "0", "P29_008": "00", "P29_009": null }, "geometry": { "type": "Point", "coordinates": [ 131.493411536551889, 34.159417994039643 ] } },
{ "type": "Feature", "properties": { "P29_001": "35204", "P29_002": "H235310000156", "P29_003": "16015", "P29_004": "山口県萩自動車学校", "P29_005": "山口県萩市大字江向46-1", "P29_006": "4", "P29_007": "0", "P29_008": "00", "P29_009": null }, "geometry": { "type": "Point", "coordinates": [ 131.398101305107474, 34.403202297331845 ] } },
{ "type": "Feature", "properties": { "P29_001": "35204", "P29_002": "H235310000165", "P29_003": "16015", "P29_004": "萩准看護学院", "P29_005": "山口県萩市大字平安古町209-1", "P29_006": "4", "P29_007": "0", "P29_008": "00", "P29_009": null }, "geometry": { "type": "Point", "coordinates": [ 131.389380970398605, 34.40531845238813 ] } },
{ "type": "Feature", "properties": { "P29_001": "35215", "P29_002": "H235310000174", "P29_003": "16015", "P29_004": "山口県周南自動車学校", "P29_005": "山口県周南市大字栗屋字双葉屋開作1041-2", "P29_006": "4", "P29_007": "0", "P29_008": "00", "P29_009": null }, "geometry": { "type": "Point", "coordinates": [ 131.833894988626383, 34.012547268876752 ] } },
{ "type": "Feature", "properties": { "P29_001": "35206", "P29_002": "H235310000183", "P29_003": "16015", "P29_004": "中尾文化服装学院", "P29_005": "山口県防府市佐波2-10-8", "P29_006": "4", "P29_007": "0", "P29_008": "00", "P29_009": null }, "geometry": { "type": "Point", "coordinates": [ 131.563366413965326, 34.056056471314712 ] } },
{ "type": "Feature", "properties": { "P29_001": "35206", "P29_002": "H235310000192", "P29_003": "16015", "P29_004": "山口県高等自動車学校", "P29_005": "山口県防府市大字浜方58", "P29_006": "4", "P29_007": "0", "P29_008": "00", "P29_009": null }, "geometry": { "type": "Point", "coordinates": [ 131.569039854028915, 34.025600262550803 ] } },
{ "type": "Feature", "properties": { "P29_001": "35207", "P29_002": "H235310000209", "P29_003": "16015", "P29_004": "周南和裁服装学院", "P29_005": "山口県下松市潮音町6-19-18", "P29_006": "4", "P29_007": "0", "P29_008": "00", "P29_009": null }, "geometry": { "type": "Point", "coordinates": [ 131.848084551813656, 34.018819222233901 ] } },
{ "type": "Feature", "properties": { "P29_001": "35208", "P29_002": "H235310000218", "P29_003": "16015", "P29_004": "岩国自動車学校", "P29_005": "山口県岩国市錦見7-1-40", "P29_006": "4", "P29_007": "0", "P29_008": "00", "P29_009": null }, "geometry": { "type": "Point", "coordinates": [ 132.184430653708347, 34.160236964604834 ] } },
{ "type": "Feature", "properties": { "P29_001": "35208", "P29_002": "H235310000227", "P29_003": "16015", "P29_004": "岩国国際タイピスト学院", "P29_005": "山口県岩国市中津町2-13-4", "P29_006": "4", "P29_007": "0", "P29_008": "00", "P29_009": null }, "geometry": { "type": "Point", "coordinates": [ 132.217281415758919, 34.155396361807099 ] } },
{ "type": "Feature", "properties": { "P29_001": "35210", "P29_002": "H235310000236", "P29_003": "16015", "P29_004": "尾野本洋裁専門学院", "P29_005": "山口県光市中央町5-5-18", "P29_006": "4", "P29_007": "0", "P29_008": "00", "P29_009": null }, "geometry": { "type": "Point", "coordinates": [ 131.939926512670752, 33.964711275101486 ] } },
{ "type": "Feature", "properties": { "P29_001": "35210", "P29_002": "H235310000245", "P29_003": "16015", "P29_004": "山口県光自動車学校", "P29_005": "山口県光市大字立野843", "P29_006": "4", "P29_007": "0", "P29_008": "00", "P29_009": null }, "geometry": { "type": "Point", "coordinates": [ 131.971100525402505, 33.999374717728628 ] } },
{ "type": "Feature", "properties": { "P29_001": "35212", "P29_002": "H235310000254", "P29_003": "16015", "P29_004": "山口県柳井自動車学校", "P29_005": "山口県柳井市柳井1697-2", "P29_006": "4", "P29_007": "0", "P29_008": "00", "P29_009": null }, "geometry": { "type": "Point", "coordinates": [ 132.121404337710089, 33.961389906061235 ] } },
{ "type": "Feature", "properties": { "P29_001": "35212", "P29_002": "H235310000272", "P29_003": "16015", "P29_004": "窪田和裁專門学院", "P29_005": "山口県柳井市古市3729-22", "P29_006": "4", "P29_007": "0", "P29_008": "00", "P29_009": null }, "geometry": { "type": "Point", "coordinates": [ 132.107112892301103, 33.970510574690429 ] } },
{ "type": "Feature", "properties": { "P29_001": "35211", "P29_002": "H235310000281", "P29_003": "16015", "P29_004": "長門自動車学校", "P29_005": "山口県長門市東深川1188-17", "P29_006": "4", "P29_007": "0", "P29_008": "00", "P29_009": null }, "geometry": { "type": "Point", "coordinates": [ 131.176906877989182, 34.373222350853659 ] } },
{ "type": "Feature", "properties": { "P29_001": "35305", "P29_002": "H235310000290", "P29_003": "16015", "P29_004": "大島自動車学校", "P29_005": "山口県大島郡周防大島町大字久賀1007", "P29_006": "4", "P29_007": "0", "P29_008": "00", "P29_009": null }, "geometry": { "type": "Point", "coordinates": [ 132.271631349227391, 33.946883071338242 ] } },
{ "type": "Feature", "properties": { "P29_001": "35208", "P29_002": "H235310000307", "P29_003": "16015", "P29_004": "高森文化服装学院", "P29_005": "山口県岩国市周東町下久原1639-1", "P29_006": "4", "P29_007": "0", "P29_008": "00", "P29_009": null }, "geometry": { "type": "Point", "coordinates": [ 132.049683218748896, 34.09150398694981 ] } },
{ "type": "Feature", "properties": { "P29_001": "35208", "P29_002": "H235310000316", "P29_003": "16015", "P29_004": "山口県玖西自動車学校", "P29_005": "山口県岩国市周東町上久原11-2", "P29_006": "4", "P29_007": "0", "P29_008": "00", "P29_009": null }, "geometry": { "type": "Point", "coordinates": [ 132.077076530286945, 34.074689876915031 ] } },
{ "type": "Feature", "properties": { "P29_001": "35203", "P29_002": "H235310000325", "P29_003": "16015", "P29_004": "山口県小郡自動車学校", "P29_005": "山口県山口市小郡下郷768", "P29_006": "4", "P29_007": "0", "P29_008": "00", "P29_009": null }, "geometry": { "type": "Point", "coordinates": [ 131.395394657758374, 34.10130642170968 ] } },
{ "type": "Feature", "properties": { "P29_001": "35203", "P29_002": "H235310000334", "P29_003": "16015", "P29_004": "吉南准看護学院", "P29_005": "山口県山口市小郡下郷799", "P29_006": "4", "P29_007": "0", "P29_008": "00", "P29_009": null }, "geometry": { "type": "Point", "coordinates": [ 131.393816721881365, 34.104085871392158 ] } },
{ "type": "Feature", "properties": { "P29_001": "35203", "P29_002": "H235310000343", "P29_003": "16015", "P29_004": "山口公務員学校", "P29_005": "山口県山口市小郡下郷1647-7-1", "P29_006": "4", "P29_007": "0", "P29_008": "00", "P29_009": null }, "geometry": { "type": "Point", "coordinates": [ 131.40188999514794, 34.097979997547 ] } },
{ "type": "Feature", "properties": { "P29_001": "35216", "P29_002": "H235310000352", "P29_003": "16015", "P29_004": "山口県厚狭自動車学校", "P29_005": "山口県山陽小野田市大字鴨庄69-1", "P29_006": "4", "P29_007": "0", "P29_008": "00", "P29_009": null }, "geometry": { "type": "Point", "coordinates": [ 131.158099035404121, 34.057313758954869 ] } },
{ "type": "Feature", "properties": { "P29_001": "35201", "P29_002": "H235310000370", "P29_003": "16015", "P29_004": "アイルモータースクール下関", "P29_005": "山口県下関市菊川町大字吉賀1588", "P29_006": "4", "P29_007": "0", "P29_008": "00", "P29_009": null }, "geometry": { "type": "Point", "coordinates": [ 131.027385506661545, 34.125996332625988 ] } },
{ "type": "Feature", "properties": { "P29_001": "35201", "P29_002": "H235310000389", "P29_003": "16015", "P29_004": "西日本和裁学院", "P29_005": "山口県下関市大和町1-2-8", "P29_006": "4", "P29_007": "0", "P29_008": "00", "P29_009": null }, "geometry": { "type": "Point", "coordinates": [ 130.920998521924957, 33.950049170304723 ] } },
{ "type": "Feature", "properties": { "P29_001": "35201", "P29_002": "H235310000398", "P29_003": "16015", "P29_004": "下関明倫学園", "P29_005": "山口県下関市大字大坪1175", "P29_006": "4", "P29_007": "0", "P29_008": "00", "P29_009": null }, "geometry": { "type": "Point", "coordinates": [ 130.921811121881632, 33.972574902189187 ] } },
{ "type": "Feature", "properties": { "P29_001": "35216", "P29_002": "H235310000405", "P29_003": "16015", "P29_004": "高千穂ドレスメーカー女学院", "P29_005": "山口県山陽小野田市", "P29_006": "4", "P29_007": "0", "P29_008": "00", "P29_009": null }, "geometry": { "type": "Point", "coordinates": [ 131.18204888970152, 34.002547226325063 ] } },
{ "type": "Feature", "properties": { "P29_001": "35206", "P29_002": "H235310000414", "P29_003": "16015", "P29_004": "公務員戦略学校", "P29_005": "山口県防府市駅南町7-37", "P29_006": "4", "P29_007": "0", "P29_008": "00", "P29_009": null }, "geometry": { "type": "Point", "coordinates": [ 131.56426169866296, 34.051812964918682 ] } }
]
}
