{
"type": "FeatureCollection",
"name": "geo_35_訪問入浴介護",
"crs": { "type": "name", "properties": { "name": "urn:ogc:def:crs:OGC:1.3:CRS84" } },
"features": [
{ "type": "Feature", "properties": { "内容": "アサヒサンクリーン在宅介護センター下関【訪問入浴介護】下関市石原71番地6石原テナント", "url": "https://www.kaigokensaku.mhlw.go.jp/35/index.php?action_kouhyou_detail_004_kani=true&JigyosyoCd=3570104004-00&ServiceCd=120&Type=search", "url2": "https://www.asahi-sun-clean.co.jp/" }, "geometry": { "type": "Point", "coordinates": [ 130.9530282, 34.0160394 ] } },
{ "type": "Feature", "properties": { "内容": "下関市社協　豊浦訪問入浴介護事業所【訪問入浴介護】下関市豊浦町大字川棚6895番地1", "url": "https://www.kaigokensaku.mhlw.go.jp/35/index.php?action_kouhyou_detail_004_kani=true&JigyosyoCd=3570102107-00&ServiceCd=120&Type=search", "url2": "https://www.shimonoshakyo.or.jp" }, "geometry": { "type": "Point", "coordinates": [ 130.923725026475495, 34.145605331170792 ] } },
{ "type": "Feature", "properties": { "内容": "アースサポート山口【訪問入浴介護】山口県山口市駅通り1丁目3番16号", "url": "https://www.kaigokensaku.mhlw.go.jp/35/index.php?action_kouhyou_detail_004_kani=true&JigyosyoCd=3570301733-00&ServiceCd=120&Type=search", "url2": "http://www.earthsupport.co.jp" }, "geometry": { "type": "Point", "coordinates": [ 131.479104199999938, 34.1720745 ] } },
{ "type": "Feature", "properties": { "内容": "アサヒサンクリーン在宅介護センター山口【訪問入浴介護】山口県山口市小郡大正町9番１号津田貸事務所1階", "url": "https://www.kaigokensaku.mhlw.go.jp/35/index.php?action_kouhyou_detail_004_kani=true&JigyosyoCd=3570303507-00&ServiceCd=120&Type=search", "url2": "http://www/asahi-sun-clean.co.jp" }, "geometry": { "type": "Point", "coordinates": [ 131.399602267666353, 34.098063285069848 ] } },
{ "type": "Feature", "properties": { "内容": "ツクイ山口【訪問入浴介護】山口県山口市大内御堀6丁目2番5号", "url": "https://www.kaigokensaku.mhlw.go.jp/35/index.php?action_kouhyou_detail_004_kani=true&JigyosyoCd=3570303622-00&ServiceCd=120&Type=search", "url2": "https://www.tsukui.net/" }, "geometry": { "type": "Point", "coordinates": [ 131.4856727, 34.1650776 ] } },
{ "type": "Feature", "properties": { "内容": "萩社協訪問入浴介護事業所【訪問入浴介護】山口県萩市大字江向510番地萩市総合福祉センター2階　５番窓口", "url": "https://www.kaigokensaku.mhlw.go.jp/35/index.php?action_kouhyou_detail_004_kani=true&JigyosyoCd=3570400352-00&ServiceCd=120&Type=search", "url2": null }, "geometry": { "type": "Point", "coordinates": [ 131.399514860188305, 34.40832986512121 ] } },
{ "type": "Feature", "properties": { "内容": "ニチイケアセンター周防【訪問入浴介護】防府市三田尻３丁目6-35", "url": "https://www.kaigokensaku.mhlw.go.jp/35/index.php?action_kouhyou_detail_004_kani=true&JigyosyoCd=3570600506-00&ServiceCd=120&Type=search", "url2": "http://www.nichiigakkan.co.jp" }, "geometry": { "type": "Point", "coordinates": [ 131.5774917, 34.0441527 ] } },
{ "type": "Feature", "properties": { "内容": "ニチイケアセンター下松【訪問入浴介護】下松市せせらぎ町1丁目2-31", "url": "https://www.kaigokensaku.mhlw.go.jp/35/index.php?action_kouhyou_detail_004_kani=true&JigyosyoCd=3570700454-00&ServiceCd=120&Type=search", "url2": "http://www.nichiigakkan.co.jp" }, "geometry": { "type": "Point", "coordinates": [ 131.860723499999949, 34.0162379 ] } },
{ "type": "Feature", "properties": { "内容": "ニチイケアセンタ－岩国【訪問入浴介護】岩国市川西３－５－４０", "url": "https://www.kaigokensaku.mhlw.go.jp/35/index.php?action_kouhyou_detail_004_kani=true&JigyosyoCd=3570800593-00&ServiceCd=120&Type=search", "url2": "http://www.hstg26@nichiigakkan.co.jp" }, "geometry": { "type": "Point", "coordinates": [ 132.176043134551946, 34.156003186422751 ] } },
{ "type": "Feature", "properties": { "内容": "アースサポート岩国【訪問入浴介護】山口県岩国市南岩国町3丁目13番34号", "url": "https://www.kaigokensaku.mhlw.go.jp/35/index.php?action_kouhyou_detail_004_kani=true&JigyosyoCd=3570801658-00&ServiceCd=120&Type=search", "url2": "http://www.earthsupport.co.jp" }, "geometry": { "type": "Point", "coordinates": [ 132.198915032785408, 34.129363260360527 ] } },
{ "type": "Feature", "properties": { "内容": "訪問入浴しあわせ長門【訪問入浴介護】山口県長門市東深川1321番地1", "url": "https://www.kaigokensaku.mhlw.go.jp/35/index.php?action_kouhyou_detail_004_kani=true&JigyosyoCd=3571100258-00&ServiceCd=120&Type=search", "url2": "http://www.nagatoshakyo.jp" }, "geometry": { "type": "Point", "coordinates": [ 131.181238403257453, 34.370984660005831 ] } },
{ "type": "Feature", "properties": { "内容": "アサヒサンクリーン在宅介護センター周南【訪問入浴介護】山口県周南市野上町２－８", "url": "https://www.kaigokensaku.mhlw.go.jp/35/index.php?action_kouhyou_detail_004_kani=true&JigyosyoCd=3571502008-00&ServiceCd=120&Type=search", "url2": "https://www.asahi-sun-clean.co.jp/" }, "geometry": { "type": "Point", "coordinates": [ 131.800874196924184, 34.056860078107192 ] } }
]
}
