{
"type": "FeatureCollection",
"name": "geo_35_特定施設入居者生活介護（有料老人ホーム）",
"crs": { "type": "name", "properties": { "name": "urn:ogc:def:crs:OGC:1.3:CRS84" } },
"features": [
{ "type": "Feature", "properties": { "内容": "有料老人ホーム夢沓舎【特定施設入居者生活介護（有料老人ホーム）】山口県下関市新垢田西町2丁目2番22号", "url": "https://www.kaigokensaku.mhlw.go.jp/35/index.php?action_kouhyou_detail_004_kani=true&JigyosyoCd=3570100986-00&ServiceCd=331&Type=search", "url2": "http://shoujuen.jp/" }, "geometry": { "type": "Point", "coordinates": [ 130.9134917, 33.9854333 ] } },
{ "type": "Feature", "properties": { "内容": "有料老人ホーム昇陽館【特定施設入居者生活介護（有料老人ホーム）】下関市長府黒門南町6-54昇陽館", "url": "https://www.kaigokensaku.mhlw.go.jp/35/index.php?action_kouhyou_detail_004_kani=true&JigyosyoCd=3570101141-00&ServiceCd=331&Type=search", "url2": "http:/www.shinsetsu.net/" }, "geometry": { "type": "Point", "coordinates": [ 130.985936949877356, 33.984396455097325 ] } },
{ "type": "Feature", "properties": { "内容": "介護付有料老人ホーム　ヴィラジオ武久【特定施設入居者生活介護（有料老人ホーム）】山口県下関市武久町2丁目37番24号介護付有料老人ホーム　ヴィラジオ武久", "url": "https://www.kaigokensaku.mhlw.go.jp/35/index.php?action_kouhyou_detail_004_kani=true&JigyosyoCd=3570105654-00&ServiceCd=331&Type=search", "url2": "http://www.villaggio.jp/" }, "geometry": { "type": "Point", "coordinates": [ 130.918721799999958, 33.9780108 ] } },
{ "type": "Feature", "properties": { "内容": "有料老人ホーム　宇部西あかり苑【特定施設入居者生活介護（有料老人ホーム）】宇部市大字際波399-2", "url": "https://www.kaigokensaku.mhlw.go.jp/35/index.php?action_kouhyou_detail_004_kani=true&JigyosyoCd=3570201115-00&ServiceCd=331&Type=search", "url2": "http://www.hakuaikai-yamaguchi.jp/" }, "geometry": { "type": "Point", "coordinates": [ 131.224333, 33.9955425 ] } },
{ "type": "Feature", "properties": { "内容": "際波あかり苑【特定施設入居者生活介護（有料老人ホーム）】宇部市大字際波３９９番地3", "url": "https://www.kaigokensaku.mhlw.go.jp/35/index.php?action_kouhyou_detail_004_kani=true&JigyosyoCd=3570202535-00&ServiceCd=331&Type=search", "url2": null }, "geometry": { "type": "Point", "coordinates": [ 131.224494100000015, 33.9958647 ] } },
{ "type": "Feature", "properties": { "内容": "オアシス　ことしば【特定施設入居者生活介護（有料老人ホーム）】宇部市寿町三丁目２－５", "url": "https://www.kaigokensaku.mhlw.go.jp/35/index.php?action_kouhyou_detail_004_kani=true&JigyosyoCd=3570200976-00&ServiceCd=331&Type=search", "url2": "www.jinsinkai.or.jp" }, "geometry": { "type": "Point", "coordinates": [ 131.253482599999984, 33.9514672 ] } },
{ "type": "Feature", "properties": { "内容": "有料老人ホーム山口あかり苑【特定施設入居者生活介護（有料老人ホーム）】山口県山口市黒川３０９７番地", "url": "https://www.kaigokensaku.mhlw.go.jp/35/index.php?action_kouhyou_detail_004_kani=true&JigyosyoCd=3570300859-00&ServiceCd=331&Type=search", "url2": "http://www.hakuaikai-vamaguchi.jp/" }, "geometry": { "type": "Point", "coordinates": [ 131.439279490706582, 34.131412189196475 ] } },
{ "type": "Feature", "properties": { "内容": "Ｇｒａｃｅｆｕｌともの園【特定施設入居者生活介護（有料老人ホーム）】山口市朝田長通５１０－１", "url": "https://www.kaigokensaku.mhlw.go.jp/35/index.php?action_kouhyou_detail_004_kani=true&JigyosyoCd=3570301949-00&ServiceCd=331&Type=search", "url2": "http：www.f-doho.com" }, "geometry": { "type": "Point", "coordinates": [ 131.436100871939061, 34.150887515190909 ] } },
{ "type": "Feature", "properties": { "内容": "介護付有料老人ホーム共済苑【特定施設入居者生活介護（有料老人ホーム）】山口県山口市湯田温泉５丁目５番１号", "url": "https://www.kaigokensaku.mhlw.go.jp/35/index.php?action_kouhyou_detail_004_kani=true&JigyosyoCd=3570303630-00&ServiceCd=331&Type=search", "url2": "http://www.kyousaien.com" }, "geometry": { "type": "Point", "coordinates": [ 131.4575107, 34.1687435 ] } },
{ "type": "Feature", "properties": { "内容": "のんびり村　花岡【特定施設入居者生活介護（有料老人ホーム）】下松市末武上久保田1800-1", "url": "https://www.kaigokensaku.mhlw.go.jp/35/index.php?action_kouhyou_detail_004_kani=true&JigyosyoCd=3570700876-00&ServiceCd=331&Type=search", "url2": "http://www.homecare-yamaguchi.co.jp/" }, "geometry": { "type": "Point", "coordinates": [ 131.870641400000068, 34.0371418 ] } },
{ "type": "Feature", "properties": { "内容": "あいらの杜・新岩国駅前【特定施設入居者生活介護（有料老人ホーム）】山口県岩国市御庄３丁目１１４番２号", "url": "https://www.kaigokensaku.mhlw.go.jp/35/index.php?action_kouhyou_detail_004_kani=true&JigyosyoCd=3570801427-00&ServiceCd=331&Type=search", "url2": "http://www.hale.co.jp" }, "geometry": { "type": "Point", "coordinates": [ 132.154961100000037, 34.170524 ] } },
{ "type": "Feature", "properties": { "内容": "有料老人ホーム　せんぞく苑【特定施設入居者生活介護（有料老人ホーム）】岩国市周東町下久原443番地6", "url": "https://www.kaigokensaku.mhlw.go.jp/35/index.php?action_kouhyou_detail_004_kani=true&JigyosyoCd=3570801583-00&ServiceCd=331&Type=search", "url2": "http://www.takamori-fukusikai.hello-net.info/" }, "geometry": { "type": "Point", "coordinates": [ 132.061834299999987, 34.0898539 ] } },
{ "type": "Feature", "properties": { "内容": "有料老人ホーム　秀東館　泉【特定施設入居者生活介護（有料老人ホーム）】山口県岩国市周東町用田342-3", "url": "https://www.kaigokensaku.mhlw.go.jp/35/index.php?action_kouhyou_detail_004_kani=true&JigyosyoCd=3577200508-00&ServiceCd=331&Type=search", "url2": "http://www.shutokan.com" }, "geometry": { "type": "Point", "coordinates": [ 132.049067919049122, 34.08329683691889 ] } },
{ "type": "Feature", "properties": { "内容": "クローバーハウス【特定施設入居者生活介護（有料老人ホーム）】山口県岩国市川下町2丁目9番31号", "url": "https://www.kaigokensaku.mhlw.go.jp/35/index.php?action_kouhyou_detail_004_kani=true&JigyosyoCd=3570800817-00&ServiceCd=331&Type=search", "url2": "http://www.clover-h.jp/" }, "geometry": { "type": "Point", "coordinates": [ 132.221258900000066, 34.1582737 ] } },
{ "type": "Feature", "properties": { "内容": "介護付有料老人ホーム　ティエラ【特定施設入居者生活介護（有料老人ホーム）】岩国市多田三丁目１０４－２", "url": "https://www.kaigokensaku.mhlw.go.jp/35/index.php?action_kouhyou_detail_004_kani=true&JigyosyoCd=3570801195-00&ServiceCd=331&Type=search", "url2": "http://ww7.enjoy.ne.jp/^tierra/index.html" }, "geometry": { "type": "Point", "coordinates": [ 132.168837584462892, 34.180948382960104 ] } },
{ "type": "Feature", "properties": { "内容": "ケアホーム　ディア・レスト岩国【特定施設入居者生活介護（有料老人ホーム）】山口県岩国市平田5丁目27-43", "url": "https://www.kaigokensaku.mhlw.go.jp/35/index.php?action_kouhyou_detail_004_kani=true&JigyosyoCd=3570801344-00&ServiceCd=331&Type=search", "url2": "https://dearrest-iw.net/" }, "geometry": { "type": "Point", "coordinates": [ 132.190533700000088, 34.1416341 ] } },
{ "type": "Feature", "properties": { "内容": "マリンホーム　一楽【特定施設入居者生活介護（有料老人ホーム）】山口県柳井市伊保庄字黒島3500番地１", "url": "https://www.kaigokensaku.mhlw.go.jp/35/index.php?action_kouhyou_detail_004_kani=true&JigyosyoCd=3571200629-00&ServiceCd=331&Type=search", "url2": "//www/1raku.jp/" }, "geometry": { "type": "Point", "coordinates": [ 132.125375800000029, 33.9405172 ] } },
{ "type": "Feature", "properties": { "内容": "グレースフルめぐみの園【特定施設入居者生活介護（有料老人ホーム）】山口県美祢市於福上4378-13番地", "url": "https://www.kaigokensaku.mhlw.go.jp/35/index.php?action_kouhyou_detail_004_kani=true&JigyosyoCd=3571300361-00&ServiceCd=331&Type=search", "url2": "http://www.f-doho.com" }, "geometry": { "type": "Point", "coordinates": [ 131.2063603, 34.236151 ] } },
{ "type": "Feature", "properties": { "内容": "ニチイケアセンター周南久米　きらめき【特定施設入居者生活介護（有料老人ホーム）】周南市大字久米2677-1", "url": "https://www.kaigokensaku.mhlw.go.jp/35/index.php?action_kouhyou_detail_004_kani=true&JigyosyoCd=3571500630-00&ServiceCd=331&Type=search", "url2": "http://www.nichiigakkan.co.jp/" }, "geometry": { "type": "Point", "coordinates": [ 131.847910100000036, 34.0448377 ] } }
]
}
