{
"type": "FeatureCollection",
"name": "geo_35_特定施設入居者生活介護（軽費老人ホーム）",
"crs": { "type": "name", "properties": { "name": "urn:ogc:def:crs:OGC:1.3:CRS84" } },
"features": [
{ "type": "Feature", "properties": { "内容": "ケアハウスあおば苑【特定施設入居者生活介護（軽費老人ホーム）】山口県宇部市大字東須恵字大浴320-1", "url": "https://www.kaigokensaku.mhlw.go.jp/35/index.php?action_kouhyou_detail_004_kani=true&JigyosyoCd=3570200695-00&ServiceCd=332&Type=search", "url2": "http://www.mubekouei.com" }, "geometry": { "type": "Point", "coordinates": [ 131.209417700000017, 33.9918928 ] } },
{ "type": "Feature", "properties": { "内容": "ケアハウスつばき【特定施設入居者生活介護（軽費老人ホーム）】山口県萩市大字椿2398番地の1福祉複合施設つばき", "url": "https://www.kaigokensaku.mhlw.go.jp/35/index.php?action_kouhyou_detail_004_kani=true&JigyosyoCd=3570400667-00&ServiceCd=332&Type=search", "url2": "http://hagi-kagayaki.or.jp/" }, "geometry": { "type": "Point", "coordinates": [ 131.403301899999974, 34.3941948 ] } },
{ "type": "Feature", "properties": { "内容": "ケアハウス　あいおい苑【特定施設入居者生活介護（軽費老人ホーム）】山口県防府市大字佐野１５２番地の１", "url": "https://www.kaigokensaku.mhlw.go.jp/35/index.php?action_kouhyou_detail_004_kani=true&JigyosyoCd=3570600845-00&ServiceCd=332&Type=search", "url2": "http://hitotunokai.jp/" }, "geometry": { "type": "Point", "coordinates": [ 131.529056699999956, 34.0574838 ] } },
{ "type": "Feature", "properties": { "内容": "特定施設　グランてらす下松中央【特定施設入居者生活介護（軽費老人ホーム）】山口県下松市古川町３丁目１－２", "url": "https://www.kaigokensaku.mhlw.go.jp/35/index.php?action_kouhyou_detail_004_kani=true&JigyosyoCd=3570701213-00&ServiceCd=332&Type=search", "url2": "http://ryokuzankai.jp/index.html" }, "geometry": { "type": "Point", "coordinates": [ 131.8721823, 34.0076045 ] } },
{ "type": "Feature", "properties": { "内容": "ケアハウス山口エルベ【特定施設入居者生活介護（軽費老人ホーム）】山口県岩国市玖珂町6978-1", "url": "https://www.kaigokensaku.mhlw.go.jp/35/index.php?action_kouhyou_detail_004_kani=true&JigyosyoCd=3577200672-00&ServiceCd=332&Type=search", "url2": "yamaguchi.care-house.jp" }, "geometry": { "type": "Point", "coordinates": [ 132.060017099999982, 34.1027246 ] } },
{ "type": "Feature", "properties": { "内容": "ケアハウス　つづの里【特定施設入居者生活介護（軽費老人ホーム）】岩国市通津字迫田11117番地297", "url": "https://www.kaigokensaku.mhlw.go.jp/35/index.php?action_kouhyou_detail_004_kani=true&JigyosyoCd=3570801302-00&ServiceCd=332&Type=search", "url2": "http://www.tudunanwakai.jp" }, "geometry": { "type": "Point", "coordinates": [ 132.203468353206745, 34.08026450428742 ] } },
{ "type": "Feature", "properties": { "内容": "ケアハウス　秀東館【特定施設入居者生活介護（軽費老人ホーム）】山口県岩国市周東町用田342-6", "url": "https://www.kaigokensaku.mhlw.go.jp/35/index.php?action_kouhyou_detail_004_kani=true&JigyosyoCd=3570801203-00&ServiceCd=332&Type=search", "url2": "http://www.shutokan.com" }, "geometry": { "type": "Point", "coordinates": [ 132.048923079762318, 34.083585627420049 ] } },
{ "type": "Feature", "properties": { "内容": "ケアハウス　ひかり苑【特定施設入居者生活介護（軽費老人ホーム）】山口県光市大字三井１０４６番１", "url": "https://www.kaigokensaku.mhlw.go.jp/35/index.php?action_kouhyou_detail_004_kani=true&JigyosyoCd=3571000557-00&ServiceCd=332&Type=search", "url2": "http://hikari-en.jp/" }, "geometry": { "type": "Point", "coordinates": [ 131.950916099999972, 33.9927152 ] } },
{ "type": "Feature", "properties": { "内容": "ケアハウス　和光苑【特定施設入居者生活介護（軽費老人ホーム）】山口県光市大字立野字花ノ木８２６", "url": "https://www.kaigokensaku.mhlw.go.jp/35/index.php?action_kouhyou_detail_004_kani=true&JigyosyoCd=3571000433-00&ServiceCd=332&Type=search", "url2": "https://wakouen-hikari.jp" }, "geometry": { "type": "Point", "coordinates": [ 131.972564, 33.9976153 ] } },
{ "type": "Feature", "properties": { "内容": "ケアハウスゆうわ苑【特定施設入居者生活介護（軽費老人ホーム）】柳井市伊保庄字近長浜１番４", "url": "https://www.kaigokensaku.mhlw.go.jp/35/index.php?action_kouhyou_detail_004_kani=true&JigyosyoCd=3571200504-00&ServiceCd=332&Type=search", "url2": "http://www.yuwaen.net" }, "geometry": { "type": "Point", "coordinates": [ 132.128622785272199, 33.910273933418537 ] } },
{ "type": "Feature", "properties": { "内容": "ケアハウス　幸嶺園【特定施設入居者生活介護（軽費老人ホーム）】山口県美祢市伊佐町伊佐字下田５６５６番地1", "url": "https://www.kaigokensaku.mhlw.go.jp/35/index.php?action_kouhyou_detail_004_kani=true&JigyosyoCd=3571300288-00&ServiceCd=332&Type=search", "url2": "http://www.shubikai.com/index.php" }, "geometry": { "type": "Point", "coordinates": [ 131.201241621149364, 34.164000246880562 ] } },
{ "type": "Feature", "properties": { "内容": "ケアハウアス　めぐみの園【特定施設入居者生活介護（軽費老人ホーム）】美祢市於福町下3267-1番地", "url": "https://www.kaigokensaku.mhlw.go.jp/35/index.php?action_kouhyou_detail_004_kani=true&JigyosyoCd=3571300114-00&ServiceCd=332&Type=search", "url2": "https://f-doho.com/megumi/index.html" }, "geometry": { "type": "Point", "coordinates": [ 131.213539200000014, 34.2478506 ] } },
{ "type": "Feature", "properties": { "内容": "軽費老人ホーム特定施設悠久の里【特定施設入居者生活介護（軽費老人ホーム）】山口県周南市大字鹿野中10046番地の１", "url": "https://www.kaigokensaku.mhlw.go.jp/35/index.php?action_kouhyou_detail_004_kani=true&JigyosyoCd=3571500507-00&ServiceCd=332&Type=search", "url2": "http://ryokuzankai.jp" }, "geometry": { "type": "Point", "coordinates": [ 131.80859844992824, 34.221059030659752 ] } },
{ "type": "Feature", "properties": { "内容": "ケアハウスとまりの郷【特定施設入居者生活介護（軽費老人ホーム）】山口県山陽小野田市大字西高泊10760番3", "url": "https://www.kaigokensaku.mhlw.go.jp/35/index.php?action_kouhyou_detail_004_kani=true&JigyosyoCd=3571600380-00&ServiceCd=332&Type=search", "url2": null }, "geometry": { "type": "Point", "coordinates": [ 131.168939799999947, 34.0121428 ] } }
]
}
