{
"type": "FeatureCollection",
"name": "geo_35_通所リハビリテーション",
"crs": { "type": "name", "properties": { "name": "urn:ogc:def:crs:OGC:1.3:CRS84" } },
"features": [
{ "type": "Feature", "properties": { "内容": "社会医療法人　松涛会　安岡病院【通所リハビリテーション】山口県下関市横野町3－16－35", "url": "https://www.kaigokensaku.mhlw.go.jp/35/index.php?action_kouhyou_detail_004_kani=true&JigyosyoCd=3510113610-00&ServiceCd=160&Type=search", "url2": "https://www.syoutoukai.or.jp/" }, "geometry": { "type": "Point", "coordinates": [ 130.9094857, 34.034548 ] } },
{ "type": "Feature", "properties": { "内容": "デイケアセンター藤寿苑稗田【通所リハビリテーション】山口県下関市稗田北町１１番８号", "url": "https://www.kaigokensaku.mhlw.go.jp/35/index.php?action_kouhyou_detail_004_kani=true&JigyosyoCd=3510114956-00&ServiceCd=160&Type=search", "url2": "http://www.tojukai.com/" }, "geometry": { "type": "Point", "coordinates": [ 130.932350700000029, 33.996218699999986 ] } },
{ "type": "Feature", "properties": { "内容": "デイケアセンター藤寿苑　山の田【通所リハビリテーション】山口県下関市山の田本町6-63F", "url": "https://www.kaigokensaku.mhlw.go.jp/35/index.php?action_kouhyou_detail_004_kani=true&JigyosyoCd=3510116852-00&ServiceCd=160&Type=search", "url2": "http://www.tojukai.com/" }, "geometry": { "type": "Point", "coordinates": [ 130.928987300000017, 33.9892444 ] } },
{ "type": "Feature", "properties": { "内容": "だて整形外科リハビリテーションクリニック【通所リハビリテーション】山口県下関市綾羅木本町2－4－22だて整形外科リハビリテーションクリニック", "url": "https://www.kaigokensaku.mhlw.go.jp/35/index.php?action_kouhyou_detail_004_kani=true&JigyosyoCd=3510115698-00&ServiceCd=160&Type=search", "url2": "http://www.date-c.com" }, "geometry": { "type": "Point", "coordinates": [ 130.9260011, 34.0016885 ] } },
{ "type": "Feature", "properties": { "内容": "にしはらデイプラス【通所リハビリテーション】生野町2丁目31-21", "url": "https://www.kaigokensaku.mhlw.go.jp/35/index.php?action_kouhyou_detail_004_kani=true&JigyosyoCd=3510115730-00&ServiceCd=160&Type=search", "url2": null }, "geometry": { "type": "Point", "coordinates": [ 130.9355718, 33.9850644 ] } },
{ "type": "Feature", "properties": { "内容": "医療法人社団憲仁会　井上整形外科クリニック【通所リハビリテーション】山口県下関市南部町21−24", "url": "https://www.kaigokensaku.mhlw.go.jp/35/index.php?action_kouhyou_detail_004_kani=true&JigyosyoCd=3510117157-00&ServiceCd=160&Type=search", "url2": "https://inoueseikei-c.com" }, "geometry": { "type": "Point", "coordinates": [ 130.9407205, 33.9561251 ] } },
{ "type": "Feature", "properties": { "内容": "医療法人社団弥生会　野村整形外科通所リハビリセンター【通所リハビリテーション】山口県下関市綾羅木本町4丁目8-1", "url": "https://www.kaigokensaku.mhlw.go.jp/35/index.php?action_kouhyou_detail_004_kani=true&JigyosyoCd=3510117744-00&ServiceCd=160&Type=search", "url2": "http://www.nomura-seikei.com/" }, "geometry": { "type": "Point", "coordinates": [ 130.923649399999988, 34.0044869 ] } },
{ "type": "Feature", "properties": { "内容": "社会医療法人　松涛会　老人保健施設コスモス【通所リハビリテーション】下関市横野町3丁目16番5号", "url": "https://www.kaigokensaku.mhlw.go.jp/35/index.php?action_kouhyou_detail_004_kani=true&JigyosyoCd=3550180016-00&ServiceCd=160&Type=search", "url2": "http://www.syoutoukai.or.jp/" }, "geometry": { "type": "Point", "coordinates": [ 130.910383591540523, 34.034265440867443 ] } },
{ "type": "Feature", "properties": { "内容": "医療法人社団　季朋会　王司病院【通所リハビリテーション】下関市王司本町1丁目18-27", "url": "https://www.kaigokensaku.mhlw.go.jp/35/index.php?action_kouhyou_detail_004_kani=true&JigyosyoCd=3510113701-00&ServiceCd=160&Type=search", "url2": "https://www.kihoukai.biz/" }, "geometry": { "type": "Point", "coordinates": [ 131.015301200000067, 34.0411591 ] } },
{ "type": "Feature", "properties": { "内容": "老人保健施設　ライフ菊川【通所リハビリテーション】山口県下関市菊川町大字下岡枝1113", "url": "https://www.kaigokensaku.mhlw.go.jp/35/index.php?action_kouhyou_detail_004_kani=true&JigyosyoCd=3557880006-00&ServiceCd=160&Type=search", "url2": "https://www.oka-hospital.net/" }, "geometry": { "type": "Point", "coordinates": [ 131.041534855819663, 34.125633517968723 ] } },
{ "type": "Feature", "properties": { "内容": "一般社団法人　巨樹の会　下関リハビリテーション病院【通所リハビリテーション】山口県下関市今浦町9-6", "url": "https://www.kaigokensaku.mhlw.go.jp/35/index.php?action_kouhyou_detail_004_kani=true&JigyosyoCd=3510115946-00&ServiceCd=160&Type=search", "url2": "https://www.shimoreha.jp/" }, "geometry": { "type": "Point", "coordinates": [ 130.920988599999987, 33.9533864 ] } },
{ "type": "Feature", "properties": { "内容": "医療法人茜会　吉水内科【通所リハビリテーション】下関市上新地町一丁目5番2号", "url": "https://www.kaigokensaku.mhlw.go.jp/35/index.php?action_kouhyou_detail_004_kani=true&JigyosyoCd=3510113875-00&ServiceCd=160&Type=search", "url2": "https://akn-yoshimizu.com" }, "geometry": { "type": "Point", "coordinates": [ 130.920518345334216, 33.959173361051235 ] } },
{ "type": "Feature", "properties": { "内容": "長井整形外科デイケアセンター【通所リハビリテーション】山口県下関市清末鞍馬３－５－１４", "url": "https://www.kaigokensaku.mhlw.go.jp/35/index.php?action_kouhyou_detail_004_kani=true&JigyosyoCd=3510116035-00&ServiceCd=160&Type=search", "url2": "http://www.nagaiseikei.jp" }, "geometry": { "type": "Point", "coordinates": [ 131.0265051, 34.063626600000021 ] } },
{ "type": "Feature", "properties": { "内容": "老人保健施設アイユウ【通所リハビリテーション】下関市長府金屋浜町1-5", "url": "https://www.kaigokensaku.mhlw.go.jp/35/index.php?action_kouhyou_detail_004_kani=true&JigyosyoCd=3550180032-00&ServiceCd=160&Type=search", "url2": "https://shoueikai-aiyuu.com/" }, "geometry": { "type": "Point", "coordinates": [ 130.991981200000026, 34.002732 ] } },
{ "type": "Feature", "properties": { "内容": "介護医療院さくら寮【通所リハビリテーション】山口県下関市長府才川2丁目21-2", "url": "https://www.kaigokensaku.mhlw.go.jp/35/index.php?action_kouhyou_detail_004_kani=true&JigyosyoCd=35B0100011-00&ServiceCd=160&Type=search", "url2": "https://www.kofuen.or.jp/" }, "geometry": { "type": "Point", "coordinates": [ 130.999375, 34.024726500000021 ] } },
{ "type": "Feature", "properties": { "内容": "社会医療法人　松涛会　彦島内科【通所リハビリテーション】山口県下関市彦島江の浦町9丁目4-5", "url": "https://www.kaigokensaku.mhlw.go.jp/35/index.php?action_kouhyou_detail_004_kani=true&JigyosyoCd=3510116381-00&ServiceCd=160&Type=search", "url2": "http://www.syoutoukai.or.jp/iryou/iryo.tml" }, "geometry": { "type": "Point", "coordinates": [ 130.917858600000045, 33.9299053 ] } },
{ "type": "Feature", "properties": { "内容": "社会医療法人　松涛会　山の田内科　通所リハビリテーション【通所リハビリテーション】山口県下関市武久町1丁目19番30号", "url": "https://www.kaigokensaku.mhlw.go.jp/35/index.php?action_kouhyou_detail_004_kani=true&JigyosyoCd=3510117082-00&ServiceCd=160&Type=search", "url2": "http://www.syoutoukai.or.jp/yamanota_clinic.html" }, "geometry": { "type": "Point", "coordinates": [ 130.926859799999988, 33.9842032 ] } },
{ "type": "Feature", "properties": { "内容": "介護老人保健施設　青海荘【通所リハビリテーション】下関市武久町2丁目53番8号", "url": "https://www.kaigokensaku.mhlw.go.jp/35/index.php?action_kouhyou_detail_004_kani=true&JigyosyoCd=3550180008-00&ServiceCd=160&Type=search", "url2": "http://seijukai-or.jp/seikaisou/" }, "geometry": { "type": "Point", "coordinates": [ 130.91664430000003, 33.9817949 ] } },
{ "type": "Feature", "properties": { "内容": "下関市豊浦地域ケアセンター　介護老人保健施設ひびき苑【通所リハビリテーション】下関市豊浦町大字小串10007-3", "url": "https://www.kaigokensaku.mhlw.go.jp/35/index.php?action_kouhyou_detail_004_kani=true&JigyosyoCd=3550180107-00&ServiceCd=160&Type=search", "url2": null }, "geometry": { "type": "Point", "coordinates": [ 130.926790504368569, 34.169934141320091 ] } },
{ "type": "Feature", "properties": { "内容": "下関市立豊田中央病院【通所リハビリテーション】山口県下関市豊田町大字矢田３６５番地１", "url": "https://www.kaigokensaku.mhlw.go.jp/35/index.php?action_kouhyou_detail_004_kani=true&JigyosyoCd=3517810200-00&ServiceCd=160&Type=search", "url2": "http://www.city.shimonoseki.yamaguchi.jp/toyotabyoin/index.html" }, "geometry": { "type": "Point", "coordinates": [ 131.072167700000023, 34.201146 ] } },
{ "type": "Feature", "properties": { "内容": "医療法人　牛尾医院亀の甲クリニック【通所リハビリテーション】下関市長府亀の甲１丁目２－１", "url": "https://www.kaigokensaku.mhlw.go.jp/35/index.php?action_kouhyou_detail_004_kani=true&JigyosyoCd=3510114774-00&ServiceCd=160&Type=search", "url2": null }, "geometry": { "type": "Point", "coordinates": [ 130.988925900000027, 34.0024043 ] } },
{ "type": "Feature", "properties": { "内容": "二武整形・リウマチクリニック【通所リハビリテーション】山口県下関市豊浦町大字吉永１８４４番", "url": "https://www.kaigokensaku.mhlw.go.jp/35/index.php?action_kouhyou_detail_004_kani=true&JigyosyoCd=3510117314-00&ServiceCd=160&Type=search", "url2": "http://www.nibu-clinic.jp/" }, "geometry": { "type": "Point", "coordinates": [ 130.920541800000024, 34.1417504 ] } },
{ "type": "Feature", "properties": { "内容": "脳神経筋センターよしみず病院【通所リハビリテーション】山口県下関市後田町1丁目1番1号", "url": "https://www.kaigokensaku.mhlw.go.jp/35/index.php?action_kouhyou_detail_004_kani=true&JigyosyoCd=3510117991-00&ServiceCd=160&Type=search", "url2": "http://www.akn-yoshimizu.com" }, "geometry": { "type": "Point", "coordinates": [ 130.9341169, 33.9687057 ] } },
{ "type": "Feature", "properties": { "内容": "医療法人社団東整形外科通所リハビリ【通所リハビリテーション】山口県宇部市恩田町２－８－８", "url": "https://www.kaigokensaku.mhlw.go.jp/35/index.php?action_kouhyou_detail_004_kani=true&JigyosyoCd=3510212644-00&ServiceCd=160&Type=search", "url2": "http://azumaseikei.byoinnavi.jp/pc/" }, "geometry": { "type": "Point", "coordinates": [ 131.265582, 33.9458957 ] } },
{ "type": "Feature", "properties": { "内容": "医療法人社団泉仁会　豊生苑　通所リハビリテーション【通所リハビリテーション】山口県宇部市大字木田字中山田40-20", "url": "https://www.kaigokensaku.mhlw.go.jp/35/index.php?action_kouhyou_detail_004_kani=true&JigyosyoCd=3550280006-00&ServiceCd=160&Type=search", "url2": "http://www.senjinkai.jp" }, "geometry": { "type": "Point", "coordinates": [ 131.280415336628693, 34.062488666304489 ] } },
{ "type": "Feature", "properties": { "内容": "宇部西リハビリテーション病院通所リハビリテーション【通所リハビリテーション】宇部市大字沖ノ旦797番地", "url": "https://www.kaigokensaku.mhlw.go.jp/35/index.php?action_kouhyou_detail_004_kani=true&JigyosyoCd=3510214475-00&ServiceCd=160&Type=search", "url2": "https://www.ubenishireha.jp/" }, "geometry": { "type": "Point", "coordinates": [ 131.225496799999974, 33.9959869 ] } },
{ "type": "Feature", "properties": { "内容": "宇部協立病院【通所リハビリテーション】宇部市五十目山町16番23号", "url": "https://www.kaigokensaku.mhlw.go.jp/35/index.php?action_kouhyou_detail_004_kani=true&JigyosyoCd=3510212693-00&ServiceCd=160&Type=search", "url2": "https://mcoop-kenbun.jp/" }, "geometry": { "type": "Point", "coordinates": [ 131.266432200000054, 33.9374911 ] } },
{ "type": "Feature", "properties": { "内容": "介護老人保健施設　寿光園【通所リハビリテーション】山口県宇部市大字妻崎開作470番地3", "url": "https://www.kaigokensaku.mhlw.go.jp/35/index.php?action_kouhyou_detail_004_kani=true&JigyosyoCd=3550280030-00&ServiceCd=160&Type=search", "url2": "https://roken-jukouen.jp/" }, "geometry": { "type": "Point", "coordinates": [ 131.204111854573028, 33.983750588775344 ] } },
{ "type": "Feature", "properties": { "内容": "尾中病院　通所リハビリテーション【通所リハビリテーション】山口県宇部市寿町1丁目3番28号", "url": "https://www.kaigokensaku.mhlw.go.jp/35/index.php?action_kouhyou_detail_004_kani=true&JigyosyoCd=3510214855-00&ServiceCd=160&Type=search", "url2": "https：//onaka.or.jp" }, "geometry": { "type": "Point", "coordinates": [ 131.248658400000011, 33.9534995 ] } },
{ "type": "Feature", "properties": { "内容": "介護老人保健施設　昭和町共生苑【通所リハビリテーション】山口県宇部市昭和町二丁目12-12", "url": "https://www.kaigokensaku.mhlw.go.jp/35/index.php?action_kouhyou_detail_004_kani=true&JigyosyoCd=3550280022-00&ServiceCd=160&Type=search", "url2": null }, "geometry": { "type": "Point", "coordinates": [ 131.255146700000068, 33.9393242 ] } },
{ "type": "Feature", "properties": { "内容": "医療法人和同会　宇部リハビリテーション病院【通所リハビリテーション】宇部市大字西岐波229番地の3", "url": "https://www.kaigokensaku.mhlw.go.jp/35/index.php?action_kouhyou_detail_004_kani=true&JigyosyoCd=3510211935-00&ServiceCd=160&Type=search", "url2": "http://www.ubereha.jp/service/riha.html" }, "geometry": { "type": "Point", "coordinates": [ 131.303293, 33.966558 ] } },
{ "type": "Feature", "properties": { "内容": "介護老人保健施設　老健ふなき【通所リハビリテーション】山口県宇部市大字船木８３３番地老健ふなき", "url": "https://www.kaigokensaku.mhlw.go.jp/35/index.php?action_kouhyou_detail_004_kani=true&JigyosyoCd=3557780008-00&ServiceCd=160&Type=search", "url2": "http://www.furoukai.jp/" }, "geometry": { "type": "Point", "coordinates": [ 131.192673546171591, 34.048838720893443 ] } },
{ "type": "Feature", "properties": { "内容": "医療法人太白会シーサイド病院【通所リハビリテーション】宇部市大字東岐波字丸尾４３２２－１", "url": "https://www.kaigokensaku.mhlw.go.jp/35/index.php?action_kouhyou_detail_004_kani=true&JigyosyoCd=3510213329-00&ServiceCd=160&Type=search", "url2": "http://www.c-able.ne.jp/~saeside" }, "geometry": { "type": "Point", "coordinates": [ 131.348189499999989, 33.967292 ] } },
{ "type": "Feature", "properties": { "内容": "介護老人保健施設　ぺあれんと【通所リハビリテーション】山口県宇部市浜町２丁目1-3", "url": "https://www.kaigokensaku.mhlw.go.jp/35/index.php?action_kouhyou_detail_004_kani=true&JigyosyoCd=3550280048-00&ServiceCd=160&Type=search", "url2": "https://familand.jp/" }, "geometry": { "type": "Point", "coordinates": [ 131.237383099999988, 33.9649627 ] } },
{ "type": "Feature", "properties": { "内容": "医療法人社団泉仁会【通所リハビリテーション】宇部市大字木田字中山田４０番地２０", "url": "https://www.kaigokensaku.mhlw.go.jp/35/index.php?action_kouhyou_detail_004_kani=true&JigyosyoCd=3510212354-00&ServiceCd=160&Type=search", "url2": "http://www.senjinkai.jp" }, "geometry": { "type": "Point", "coordinates": [ 131.28122536375119, 34.061957603074795 ] } },
{ "type": "Feature", "properties": { "内容": "大野整形通所リハビリテーション【通所リハビリテーション】平井298-6", "url": "https://www.kaigokensaku.mhlw.go.jp/35/index.php?action_kouhyou_detail_004_kani=true&JigyosyoCd=3510313285-00&ServiceCd=160&Type=search", "url2": null }, "geometry": { "type": "Point", "coordinates": [ 131.466192, 34.157447 ] } },
{ "type": "Feature", "properties": { "内容": "大正通りクリニック通所リハビリテーション【通所リハビリテーション】山口県山口市小郡明治2丁目1番5号", "url": "https://www.kaigokensaku.mhlw.go.jp/35/index.php?action_kouhyou_detail_004_kani=true&JigyosyoCd=3510313269-00&ServiceCd=160&Type=search", "url2": "http://www.taishoudouri-clinic.com/" }, "geometry": { "type": "Point", "coordinates": [ 131.397114, 34.097703 ] } },
{ "type": "Feature", "properties": { "内容": "老人保健施設　日吉台【通所リハビリテーション】山口市陶3976", "url": "https://www.kaigokensaku.mhlw.go.jp/35/index.php?action_kouhyou_detail_004_kani=true&JigyosyoCd=3550380012-00&ServiceCd=160&Type=search", "url2": null }, "geometry": { "type": "Point", "coordinates": [ 131.4202272, 34.0986157 ] } },
{ "type": "Feature", "properties": { "内容": "小川整形外科通所・訪問リハビリテーション【通所リハビリテーション】山口県山口市嘉川5033-1", "url": "https://www.kaigokensaku.mhlw.go.jp/35/index.php?action_kouhyou_detail_004_kani=true&JigyosyoCd=3510313061-00&ServiceCd=160&Type=search", "url2": "https://www.ogawaseikei-yamaguchikagawa.jp/" }, "geometry": { "type": "Point", "coordinates": [ 131.377516, 34.075517 ] } },
{ "type": "Feature", "properties": { "内容": "ニューライフあじす通所リハビリテーション【通所リハビリテーション】山口県山口市阿知須4165番地3", "url": "https://www.kaigokensaku.mhlw.go.jp/35/index.php?action_kouhyou_detail_004_kani=true&JigyosyoCd=3557680018-00&ServiceCd=160&Type=search", "url2": "http://www.kyoai.or.jp/newlife/" }, "geometry": { "type": "Point", "coordinates": [ 131.358159600000022, 34.0079468 ] } },
{ "type": "Feature", "properties": { "内容": "医療法人社団　向陽会　阿知須同仁病院【通所リハビリテーション】山口市阿知須４２４１－４", "url": "https://www.kaigokensaku.mhlw.go.jp/35/index.php?action_kouhyou_detail_004_kani=true&JigyosyoCd=3517610188-00&ServiceCd=160&Type=search", "url2": "http://www.ajisudohjin.com" }, "geometry": { "type": "Point", "coordinates": [ 131.36015939999993, 34.0100216 ] } },
{ "type": "Feature", "properties": { "内容": "医療法人　樹一会　山口病院【通所リハビリテーション】山口県山口市駅通り二丁目１０番７号", "url": "https://www.kaigokensaku.mhlw.go.jp/35/index.php?action_kouhyou_detail_004_kani=true&JigyosyoCd=3510311644-00&ServiceCd=160&Type=search", "url2": "http://www.yamaguchibyouin.jp/" }, "geometry": { "type": "Point", "coordinates": [ 131.479663, 34.1747539 ] } },
{ "type": "Feature", "properties": { "内容": "医療法人社団和花輝会　おさばファミリークリニック【通所リハビリテーション】山口県山口市下小鯖１１３３１－７", "url": "https://www.kaigokensaku.mhlw.go.jp/35/index.php?action_kouhyou_detail_004_kani=true&JigyosyoCd=3510312386-00&ServiceCd=160&Type=search", "url2": "http://www.c-able.ne.jp/~osabafc" }, "geometry": { "type": "Point", "coordinates": [ 131.526117800000065, 34.1323304 ] } },
{ "type": "Feature", "properties": { "内容": "老人保健施設悠々の里【通所リハビリテーション】山口市吉敷佐畑四丁目４番４４号", "url": "https://www.kaigokensaku.mhlw.go.jp/35/index.php?action_kouhyou_detail_004_kani=true&JigyosyoCd=3550380038-00&ServiceCd=160&Type=search", "url2": null }, "geometry": { "type": "Point", "coordinates": [ 131.427752199999986, 34.1672539 ] } },
{ "type": "Feature", "properties": { "内容": "山口幸楽苑【通所リハビリテーション】山口県山口市黒川3380番地", "url": "https://www.kaigokensaku.mhlw.go.jp/35/index.php?action_kouhyou_detail_004_kani=true&JigyosyoCd=3550380004-00&ServiceCd=160&Type=search", "url2": "http://www.wadokai.or.jp/yamariha/23tuusyo/index.html" }, "geometry": { "type": "Point", "coordinates": [ 131.438966299999947, 34.1319796 ] } },
{ "type": "Feature", "properties": { "内容": "なぎの木在宅ケアセンター・デイケア【通所リハビリテーション】山口市小郡下郷751-4", "url": "https://www.kaigokensaku.mhlw.go.jp/35/index.php?action_kouhyou_detail_004_kani=true&JigyosyoCd=3517610022-00&ServiceCd=160&Type=search", "url2": "http://www.c-able.ne.jp/^hayasihp" }, "geometry": { "type": "Point", "coordinates": [ 131.392965799999956, 34.1005071 ] } },
{ "type": "Feature", "properties": { "内容": "山口県厚生農業協同組合連合会老人保健施設みのり苑【通所リハビリテーション】山口市小郡下郷８６２番地３", "url": "https://www.kaigokensaku.mhlw.go.jp/35/index.php?action_kouhyou_detail_004_kani=true&JigyosyoCd=3557680000-00&ServiceCd=160&Type=search", "url2": "http://www.ogoridaiichi.jp/" }, "geometry": { "type": "Point", "coordinates": [ 131.3971987, 34.1034567 ] } },
{ "type": "Feature", "properties": { "内容": "大正通りクリニック通所リハビリテーション【通所リハビリテーション】山口県山口市小郡明治2丁目1番5号", "url": "https://www.kaigokensaku.mhlw.go.jp/35/index.php?action_kouhyou_detail_004_kani=true&JigyosyoCd=3510313442-00&ServiceCd=160&Type=search", "url2": "https://www.taishoudouri-clinic.net" }, "geometry": { "type": "Point", "coordinates": [ 131.3971379, 34.0975632 ] } },
{ "type": "Feature", "properties": { "内容": "介護老人保健施設　アーユス　通所リハビリテ－ション【通所リハビリテーション】山口市大内矢田北５丁目１０番１号介護老人保健施設アーユス内（１階）", "url": "https://www.kaigokensaku.mhlw.go.jp/35/index.php?action_kouhyou_detail_004_kani=true&JigyosyoCd=3550380046-00&ServiceCd=160&Type=search", "url2": "https://ayus-rk.org/" }, "geometry": { "type": "Point", "coordinates": [ 131.5099768, 34.155020300000011 ] } },
{ "type": "Feature", "properties": { "内容": "医療法人雄樹会おか整形外科病院【通所リハビリテーション】山口県山口市中河原町２番１４号", "url": "https://www.kaigokensaku.mhlw.go.jp/35/index.php?action_kouhyou_detail_004_kani=true&JigyosyoCd=3510311420-00&ServiceCd=160&Type=search", "url2": "http://www.oka-hospital.com" }, "geometry": { "type": "Point", "coordinates": [ 131.47564890000001, 34.1781988 ] } },
{ "type": "Feature", "properties": { "内容": "介護老人保健施設あいあい山口通所リハビリテーション【通所リハビリテーション】山口市鋳銭司5963番地1", "url": "https://www.kaigokensaku.mhlw.go.jp/35/index.php?action_kouhyou_detail_004_kani=true&JigyosyoCd=3550380020-00&ServiceCd=160&Type=search", "url2": "http://www.aikawaiin.or.jp" }, "geometry": { "type": "Point", "coordinates": [ 131.4434334, 34.0840844 ] } },
{ "type": "Feature", "properties": { "内容": "済生会湯田温泉病院デイケアセンター【通所リハビリテーション】山口県山口市朝倉町４番５５号済生会湯田温泉病院", "url": "https://www.kaigokensaku.mhlw.go.jp/35/index.php?action_kouhyou_detail_004_kani=true&JigyosyoCd=3510311776-00&ServiceCd=160&Type=search", "url2": "http://saiseikai-care-y.jp/" }, "geometry": { "type": "Point", "coordinates": [ 131.45301240752039, 34.175991978171126 ] } },
{ "type": "Feature", "properties": { "内容": "光山医院山口デイケアセンタ－【通所リハビリテーション】山口県山口市矢原町7番18号", "url": "https://www.kaigokensaku.mhlw.go.jp/35/index.php?action_kouhyou_detail_004_kani=true&JigyosyoCd=3510313020-00&ServiceCd=160&Type=search", "url2": "www.mitsuyama-c.com/index.php" }, "geometry": { "type": "Point", "coordinates": [ 131.452566599999955, 34.1563473 ] } },
{ "type": "Feature", "properties": { "内容": "老人保健施設ハートホーム山口【通所リハビリテーション】山口県山口市吉敷中東一丁目1-2", "url": "https://www.kaigokensaku.mhlw.go.jp/35/index.php?action_kouhyou_detail_004_kani=true&JigyosyoCd=3550380061-00&ServiceCd=160&Type=search", "url2": "http://www.seirankai.or.jp" }, "geometry": { "type": "Point", "coordinates": [ 131.446727799999962, 34.1672851 ] } },
{ "type": "Feature", "properties": { "内容": "ハートクリニック南山口【通所リハビリテーション】山口県山口市深溝803-1", "url": "https://www.kaigokensaku.mhlw.go.jp/35/index.php?action_kouhyou_detail_004_kani=true&JigyosyoCd=3510312261-00&ServiceCd=160&Type=search", "url2": "http://www.seirankai.or.jp" }, "geometry": { "type": "Point", "coordinates": [ 131.36716320000005, 34.0515201 ] } },
{ "type": "Feature", "properties": { "内容": "あんの循環器内科通所リハビリテーション【通所リハビリテーション】山口県山口市吉敷中東一丁目1-1", "url": "https://www.kaigokensaku.mhlw.go.jp/35/index.php?action_kouhyou_detail_004_kani=true&JigyosyoCd=3510311586-00&ServiceCd=160&Type=search", "url2": "http://www.seirankai.or.jp" }, "geometry": { "type": "Point", "coordinates": [ 131.4473944, 34.1670212 ] } },
{ "type": "Feature", "properties": { "内容": "医療法人　社団慈生会　老人保健施設　徳寿園通所リハビリテーション【通所リハビリテーション】山口県萩市大字山田4147番地1", "url": "https://www.kaigokensaku.mhlw.go.jp/35/index.php?action_kouhyou_detail_004_kani=true&JigyosyoCd=3550480010-00&ServiceCd=160&Type=search", "url2": "http://hagi-jiseikai.or.jp/" }, "geometry": { "type": "Point", "coordinates": [ 131.380922400000031, 34.3997883 ] } },
{ "type": "Feature", "properties": { "内容": "医療法人河野医院【通所リハビリテーション】山口県萩市大井1723-1", "url": "https://www.kaigokensaku.mhlw.go.jp/35/index.php?action_kouhyou_detail_004_kani=true&JigyosyoCd=3510411444-00&ServiceCd=160&Type=search", "url2": "http://kono-kizuna.jp" }, "geometry": { "type": "Point", "coordinates": [ 131.446671700000024, 34.4730485 ] } },
{ "type": "Feature", "properties": { "内容": "かわかみ整形通所リハビリテーション【通所リハビリテーション】萩市大字椿東2863番地7", "url": "https://www.kaigokensaku.mhlw.go.jp/35/index.php?action_kouhyou_detail_004_kani=true&JigyosyoCd=3510411485-00&ServiceCd=160&Type=search", "url2": "http://kawakami-clinic.jimdo.com/" }, "geometry": { "type": "Point", "coordinates": [ 131.4108526, 34.4491372 ] } },
{ "type": "Feature", "properties": { "内容": "医療法人社団　田町診療所【通所リハビリテーション】山口県萩市東田町２２－８", "url": "https://www.kaigokensaku.mhlw.go.jp/35/index.php?action_kouhyou_detail_004_kani=true&JigyosyoCd=3510411212-00&ServiceCd=160&Type=search", "url2": "http:/www.tamachi/net" }, "geometry": { "type": "Point", "coordinates": [ 131.402441756033369, 34.412381809429306 ] } },
{ "type": "Feature", "properties": { "内容": "光山医院デイケアセンター【通所リハビリテーション】防府市今市町21-15", "url": "https://www.kaigokensaku.mhlw.go.jp/35/index.php?action_kouhyou_detail_004_kani=true&JigyosyoCd=3510612272-00&ServiceCd=160&Type=search", "url2": "//www.mitsuyama-c.com/" }, "geometry": { "type": "Point", "coordinates": [ 131.564919949559453, 34.06272795137982 ] } },
{ "type": "Feature", "properties": { "内容": "老人保健施設はくあい【通所リハビリテーション】山口県防府市三田尻１丁目１番２４号", "url": "https://www.kaigokensaku.mhlw.go.jp/35/index.php?action_kouhyou_detail_004_kani=true&JigyosyoCd=3550680023-00&ServiceCd=160&Type=search", "url2": "http://hakuai.net/" }, "geometry": { "type": "Point", "coordinates": [ 131.572369900000012, 34.0484354 ] } },
{ "type": "Feature", "properties": { "内容": "介護老人保健施設　好日苑【通所リハビリテーション】防府市戎町二丁目５番１号", "url": "https://www.kaigokensaku.mhlw.go.jp/35/index.php?action_kouhyou_detail_004_kani=true&JigyosyoCd=3550680031-00&ServiceCd=160&Type=search", "url2": "http://www.kojitsuen.ne.jp" }, "geometry": { "type": "Point", "coordinates": [ 131.5703532, 34.0590505 ] } },
{ "type": "Feature", "properties": { "内容": "老人保健施設　尚歯堂【通所リハビリテーション】防府市大字新田775－1", "url": "https://www.kaigokensaku.mhlw.go.jp/35/index.php?action_kouhyou_detail_004_kani=true&JigyosyoCd=3550680015-00&ServiceCd=160&Type=search", "url2": "http://sokuinkai.com/rouken" }, "geometry": { "type": "Point", "coordinates": [ 131.563457100000051, 34.031896 ] } },
{ "type": "Feature", "properties": { "内容": "防府幸楽苑【通所リハビリテーション】山口県防府市大字台道1634番地の1", "url": "https://www.kaigokensaku.mhlw.go.jp/35/index.php?action_kouhyou_detail_004_kani=true&JigyosyoCd=3550680007-00&ServiceCd=160&Type=search", "url2": "http://www.wadokai.or.jp/hofureha/korakuen.html" }, "geometry": { "type": "Point", "coordinates": [ 131.493069957672105, 34.068302963231055 ] } },
{ "type": "Feature", "properties": { "内容": "山縣整形外科医院【通所リハビリテーション】山口県防府市田島1092", "url": "https://www.kaigokensaku.mhlw.go.jp/35/index.php?action_kouhyou_detail_004_kani=true&JigyosyoCd=3510612181-00&ServiceCd=160&Type=search", "url2": null }, "geometry": { "type": "Point", "coordinates": [ 131.56115479999994, 34.0237523 ] } },
{ "type": "Feature", "properties": { "内容": "老人保健施設　成幸苑【通所リハビリテーション】山口県下松市新川二丁目1番1号", "url": "https://www.kaigokensaku.mhlw.go.jp/35/index.php?action_kouhyou_detail_004_kani=true&JigyosyoCd=3550780005-00&ServiceCd=160&Type=search", "url2": "https://www.seikoukai.jp/seikouen/" }, "geometry": { "type": "Point", "coordinates": [ 131.863123296295157, 34.008572942265559 ] } },
{ "type": "Feature", "properties": { "内容": "かとう整形外科クリニック【通所リハビリテーション】瑞穂町1-7-24", "url": "https://www.kaigokensaku.mhlw.go.jp/35/index.php?action_kouhyou_detail_004_kani=true&JigyosyoCd=3510711322-00&ServiceCd=160&Type=search", "url2": "https://kato-seikei-clinic.com" }, "geometry": { "type": "Point", "coordinates": [ 131.855342583155505, 34.021398202819555 ] } },
{ "type": "Feature", "properties": { "内容": "介護老人保健施設ふくしの里【通所リハビリテーション】下松市生野屋南一丁目10番1号", "url": "https://www.kaigokensaku.mhlw.go.jp/35/index.php?action_kouhyou_detail_004_kani=true&JigyosyoCd=3550780013-00&ServiceCd=160&Type=search", "url2": "https://shunan-kinen.jp/hukusinosato.html" }, "geometry": { "type": "Point", "coordinates": [ 131.876613200000065, 34.0326424 ] } },
{ "type": "Feature", "properties": { "内容": "医療法人社団　大谷整形外科　デイケア　ウォーク【通所リハビリテーション】岩国市麻里布町3-1-25", "url": "https://www.kaigokensaku.mhlw.go.jp/35/index.php?action_kouhyou_detail_004_kani=true&JigyosyoCd=3510812252-00&ServiceCd=160&Type=search", "url2": "https://otani-seikei.com/" }, "geometry": { "type": "Point", "coordinates": [ 132.223044800000025, 34.1720083 ] } },
{ "type": "Feature", "properties": { "内容": "老人保健施設　桜の園【通所リハビリテーション】山口県岩国市下３４２－１", "url": "https://www.kaigokensaku.mhlw.go.jp/35/index.php?action_kouhyou_detail_004_kani=true&JigyosyoCd=3550880003-00&ServiceCd=160&Type=search", "url2": "http://www.i.shinseikai.or.jp" }, "geometry": { "type": "Point", "coordinates": [ 132.0934588, 34.1607021 ] } },
{ "type": "Feature", "properties": { "内容": "岩国市錦介護老人保健施設　あさぎりの郷【通所リハビリテーション】岩国市錦町広瀬705", "url": "https://www.kaigokensaku.mhlw.go.jp/35/index.php?action_kouhyou_detail_004_kani=true&JigyosyoCd=3550880045-00&ServiceCd=160&Type=search", "url2": "http://nishiki-f.com/" }, "geometry": { "type": "Point", "coordinates": [ 131.952589200000034, 34.2557006 ] } },
{ "type": "Feature", "properties": { "内容": "山口平成病院　通所リハビリテーション【通所リハビリテーション】岩国市玖珂町11340番地", "url": "https://www.kaigokensaku.mhlw.go.jp/35/index.php?action_kouhyou_detail_004_kani=true&JigyosyoCd=3517210831-00&ServiceCd=160&Type=search", "url2": "http://yamaguchihp.jp" }, "geometry": { "type": "Point", "coordinates": [ 132.059236599999963, 34.1022024 ] } },
{ "type": "Feature", "properties": { "内容": "介護医療院ケアホーム山口【通所リハビリテーション】山口県岩国市玖珂町11361番地", "url": "https://www.kaigokensaku.mhlw.go.jp/35/index.php?action_kouhyou_detail_004_kani=true&JigyosyoCd=35B0800032-00&ServiceCd=160&Type=search", "url2": "https://yamaguchihp.jp/nursingcare" }, "geometry": { "type": "Point", "coordinates": [ 132.05953004788509, 34.102575326736243 ] } },
{ "type": "Feature", "properties": { "内容": "老人保健施設くが【通所リハビリテーション】山口県岩国市玖珂町3813番地6", "url": "https://www.kaigokensaku.mhlw.go.jp/35/index.php?action_kouhyou_detail_004_kani=true&JigyosyoCd=3557280017-00&ServiceCd=160&Type=search", "url2": "takamori-hukushikai.or.jp" }, "geometry": { "type": "Point", "coordinates": [ 132.098622400000068, 34.0818525 ] } },
{ "type": "Feature", "properties": { "内容": "和会リハビリテーションセンター　ロマンチカ【通所リハビリテーション】山口県岩国市元町4-5-10沖井クリニック3階", "url": "https://www.kaigokensaku.mhlw.go.jp/35/index.php?action_kouhyou_detail_004_kani=true&JigyosyoCd=3510812039-00&ServiceCd=160&Type=search", "url2": "http://www.ngm.jp" }, "geometry": { "type": "Point", "coordinates": [ 132.231387719626014, 34.171684128722063 ] } },
{ "type": "Feature", "properties": { "内容": "老人保健施設ふれんず【通所リハビリテーション】山口県岩国市今津町１丁目１１－２３", "url": "https://www.kaigokensaku.mhlw.go.jp/35/index.php?action_kouhyou_detail_004_kani=true&JigyosyoCd=3550880029-00&ServiceCd=160&Type=search", "url2": "https://marifukai.com/" }, "geometry": { "type": "Point", "coordinates": [ 132.220681099999979, 34.1667755 ] } },
{ "type": "Feature", "properties": { "内容": "岩国市医療センター医師会病院【通所リハビリテーション】山口県岩国市室の木町3-6-12", "url": "https://www.kaigokensaku.mhlw.go.jp/35/index.php?action_kouhyou_detail_004_kani=true&JigyosyoCd=3510812013-00&ServiceCd=160&Type=search", "url2": "http://iwakuni-med.jp/" }, "geometry": { "type": "Point", "coordinates": [ 132.205794100000048, 34.1712381 ] } },
{ "type": "Feature", "properties": { "内容": "老人保健施設なんわ荘【通所リハビリテーション】岩国市尾津町五丁目7番30号", "url": "https://www.kaigokensaku.mhlw.go.jp/35/index.php?action_kouhyou_detail_004_kani=true&JigyosyoCd=3550880011-00&ServiceCd=160&Type=search", "url2": "http:/www.nanwakai.jp" }, "geometry": { "type": "Point", "coordinates": [ 132.210462799999959, 34.1321351 ] } },
{ "type": "Feature", "properties": { "内容": "いしいケア・クリニック【通所リハビリテーション】山口県岩国市麻里布町3-5-5リタイアメントタウン　２階", "url": "https://www.kaigokensaku.mhlw.go.jp/35/index.php?action_kouhyou_detail_004_kani=true&JigyosyoCd=3510812716-00&ServiceCd=160&Type=search", "url2": "http://i-shinseikai.or.jp/" }, "geometry": { "type": "Point", "coordinates": [ 132.222522532540893, 34.16993817309924 ] } },
{ "type": "Feature", "properties": { "内容": "医療法人南和会老人保健施設みどり荘【通所リハビリテーション】岩国市由宇町千鳥ヶ丘一丁目１番１号", "url": "https://www.kaigokensaku.mhlw.go.jp/35/index.php?action_kouhyou_detail_004_kani=true&JigyosyoCd=3557280009-00&ServiceCd=160&Type=search", "url2": "http://www.nanwakai.jp/midori_sou" }, "geometry": { "type": "Point", "coordinates": [ 132.212751499999968, 34.0363384 ] } },
{ "type": "Feature", "properties": { "内容": "介護老人保健施設ナイスケアまほろば【通所リハビリテーション】山口県光市岩田2477番地", "url": "https://www.kaigokensaku.mhlw.go.jp/35/index.php?action_kouhyou_detail_004_kani=true&JigyosyoCd=3551080025-00&ServiceCd=160&Type=search", "url2": "https://naisukeamahoroba.jimdofree.com/" }, "geometry": { "type": "Point", "coordinates": [ 131.9996222, 33.9819183 ] } },
{ "type": "Feature", "properties": { "内容": "医療法人社団光仁会　市川医院　((介護予防)通所リハビリテーション)【通所リハビリテーション】山口県光市中央3丁目2番26号", "url": "https://www.kaigokensaku.mhlw.go.jp/35/index.php?action_kouhyou_detail_004_kani=true&JigyosyoCd=3511010468-00&ServiceCd=160&Type=search", "url2": "https://kohjinkai-i.or.jp/pages/57/" }, "geometry": { "type": "Point", "coordinates": [ 131.945991823278746, 33.958992015493514 ] } },
{ "type": "Feature", "properties": { "内容": "介護老人保健施設しまた川苑【通所リハビリテーション】山口県光市島田5-3-2", "url": "https://www.kaigokensaku.mhlw.go.jp/35/index.php?action_kouhyou_detail_004_kani=true&JigyosyoCd=3551080009-00&ServiceCd=160&Type=search", "url2": "http://www.aimeikai.jp/shimatagawa.html" }, "geometry": { "type": "Point", "coordinates": [ 131.9400647, 33.9792137 ] } },
{ "type": "Feature", "properties": { "内容": "医療法人社団成蹊会　老人保健施設サンライズ21【通所リハビリテーション】山口県長門市東深川889－1", "url": "https://www.kaigokensaku.mhlw.go.jp/35/index.php?action_kouhyou_detail_004_kani=true&JigyosyoCd=3551180015-00&ServiceCd=160&Type=search", "url2": "https://www.rouken-sunrize21.com/" }, "geometry": { "type": "Point", "coordinates": [ 131.186841299999969, 34.3769221 ] } },
{ "type": "Feature", "properties": { "内容": "介護老人保健施設　福寿苑【通所リハビリテーション】長門市日置中2488番地3", "url": "https://www.kaigokensaku.mhlw.go.jp/35/index.php?action_kouhyou_detail_004_kani=true&JigyosyoCd=3558080002-00&ServiceCd=160&Type=search", "url2": "http://nagato-.fukujyukai.or.jp" }, "geometry": { "type": "Point", "coordinates": [ 131.106217099999981, 34.3804702 ] } },
{ "type": "Feature", "properties": { "内容": "介護老人保健施設ケアセンターゆうわ【通所リハビリテーション】柳井市伊保庄字近長浜１番４", "url": "https://www.kaigokensaku.mhlw.go.jp/35/index.php?action_kouhyou_detail_004_kani=true&JigyosyoCd=3551280013-00&ServiceCd=160&Type=search", "url2": "http://www.yuwaen.net" }, "geometry": { "type": "Point", "coordinates": [ 132.127694740953046, 33.910064689336224 ] } },
{ "type": "Feature", "properties": { "内容": "弘田脳神経外科【通所リハビリテーション】山口県柳井市古開作575-7", "url": "https://www.kaigokensaku.mhlw.go.jp/35/index.php?action_kouhyou_detail_004_kani=true&JigyosyoCd=3511210746-00&ServiceCd=160&Type=search", "url2": "http://hirotanougeka.in/" }, "geometry": { "type": "Point", "coordinates": [ 132.09597789999998, 33.9692686 ] } },
{ "type": "Feature", "properties": { "内容": "介護老人保健施設　まつかぜ【通所リハビリテーション】柳井市余田３７１８番地", "url": "https://www.kaigokensaku.mhlw.go.jp/35/index.php?action_kouhyou_detail_004_kani=true&JigyosyoCd=3551280005-00&ServiceCd=160&Type=search", "url2": "https://shoueikai-sakamoto.com/matsukaze" }, "geometry": { "type": "Point", "coordinates": [ 132.067224300000021, 33.9592166 ] } },
{ "type": "Feature", "properties": { "内容": "美祢市介護老人保健施設グリーンヒル美祢【通所リハビリテーション】美祢市大嶺町東分１１３１３－１", "url": "https://www.kaigokensaku.mhlw.go.jp/35/index.php?action_kouhyou_detail_004_kani=true&JigyosyoCd=3551380011-00&ServiceCd=160&Type=search", "url2": "http://www.mine-city-hosp.jp/green/" }, "geometry": { "type": "Point", "coordinates": [ 131.1999535, 34.1717626 ] } },
{ "type": "Feature", "properties": { "内容": "デイケアサービスセンターさくら【通所リハビリテーション】美祢市大嶺町東分3367-1", "url": "https://www.kaigokensaku.mhlw.go.jp/35/index.php?action_kouhyou_detail_004_kani=true&JigyosyoCd=3511310389-00&ServiceCd=160&Type=search", "url2": null }, "geometry": { "type": "Point", "coordinates": [ 131.205292, 34.1711239 ] } },
{ "type": "Feature", "properties": { "内容": "医療法人宇野医院本院【通所リハビリテーション】周南市櫛ヶ浜５０１番地", "url": "https://www.kaigokensaku.mhlw.go.jp/35/index.php?action_kouhyou_detail_004_kani=true&JigyosyoCd=3510512043-00&ServiceCd=160&Type=search", "url2": "http://unohonin.com" }, "geometry": { "type": "Point", "coordinates": [ 131.83037891716549, 34.026443696016557 ] } },
{ "type": "Feature", "properties": { "内容": "老人保健施設　春の里【通所リハビリテーション】山口県周南市羽島1-2-23", "url": "https://www.kaigokensaku.mhlw.go.jp/35/index.php?action_kouhyou_detail_004_kani=true&JigyosyoCd=3551480001-00&ServiceCd=160&Type=search", "url2": "https://haresato.wixsite.com/website" }, "geometry": { "type": "Point", "coordinates": [ 131.726360699999987, 34.0748259 ] } },
{ "type": "Feature", "properties": { "内容": "周南市介護老人保健施設ゆめ風車【通所リハビリテーション】周南市宮の前二丁目6-27", "url": "https://www.kaigokensaku.mhlw.go.jp/35/index.php?action_kouhyou_detail_004_kani=true&JigyosyoCd=3551580016-00&ServiceCd=160&Type=search", "url2": "http://www.ccsnet.ne.jp/^yumerouken" }, "geometry": { "type": "Point", "coordinates": [ 131.764141900000027, 34.0726521 ] } },
{ "type": "Feature", "properties": { "内容": "徳山クリニック【通所リハビリテーション】山口県周南市大字粟屋839-1", "url": "https://www.kaigokensaku.mhlw.go.jp/35/index.php?action_kouhyou_detail_004_kani=true&JigyosyoCd=3510510914-00&ServiceCd=160&Type=search", "url2": "https://www.iokikai.jp/" }, "geometry": { "type": "Point", "coordinates": [ 131.834242099999983, 34.0219727 ] } },
{ "type": "Feature", "properties": { "内容": "介護老人保健施設　あおぞら【通所リハビリテーション】周南市大字栗屋字二葉屋開作1022－76", "url": "https://www.kaigokensaku.mhlw.go.jp/35/index.php?action_kouhyou_detail_004_kani=true&JigyosyoCd=3551580032-00&ServiceCd=160&Type=search", "url2": "http://www.shoueikai-sakamoto.com" }, "geometry": { "type": "Point", "coordinates": [ 131.80618579999998, 34.0551188 ] } },
{ "type": "Feature", "properties": { "内容": "鹿野博愛通所リハビリテーション【通所リハビリテーション】周南市大字鹿野下１１６１番地1", "url": "https://www.kaigokensaku.mhlw.go.jp/35/index.php?action_kouhyou_detail_004_kani=true&JigyosyoCd=3511510889-00&ServiceCd=160&Type=search", "url2": "http://ryokuzankai.jp" }, "geometry": { "type": "Point", "coordinates": [ 131.8159191, 34.224131 ] } },
{ "type": "Feature", "properties": { "内容": "周南高原病院【通所リハビリテーション】周南市大字須々万本郷29番地の1", "url": "https://www.kaigokensaku.mhlw.go.jp/35/index.php?action_kouhyou_detail_004_kani=true&JigyosyoCd=3510511458-00&ServiceCd=160&Type=search", "url2": "http://ryokuzankai.jp/" }, "geometry": { "type": "Point", "coordinates": [ 131.858349299999986, 34.1238302 ] } },
{ "type": "Feature", "properties": { "内容": "香田整形外科医院【通所リハビリテーション】山口県周南市代々木通り2-27", "url": "https://www.kaigokensaku.mhlw.go.jp/35/index.php?action_kouhyou_detail_004_kani=true&JigyosyoCd=3510511987-00&ServiceCd=160&Type=search", "url2": "https://kouda-seikei.or.jp/" }, "geometry": { "type": "Point", "coordinates": [ 131.802803440178707, 34.054768258378886 ] } },
{ "type": "Feature", "properties": { "内容": "おのクリニック【通所リハビリテーション】山口県周南市大神三丁目１２番１号", "url": "https://www.kaigokensaku.mhlw.go.jp/35/index.php?action_kouhyou_detail_004_kani=true&JigyosyoCd=3511510806-00&ServiceCd=160&Type=search", "url2": "https://www.ono-cli.jp/" }, "geometry": { "type": "Point", "coordinates": [ 131.764190423417631, 34.079761303935726 ] } },
{ "type": "Feature", "properties": { "内容": "老人保健施設温泉の里【通所リハビリテーション】周南市大字湯野4204番地の１", "url": "https://www.kaigokensaku.mhlw.go.jp/35/index.php?action_kouhyou_detail_004_kani=true&JigyosyoCd=3550580025-00&ServiceCd=160&Type=search", "url2": "http://chitokukai.com" }, "geometry": { "type": "Point", "coordinates": [ 131.674880900000062, 34.0943735 ] } },
{ "type": "Feature", "properties": { "内容": "医療法人社団生和会　徳山リハビリテーション病院【通所リハビリテーション】山口県周南市大字徳山626番地", "url": "https://www.kaigokensaku.mhlw.go.jp/35/index.php?action_kouhyou_detail_004_kani=true&JigyosyoCd=3511510558-00&ServiceCd=160&Type=search", "url2": "http://www.tokuyama-rh.jp" }, "geometry": { "type": "Point", "coordinates": [ 131.823220399999968, 34.046159 ] } },
{ "type": "Feature", "properties": { "内容": "周南ニュークリニック【通所リハビリテーション】大字徳山5529", "url": "https://www.kaigokensaku.mhlw.go.jp/35/index.php?action_kouhyou_detail_004_kani=true&JigyosyoCd=3511510897-00&ServiceCd=160&Type=search", "url2": null }, "geometry": { "type": "Point", "coordinates": [ 131.8172932, 34.0626103 ] } },
{ "type": "Feature", "properties": { "内容": "介護老人保健施設　なごやか熊毛【通所リハビリテーション】山口県周南市高水原2丁目7番21号", "url": "https://www.kaigokensaku.mhlw.go.jp/35/index.php?action_kouhyou_detail_004_kani=true&JigyosyoCd=3551580024-00&ServiceCd=160&Type=search", "url2": "http://www.kumage-rk.jp" }, "geometry": { "type": "Point", "coordinates": [ 131.973291, 34.0541482 ] } },
{ "type": "Feature", "properties": { "内容": "紫苑リハビリ内科クリニック【通所リハビリテーション】山陽小野田市大字厚狭字埴生田503番1", "url": "https://www.kaigokensaku.mhlw.go.jp/35/index.php?action_kouhyou_detail_004_kani=true&JigyosyoCd=3511610150-00&ServiceCd=160&Type=search", "url2": null }, "geometry": { "type": "Point", "coordinates": [ 131.161978500000032, 34.0540994 ] } },
{ "type": "Feature", "properties": { "内容": "介護老人保健施設　あさ紫苑【通所リハビリテーション】山口県山陽小野田市桜1丁目3－1", "url": "https://www.kaigokensaku.mhlw.go.jp/35/index.php?action_kouhyou_detail_004_kani=true&JigyosyoCd=3557780016-00&ServiceCd=160&Type=search", "url2": "http://41kaigo.com/" }, "geometry": { "type": "Point", "coordinates": [ 131.155706799999962, 34.053221700000016 ] } },
{ "type": "Feature", "properties": { "内容": "デイケアあおぞら【通所リハビリテーション】山口県山陽小野田市須恵１丁目１２－１０", "url": "https://www.kaigokensaku.mhlw.go.jp/35/index.php?action_kouhyou_detail_004_kani=true&JigyosyoCd=3510910783-00&ServiceCd=160&Type=search", "url2": null }, "geometry": { "type": "Point", "coordinates": [ 131.178715199999942, 33.9720916 ] } },
{ "type": "Feature", "properties": { "内容": "周防大島町立介護医療院やすらぎ苑【通所リハビリテーション】山口県大島郡周防大島町大字小松124-2", "url": "https://www.kaigokensaku.mhlw.go.jp/35/index.php?action_kouhyou_detail_004_kani=true&JigyosyoCd=35B7100014-00&ServiceCd=160&Type=search", "url2": "https://www.kouei.so.ecomas.jp/facilities/ysrg/" }, "geometry": { "type": "Point", "coordinates": [ 132.195769, 33.9270721 ] } },
{ "type": "Feature", "properties": { "内容": "周防大島町立大島病院【通所リハビリテーション】山口県大島郡周防大島町大字小松１４１５番地１", "url": "https://www.kaigokensaku.mhlw.go.jp/35/index.php?action_kouhyou_detail_004_kani=true&JigyosyoCd=3517110718-00&ServiceCd=160&Type=search", "url2": "https://www.kouei.so.ecomas.jp/facilities/osma/" }, "geometry": { "type": "Point", "coordinates": [ 132.1875412, 33.9435084 ] } },
{ "type": "Feature", "properties": { "内容": "周防大島町立介護老人保健施設さざなみ苑【通所リハビリテーション】山口県大島郡周防大島町大字西安下庄３９２０番地１７", "url": "https://www.kaigokensaku.mhlw.go.jp/35/index.php?action_kouhyou_detail_004_kani=true&JigyosyoCd=3557180027-00&ServiceCd=160&Type=search", "url2": "http://www.kouei.so.ecomas.jp/sznm/" }, "geometry": { "type": "Point", "coordinates": [ 132.280371899999977, 33.897774 ] } },
{ "type": "Feature", "properties": { "内容": "周防大島町立東和病院【通所リハビリテーション】山口県大島郡周防大島町大字西方571番地1", "url": "https://www.kaigokensaku.mhlw.go.jp/35/index.php?action_kouhyou_detail_004_kani=true&JigyosyoCd=3517110676-00&ServiceCd=160&Type=search", "url2": "http://www.kouei.so.ecomas.jp/towa/" }, "geometry": { "type": "Point", "coordinates": [ 132.333188100000029, 33.8952566 ] } },
{ "type": "Feature", "properties": { "内容": "介護老人保健施設　そよかぜ【通所リハビリテーション】熊毛郡田布施町大字宿井４１４番地の５", "url": "https://www.kaigokensaku.mhlw.go.jp/35/index.php?action_kouhyou_detail_004_kani=true&JigyosyoCd=3557380015-00&ServiceCd=160&Type=search", "url2": "http://www.shoueikai-sakamoto.com/soyokaze/" }, "geometry": { "type": "Point", "coordinates": [ 132.02717389999998, 33.9642208 ] } },
{ "type": "Feature", "properties": { "内容": "リハステーション緑の大地【通所リハビリテーション】山口県熊毛郡平生町大字平生村670-1", "url": "https://www.kaigokensaku.mhlw.go.jp/35/index.php?action_kouhyou_detail_004_kani=true&JigyosyoCd=3517310912-00&ServiceCd=160&Type=search", "url2": "https://www.saito-seikeigeka.com/" }, "geometry": { "type": "Point", "coordinates": [ 132.0791265, 33.9450834 ] } },
{ "type": "Feature", "properties": { "内容": "介護老人保健施設　なでしこ【通所リハビリテーション】熊毛郡平生町平生村895番地", "url": "https://www.kaigokensaku.mhlw.go.jp/35/index.php?action_kouhyou_detail_004_kani=true&JigyosyoCd=3557380023-00&ServiceCd=160&Type=search", "url2": "Http://www.shoueikai-sakamoto.com/" }, "geometry": { "type": "Point", "coordinates": [ 132.068343612381, 33.942743867470696 ] } }
]
}
