{
"type": "FeatureCollection",
"name": "geo_35_認知症対応型通所介護",
"crs": { "type": "name", "properties": { "name": "urn:ogc:def:crs:OGC:1.3:CRS84" } },
"features": [
{ "type": "Feature", "properties": { "内容": "グループホーム王司【認知症対応型通所介護】下関市王司川端1ｰ4ｰ56ｰ2", "url": "https://www.kaigokensaku.mhlw.go.jp/35/index.php?action_kouhyou_detail_004_kani=true&JigyosyoCd=3590102145-00&ServiceCd=720&Type=search", "url2": "http://www.yume-no-kai.com/gaiyo/" }, "geometry": { "type": "Point", "coordinates": [ 131.0179953, 34.0482937 ] } },
{ "type": "Feature", "properties": { "内容": "グループホーム形山【認知症対応型通所介護】山口県下関市形山町5ｰ57", "url": "https://www.kaigokensaku.mhlw.go.jp/35/index.php?action_kouhyou_detail_004_kani=true&JigyosyoCd=3590102178-00&ServiceCd=720&Type=search", "url2": null }, "geometry": { "type": "Point", "coordinates": [ 130.956464768508908, 34.014733462451339 ] } },
{ "type": "Feature", "properties": { "内容": "菊川デイサービスちとせ【認知症対応型通所介護】山口県下関市菊川町下岡枝389-1", "url": "https://www.kaigokensaku.mhlw.go.jp/35/index.php?action_kouhyou_detail_004_kani=true&JigyosyoCd=3590102103-00&ServiceCd=720&Type=search", "url2": "http://r.goope.jp/kaien" }, "geometry": { "type": "Point", "coordinates": [ 131.0331807, 34.1247724 ] } },
{ "type": "Feature", "properties": { "内容": "株式会社メディカルテンダー　富士デイサービス王司【認知症対応型通所介護】山口県下関市王司神田６丁目３－４２", "url": "https://www.kaigokensaku.mhlw.go.jp/35/index.php?action_kouhyou_detail_004_kani=true&JigyosyoCd=3590102095-00&ServiceCd=720&Type=search", "url2": "www.medicaltender.co.jp/pc/contents17.html" }, "geometry": { "type": "Point", "coordinates": [ 131.016945299999946, 34.0477974 ] } },
{ "type": "Feature", "properties": { "内容": "富士デイサービス大学町【認知症対応型通所介護】下関市大学町5-8-4", "url": "https://www.kaigokensaku.mhlw.go.jp/35/index.php?action_kouhyou_detail_004_kani=true&JigyosyoCd=3590102020-00&ServiceCd=720&Type=search", "url2": null }, "geometry": { "type": "Point", "coordinates": [ 130.937272175146489, 33.986553929199921 ] } },
{ "type": "Feature", "properties": { "内容": "デイサービス　わたぼうし【認知症対応型通所介護】山口県下関市横野町3丁目16番35号", "url": "https://www.kaigokensaku.mhlw.go.jp/35/index.php?action_kouhyou_detail_004_kani=true&JigyosyoCd=3590102129-00&ServiceCd=720&Type=search", "url2": "https://www.shoutoukai.or.jp" }, "geometry": { "type": "Point", "coordinates": [ 130.9094857, 34.034548 ] } },
{ "type": "Feature", "properties": { "内容": "脳いきいきデイサービスねぎ【認知症対応型通所介護】山口県下関市横野町3-16-5", "url": "https://www.kaigokensaku.mhlw.go.jp/35/index.php?action_kouhyou_detail_004_kani=true&JigyosyoCd=3570100317-00&ServiceCd=720&Type=search", "url2": "http://www.syoutoukai.or.jp/shisetsu/negi_ds.html" }, "geometry": { "type": "Point", "coordinates": [ 130.910390399999983, 34.034264 ] } },
{ "type": "Feature", "properties": { "内容": "医療法人茜会デイサービス白雲台【認知症対応型通所介護】山口県下関市上田中町8-14-5ケアシティ白雲台", "url": "https://www.kaigokensaku.mhlw.go.jp/35/index.php?action_kouhyou_detail_004_kani=true&JigyosyoCd=3570101901-00&ServiceCd=720&Type=search", "url2": null }, "geometry": { "type": "Point", "coordinates": [ 130.933459699999958, 33.9624163 ] } },
{ "type": "Feature", "properties": { "内容": "デイサービス豆たん【認知症対応型通所介護】下関市内日下1028-2", "url": "https://www.kaigokensaku.mhlw.go.jp/35/index.php?action_kouhyou_detail_004_kani=true&JigyosyoCd=3570101489-00&ServiceCd=720&Type=search", "url2": null }, "geometry": { "type": "Point", "coordinates": [ 130.969484100000045, 34.100754 ] } },
{ "type": "Feature", "properties": { "内容": "下関市社協豊北デイサービスセンターほのぼの【認知症対応型通所介護】山口県下関市豊北町神田4611番地2豊北町デイサービスセンターほのぼの", "url": "https://www.kaigokensaku.mhlw.go.jp/35/index.php?action_kouhyou_detail_004_kani=true&JigyosyoCd=3590102137-00&ServiceCd=720&Type=search", "url2": "http://www.shimoshakyo.or.jp" }, "geometry": { "type": "Point", "coordinates": [ 130.905933, 34.3541002 ] } },
{ "type": "Feature", "properties": { "内容": "デイサービスウェリナ【認知症対応型通所介護】山口県下関市綾羅木新町2丁目7₋17", "url": "https://www.kaigokensaku.mhlw.go.jp/35/index.php?action_kouhyou_detail_004_kani=true&JigyosyoCd=3590102228-00&ServiceCd=720&Type=search", "url2": null }, "geometry": { "type": "Point", "coordinates": [ 130.918625, 34.0126495 ] } },
{ "type": "Feature", "properties": { "内容": "デイサービスかもめ3【認知症対応型通所介護】山口県宇部市大字西岐波字山田4953番地6", "url": "https://www.kaigokensaku.mhlw.go.jp/35/index.php?action_kouhyou_detail_004_kani=true&JigyosyoCd=3590200238-00&ServiceCd=720&Type=search", "url2": null }, "geometry": { "type": "Point", "coordinates": [ 131.29476507038359, 33.966182892373965 ] } },
{ "type": "Feature", "properties": { "内容": "グループホームグッドスマイルズ【認知症対応型通所介護】山口県山口市桜畠2丁目9番32号", "url": "https://www.kaigokensaku.mhlw.go.jp/35/index.php?action_kouhyou_detail_004_kani=true&JigyosyoCd=3590300020-00&ServiceCd=720&Type=search", "url2": null }, "geometry": { "type": "Point", "coordinates": [ 131.502490099999989, 34.1950983 ] } },
{ "type": "Feature", "properties": { "内容": "きらら苑グループホーム【認知症対応型通所介護】山口県山口市秋穂二島３２７番地４４", "url": "https://www.kaigokensaku.mhlw.go.jp/35/index.php?action_kouhyou_detail_004_kani=true&JigyosyoCd=3570300917-00&ServiceCd=720&Type=search", "url2": "https://kiraraen.jp/" }, "geometry": { "type": "Point", "coordinates": [ 131.3957371, 34.0331613 ] } },
{ "type": "Feature", "properties": { "内容": "デイサービスえがお【認知症対応型通所介護】山口県山口市阿東徳佐下２５６６番地", "url": "https://www.kaigokensaku.mhlw.go.jp/35/index.php?action_kouhyou_detail_004_kani=true&JigyosyoCd=3597800014-00&ServiceCd=720&Type=search", "url2": "day-egao@c-able.ne.jp" }, "geometry": { "type": "Point", "coordinates": [ 131.716025800000011, 34.3969573 ] } },
{ "type": "Feature", "properties": { "内容": "グループホーム徳佐あいおい苑【認知症対応型通所介護】山口県山口市阿東徳佐中987-5グループホーム徳佐あいおい苑", "url": "https://www.kaigokensaku.mhlw.go.jp/35/index.php?action_kouhyou_detail_004_kani=true&JigyosyoCd=3597800022-00&ServiceCd=720&Type=search", "url2": "http://hitotsunokai:jp" }, "geometry": { "type": "Point", "coordinates": [ 131.7309578, 34.3987132 ] } },
{ "type": "Feature", "properties": { "内容": "ハートホーム平川脳活性リハビリ【認知症対応型通所介護】山口県山口市黒川729-2", "url": "https://www.kaigokensaku.mhlw.go.jp/35/index.php?action_kouhyou_detail_004_kani=true&JigyosyoCd=3590300178-00&ServiceCd=720&Type=search", "url2": "http//www.seirankai.or.jp" }, "geometry": { "type": "Point", "coordinates": [ 131.449792600000023, 34.1440928 ] } },
{ "type": "Feature", "properties": { "内容": "ハートホーム小郡脳活性リハビリ【認知症対応型通所介護】山口市小郡下郷2222-3", "url": "https://www.kaigokensaku.mhlw.go.jp/35/index.php?action_kouhyou_detail_004_kani=true&JigyosyoCd=3590300251-00&ServiceCd=720&Type=search", "url2": "http://www.seirankai.or.jp" }, "geometry": { "type": "Point", "coordinates": [ 131.391528616532923, 34.098832478362915 ] } },
{ "type": "Feature", "properties": { "内容": "ハートホーム南山口脳活性リハビリ【認知症対応型通所介護】山口県山口市深溝803-1", "url": "https://www.kaigokensaku.mhlw.go.jp/35/index.php?action_kouhyou_detail_004_kani=true&JigyosyoCd=3590300145-00&ServiceCd=720&Type=search", "url2": "http//www.seirankai.or.jp" }, "geometry": { "type": "Point", "coordinates": [ 131.36716320000005, 34.0515201 ] } },
{ "type": "Feature", "properties": { "内容": "ハートハウス吉敷脳活性リハビリ【認知症対応型通所介護】山口県山口市吉敷中東一丁目7-1", "url": "https://www.kaigokensaku.mhlw.go.jp/35/index.php?action_kouhyou_detail_004_kani=true&JigyosyoCd=3590300343-00&ServiceCd=720&Type=search", "url2": "http//www.seirankai.or.jp" }, "geometry": { "type": "Point", "coordinates": [ 131.446611100000013, 34.1675378 ] } },
{ "type": "Feature", "properties": { "内容": "ハートホーム宮野脳活性リハビリ【認知症対応型通所介護】山口県山口市宮野下2997-5", "url": "https://www.kaigokensaku.mhlw.go.jp/35/index.php?action_kouhyou_detail_004_kani=true&JigyosyoCd=3590300194-00&ServiceCd=720&Type=search", "url2": "http.www.seirankai.or.jp" }, "geometry": { "type": "Point", "coordinates": [ 131.504700800000023, 34.1996501 ] } },
{ "type": "Feature", "properties": { "内容": "ハートハウス大歳脳活性リハビリ【認知症対応型通所介護】山口県山口市朝田751-1", "url": "https://www.kaigokensaku.mhlw.go.jp/35/index.php?action_kouhyou_detail_004_kani=true&JigyosyoCd=3590300228-00&ServiceCd=720&Type=search", "url2": "http://www.seirankai.or.jp" }, "geometry": { "type": "Point", "coordinates": [ 131.422164899999984, 34.136701 ] } },
{ "type": "Feature", "properties": { "内容": "ハートハウス大内脳活性リハビリ【認知症対応型通所介護】山口県山口市大内千坊五丁目6番19号", "url": "https://www.kaigokensaku.mhlw.go.jp/35/index.php?action_kouhyou_detail_004_kani=true&JigyosyoCd=3590300137-00&ServiceCd=720&Type=search", "url2": "http//www.seirankai.or.jp" }, "geometry": { "type": "Point", "coordinates": [ 131.491573099999954, 34.157173 ] } },
{ "type": "Feature", "properties": { "内容": "はぴね周南【認知症対応型通所介護】山口県下松市河内1070-1", "url": "https://www.kaigokensaku.mhlw.go.jp/35/index.php?action_kouhyou_detail_004_kani=true&JigyosyoCd=3590700104-00&ServiceCd=720&Type=search", "url2": "happinesyunan@greenlife-inc.co.jp" }, "geometry": { "type": "Point", "coordinates": [ 131.899845137794216, 34.022733715569096 ] } },
{ "type": "Feature", "properties": { "内容": "デイサービスセンターさくらんぼ坂上ケアセンター【認知症対応型通所介護】山口県岩国市美和町渋前９７７－１", "url": "https://www.kaigokensaku.mhlw.go.jp/35/index.php?action_kouhyou_detail_004_kani=true&JigyosyoCd=3577200664-00&ServiceCd=720&Type=search", "url2": "i-shinseikai.or.jp/organization/s-sakaue/" }, "geometry": { "type": "Point", "coordinates": [ 132.0984757, 34.221121 ] } },
{ "type": "Feature", "properties": { "内容": "デイサービスセンター　山手倶楽部【認知症対応型通所介護】山口県岩国市山手町1-5-11", "url": "https://www.kaigokensaku.mhlw.go.jp/35/index.php?action_kouhyou_detail_004_kani=true&JigyosyoCd=3590800326-00&ServiceCd=720&Type=search", "url2": "http://www.i-shinseikai.or.jp/" }, "geometry": { "type": "Point", "coordinates": [ 132.216408525131186, 34.170484897403135 ] } },
{ "type": "Feature", "properties": { "内容": "共用型デイサービス錦帯橋・みどりの家【認知症対応型通所介護】山口県岩国市岩国１丁目２０番３６号", "url": "https://www.kaigokensaku.mhlw.go.jp/35/index.php?action_kouhyou_detail_004_kani=true&JigyosyoCd=3590800482-00&ServiceCd=720&Type=search", "url2": "http://www.epocaclub.com/midori/index.htm" }, "geometry": { "type": "Point", "coordinates": [ 132.1811993, 34.1669443 ] } },
{ "type": "Feature", "properties": { "内容": "デイサービス　つづ倶楽部【認知症対応型通所介護】山口県岩国市通津２４７０番地", "url": "https://www.kaigokensaku.mhlw.go.jp/35/index.php?action_kouhyou_detail_004_kani=true&JigyosyoCd=3590800045-00&ServiceCd=720&Type=search", "url2": "http://www.nanwakai.jp/" }, "geometry": { "type": "Point", "coordinates": [ 132.207587371827657, 34.072647833239479 ] } },
{ "type": "Feature", "properties": { "内容": "デイサービスセンターさくらんぼ平田ケアセンター【認知症対応型通所介護】山口県岩国市平田６丁目３３－４", "url": "https://www.kaigokensaku.mhlw.go.jp/35/index.php?action_kouhyou_detail_004_kani=true&JigyosyoCd=3570801013-00&ServiceCd=720&Type=search", "url2": null }, "geometry": { "type": "Point", "coordinates": [ 132.186392120098816, 34.136674271303846 ] } },
{ "type": "Feature", "properties": { "内容": "いしいケア・クリニック　デイサービスセンターわかば【認知症対応型通所介護】山口県岩国市麻里布町3-5-5", "url": "https://www.kaigokensaku.mhlw.go.jp/35/index.php?action_kouhyou_detail_004_kani=true&JigyosyoCd=3590800342-00&ServiceCd=720&Type=search", "url2": "http://www.i-shinseikai.or.jp" }, "geometry": { "type": "Point", "coordinates": [ 132.222578200000044, 34.1701584 ] } },
{ "type": "Feature", "properties": { "内容": "ゆもと苑デイサービスセンター【認知症対応型通所介護】山口県長門市深川湯本１０６００番地１", "url": "https://www.kaigokensaku.mhlw.go.jp/35/index.php?action_kouhyou_detail_004_kani=true&JigyosyoCd=3571100076-00&ServiceCd=720&Type=search", "url2": "https://www.fukushoukai.or.jp" }, "geometry": { "type": "Point", "coordinates": [ 131.178624600000035, 34.339081899999982 ] } },
{ "type": "Feature", "properties": { "内容": "デイサービスゆうなぎ【認知症対応型通所介護】山口県長門市仙崎10040番地1", "url": "https://www.kaigokensaku.mhlw.go.jp/35/index.php?action_kouhyou_detail_004_kani=true&JigyosyoCd=3591100064-00&ServiceCd=720&Type=search", "url2": null }, "geometry": { "type": "Point", "coordinates": [ 131.205462, 34.376581 ] } },
{ "type": "Feature", "properties": { "内容": "デイサービス　おかでら荘【認知症対応型通所介護】山口県周南市大字樋口262番地1", "url": "https://www.kaigokensaku.mhlw.go.jp/35/index.php?action_kouhyou_detail_004_kani=true&JigyosyoCd=3591500164-00&ServiceCd=720&Type=search", "url2": "https://okadera.grupo.jp/" }, "geometry": { "type": "Point", "coordinates": [ 131.9784353, 34.0618065 ] } },
{ "type": "Feature", "properties": { "内容": "デイサービスセンター　こうよう紫苑【認知症対応型通所介護】山陽小野田市大字郡字浜3233番7", "url": "https://www.kaigokensaku.mhlw.go.jp/35/index.php?action_kouhyou_detail_004_kani=true&JigyosyoCd=3591600055-00&ServiceCd=720&Type=search", "url2": "http://asashion.wixsite.com/kenjinkai" }, "geometry": { "type": "Point", "coordinates": [ 131.169033600000034, 34.0475891 ] } },
{ "type": "Feature", "properties": { "内容": "デイサービスいつは【認知症対応型通所介護】山口県山陽小野田市住吉本町二丁目7番20号", "url": "https://www.kaigokensaku.mhlw.go.jp/35/index.php?action_kouhyou_detail_004_kani=true&JigyosyoCd=3591600147-00&ServiceCd=720&Type=search", "url2": "http://hayakawanaika.com/" }, "geometry": { "type": "Point", "coordinates": [ 131.180289899999906, 33.9797797 ] } },
{ "type": "Feature", "properties": { "内容": "デイサービスなみおと【認知症対応型通所介護】山口県山陽小野田市大字小野田１１４７－１３", "url": "https://www.kaigokensaku.mhlw.go.jp/35/index.php?action_kouhyou_detail_004_kani=true&JigyosyoCd=3591600097-00&ServiceCd=720&Type=search", "url2": "http://hayakawanaika.com/namioto/" }, "geometry": { "type": "Point", "coordinates": [ 131.171974, 33.9432715 ] } },
{ "type": "Feature", "properties": { "内容": "デイサービスほほえみ【認知症対応型通所介護】山陽小野田市大字小野田7393-2", "url": "https://www.kaigokensaku.mhlw.go.jp/35/index.php?action_kouhyou_detail_004_kani=true&JigyosyoCd=3570900377-00&ServiceCd=720&Type=search", "url2": null }, "geometry": { "type": "Point", "coordinates": [ 131.191576391046425, 34.00106623690948 ] } },
{ "type": "Feature", "properties": { "内容": "デイサ－ビスほほえみ有帆【認知症対応型通所介護】山陽小野田市大字小野田７３９９", "url": "https://www.kaigokensaku.mhlw.go.jp/35/index.php?action_kouhyou_detail_004_kani=true&JigyosyoCd=3570900435-00&ServiceCd=720&Type=search", "url2": null }, "geometry": { "type": "Point", "coordinates": [ 131.191348173628313, 34.001711023398265 ] } },
{ "type": "Feature", "properties": { "内容": "デイサービスほほえみの里【認知症対応型通所介護】山陽小野田市大字小野田7408", "url": "https://www.kaigokensaku.mhlw.go.jp/35/index.php?action_kouhyou_detail_004_kani=true&JigyosyoCd=3591600188-00&ServiceCd=720&Type=search", "url2": null }, "geometry": { "type": "Point", "coordinates": [ 131.191444100000012, 34.0020722 ] } },
{ "type": "Feature", "properties": { "内容": "デイサービスひなたぼっこ【認知症対応型通所介護】山口県山陽小野田市須恵1-12-21", "url": "https://www.kaigokensaku.mhlw.go.jp/35/index.php?action_kouhyou_detail_004_kani=true&JigyosyoCd=3591600162-00&ServiceCd=720&Type=search", "url2": "https://www.murashigeiin.com/dayservicehinata" }, "geometry": { "type": "Point", "coordinates": [ 131.178545116814917, 33.972571013020513 ] } },
{ "type": "Feature", "properties": { "内容": "認知症デイサービスとまりの郷【認知症対応型通所介護】山口県山陽小野田市大字西高泊10760番3", "url": "https://www.kaigokensaku.mhlw.go.jp/35/index.php?action_kouhyou_detail_004_kani=true&JigyosyoCd=3591600105-00&ServiceCd=720&Type=search", "url2": null }, "geometry": { "type": "Point", "coordinates": [ 131.168939799999947, 34.0121428 ] } },
{ "type": "Feature", "properties": { "内容": "デイサービスほほえみ西の浜【認知症対応型通所介護】山陽小野田市南竜王町１２－１６", "url": "https://www.kaigokensaku.mhlw.go.jp/35/index.php?action_kouhyou_detail_004_kani=true&JigyosyoCd=3591600196-00&ServiceCd=720&Type=search", "url2": null }, "geometry": { "type": "Point", "coordinates": [ 131.174621099999968, 33.9645866 ] } }
]
}
