{
"type": "FeatureCollection",
"name": "geo_35_認知症対応型共同生活介護",
"crs": { "type": "name", "properties": { "name": "urn:ogc:def:crs:OGC:1.3:CRS84" } },
"features": [
{ "type": "Feature", "properties": { "内容": "グループホーム　あじさい【認知症対応型共同生活介護】山口県下関市豊浦町大字黒井１５３６－１", "url": "https://www.kaigokensaku.mhlw.go.jp/35/index.php?action_kouhyou_detail_004_kani=true&JigyosyoCd=3577800315-00&ServiceCd=320&Type=search", "url2": "http://takurousho-ajisai.com/" }, "geometry": { "type": "Point", "coordinates": [ 130.912201700524832, 34.122161665995286 ] } },
{ "type": "Feature", "properties": { "内容": "グループホーム　あじさい室津【認知症対応型共同生活介護】山口県下関市豊浦町大字室津下1443-1", "url": "https://www.kaigokensaku.mhlw.go.jp/35/index.php?action_kouhyou_detail_004_kani=true&JigyosyoCd=3577800422-00&ServiceCd=320&Type=search", "url2": "http://takurousho-ajisai.com/" }, "geometry": { "type": "Point", "coordinates": [ 130.8826259, 34.137011 ] } },
{ "type": "Feature", "properties": { "内容": "グループホーム　シャンバラ【認知症対応型共同生活介護】下関市小月茶屋2丁目8-27", "url": "https://www.kaigokensaku.mhlw.go.jp/35/index.php?action_kouhyou_detail_004_kani=true&JigyosyoCd=3590104083-00&ServiceCd=320&Type=search", "url2": "oka-hospital.byoinnavi.jp" }, "geometry": { "type": "Point", "coordinates": [ 131.030046500000026, 34.0663041 ] } },
{ "type": "Feature", "properties": { "内容": "グループホーム愛の郷【認知症対応型共同生活介護】山口県下関市一の宮東町3丁目380-1", "url": "https://www.kaigokensaku.mhlw.go.jp/35/index.php?action_kouhyou_detail_004_kani=true&JigyosyoCd=3570101687-00&ServiceCd=320&Type=search", "url2": null }, "geometry": { "type": "Point", "coordinates": [ 130.964057855819675, 34.003767505786925 ] } },
{ "type": "Feature", "properties": { "内容": "グループホームあやらぎ【認知症対応型共同生活介護】山口県下関市綾羅木新町１丁目１６－１３", "url": "https://www.kaigokensaku.mhlw.go.jp/35/index.php?action_kouhyou_detail_004_kani=true&JigyosyoCd=3590104018-00&ServiceCd=320&Type=search", "url2": null }, "geometry": { "type": "Point", "coordinates": [ 130.921226199999978, 34.0114587 ] } },
{ "type": "Feature", "properties": { "内容": "グループホームあやらぎの里【認知症対応型共同生活介護】下関市綾羅木新町2-2-9", "url": "https://www.kaigokensaku.mhlw.go.jp/35/index.php?action_kouhyou_detail_004_kani=true&JigyosyoCd=3590104158-00&ServiceCd=320&Type=search", "url2": null }, "geometry": { "type": "Point", "coordinates": [ 130.920815100000027, 34.0127697 ] } },
{ "type": "Feature", "properties": { "内容": "グループホームやすおかの里【認知症対応型共同生活介護】下関市安岡町７－７－１", "url": "https://www.kaigokensaku.mhlw.go.jp/35/index.php?action_kouhyou_detail_004_kani=true&JigyosyoCd=3590109173-00&ServiceCd=320&Type=search", "url2": null }, "geometry": { "type": "Point", "coordinates": [ 130.923701577103344, 34.029391165821501 ] } },
{ "type": "Feature", "properties": { "内容": "グループホーム一の宮の里【認知症対応型共同生活介護】下関市一の宮学園町19-1", "url": "https://www.kaigokensaku.mhlw.go.jp/35/index.php?action_kouhyou_detail_004_kani=true&JigyosyoCd=3590104133-00&ServiceCd=320&Type=search", "url2": "htthttp://www.akatsukikai.com" }, "geometry": { "type": "Point", "coordinates": [ 130.947351362040763, 33.997195966008221 ] } },
{ "type": "Feature", "properties": { "内容": "グループホーム　わたぼうし【認知症対応型共同生活介護】山口県下関市横野町3丁目16番35号", "url": "https://www.kaigokensaku.mhlw.go.jp/35/index.php?action_kouhyou_detail_004_kani=true&JigyosyoCd=3570100721-00&ServiceCd=320&Type=search", "url2": "http://www.syoutoukai.or.jp/yasuoka/index.html" }, "geometry": { "type": "Point", "coordinates": [ 130.909568199999967, 34.03475 ] } },
{ "type": "Feature", "properties": { "内容": "グループホーム王喜の郷ライム【認知症対応型共同生活介護】山口県下関市王喜本町4丁目1番6号", "url": "https://www.kaigokensaku.mhlw.go.jp/35/index.php?action_kouhyou_detail_004_kani=true&JigyosyoCd=3590104232-00&ServiceCd=320&Type=search", "url2": "http://www.ryokujukai.jp/" }, "geometry": { "type": "Point", "coordinates": [ 131.0505866, 34.0682538 ] } },
{ "type": "Feature", "properties": { "内容": "グループホーム王喜の郷【認知症対応型共同生活介護】山口県下関市王喜本町6丁目1番12号", "url": "https://www.kaigokensaku.mhlw.go.jp/35/index.php?action_kouhyou_detail_004_kani=true&JigyosyoCd=3570101125-00&ServiceCd=320&Type=search", "url2": "http://www.ryokujukai.jp/" }, "geometry": { "type": "Point", "coordinates": [ 131.052084, 34.0636432 ] } },
{ "type": "Feature", "properties": { "内容": "グループホーム王司【認知症対応型共同生活介護】山口県下関市王司川端1丁目4番56-2", "url": "https://www.kaigokensaku.mhlw.go.jp/35/index.php?action_kouhyou_detail_004_kani=true&JigyosyoCd=3590104224-00&ServiceCd=320&Type=search", "url2": null }, "geometry": { "type": "Point", "coordinates": [ 131.0180923, 34.0480882 ] } },
{ "type": "Feature", "properties": { "内容": "グループホーム　フロイデ金比羅【認知症対応型共同生活介護】山口県下関市金比羅町10番1号", "url": "https://www.kaigokensaku.mhlw.go.jp/35/index.php?action_kouhyou_detail_004_kani=true&JigyosyoCd=3590104125-00&ServiceCd=320&Type=search", "url2": "http://syoutoukai.or.jp" }, "geometry": { "type": "Point", "coordinates": [ 130.919480332540786, 33.969632033302844 ] } },
{ "type": "Feature", "properties": { "内容": "グループホーム形山【認知症対応型共同生活介護】山口県下関市形山町5-57", "url": "https://www.kaigokensaku.mhlw.go.jp/35/index.php?action_kouhyou_detail_004_kani=true&JigyosyoCd=3590104216-00&ServiceCd=320&Type=search", "url2": null }, "geometry": { "type": "Point", "coordinates": [ 130.9577415, 34.0148135 ] } },
{ "type": "Feature", "properties": { "内容": "グループホーム　元町【認知症対応型共同生活介護】山口県下関市元町１－７", "url": "https://www.kaigokensaku.mhlw.go.jp/35/index.php?action_kouhyou_detail_004_kani=true&JigyosyoCd=3590104182-00&ServiceCd=320&Type=search", "url2": "https://www.e-saving.jp/" }, "geometry": { "type": "Point", "coordinates": [ 130.924444200000011, 33.9668206 ] } },
{ "type": "Feature", "properties": { "内容": "グループホームあかつきの里【認知症対応型共同生活介護】山口県下関市汐入町36-6", "url": "https://www.kaigokensaku.mhlw.go.jp/35/index.php?action_kouhyou_detail_004_kani=true&JigyosyoCd=3570100713-00&ServiceCd=320&Type=search", "url2": "akatsukikai.com" }, "geometry": { "type": "Point", "coordinates": [ 130.91559331468045, 33.972341911412542 ] } },
{ "type": "Feature", "properties": { "内容": "グループホーム小月【認知症対応型共同生活介護】山口県下関市宮の町７－３", "url": "https://www.kaigokensaku.mhlw.go.jp/35/index.php?action_kouhyou_detail_004_kani=true&JigyosyoCd=3590104034-00&ServiceCd=320&Type=search", "url2": "http://www.e-saving.jp/" }, "geometry": { "type": "Point", "coordinates": [ 131.039107400000034, 34.0714975 ] } },
{ "type": "Feature", "properties": { "内容": "グループホームフェニックスの里【認知症対応型共同生活介護】下関市大字小野64番地の1", "url": "https://www.kaigokensaku.mhlw.go.jp/35/index.php?action_kouhyou_detail_004_kani=true&JigyosyoCd=3570101448-00&ServiceCd=320&Type=search", "url2": "http://www.akatsukikai.com" }, "geometry": { "type": "Point", "coordinates": [ 130.962081099999978, 34.0352978 ] } },
{ "type": "Feature", "properties": { "内容": "医療法人茜会　ケアシティ白雲台【認知症対応型共同生活介護】山口県下関市上田中町8-14-5ケアシティ白雲台", "url": "https://www.kaigokensaku.mhlw.go.jp/35/index.php?action_kouhyou_detail_004_kani=true&JigyosyoCd=3590104109-00&ServiceCd=320&Type=search", "url2": null }, "geometry": { "type": "Point", "coordinates": [ 130.933459699999958, 33.9624163 ] } },
{ "type": "Feature", "properties": { "内容": "サンキ・ウエルビィグループホーム下関【認知症対応型共同生活介護】山口県下関市生野町一丁目４番１０―２号", "url": "https://www.kaigokensaku.mhlw.go.jp/35/index.php?action_kouhyou_detail_004_kani=true&JigyosyoCd=3590104075-00&ServiceCd=320&Type=search", "url2": null }, "geometry": { "type": "Point", "coordinates": [ 130.934788309227315, 33.981406053478338 ] } },
{ "type": "Feature", "properties": { "内容": "グループホーム昇陽館【認知症対応型共同生活介護】山口県下関市長府黒門南町６番５４号昇陽館", "url": "https://www.kaigokensaku.mhlw.go.jp/35/index.php?action_kouhyou_detail_004_kani=true&JigyosyoCd=3570101133-00&ServiceCd=320&Type=search", "url2": "http://www.shinsetsu.net" }, "geometry": { "type": "Point", "coordinates": [ 130.986006800000041, 33.9844809 ] } },
{ "type": "Feature", "properties": { "内容": "グループホーム夢ごこち【認知症対応型共同生活介護】山口県下関市長府才川1-41-76特別養護老人ホーム夢ごこち内　３階", "url": "https://www.kaigokensaku.mhlw.go.jp/35/index.php?action_kouhyou_detail_004_kani=true&JigyosyoCd=3590104166-00&ServiceCd=320&Type=search", "url2": null }, "geometry": { "type": "Point", "coordinates": [ 131.006516, 34.0257827 ] } },
{ "type": "Feature", "properties": { "内容": "グループホームケアタウン江の浦【認知症対応型共同生活介護】山口県下関市彦島江の浦9丁目4-5", "url": "https://www.kaigokensaku.mhlw.go.jp/35/index.php?action_kouhyou_detail_004_kani=true&JigyosyoCd=3590104042-00&ServiceCd=320&Type=search", "url2": "http://www.syoutoukai.or.jp/" }, "geometry": { "type": "Point", "coordinates": [ 130.917858600000045, 33.9299053 ] } },
{ "type": "Feature", "properties": { "内容": "グループホーム　フロイデ彦島【認知症対応型共同生活介護】下関市彦島西山町3丁目12番1号", "url": "https://www.kaigokensaku.mhlw.go.jp/35/index.php?action_kouhyou_detail_004_kani=true&JigyosyoCd=3570102362-00&ServiceCd=320&Type=search", "url2": "http://www.shoutoukai.or.jp" }, "geometry": { "type": "Point", "coordinates": [ 130.879868200000033, 33.9448667 ] } },
{ "type": "Feature", "properties": { "内容": "アイユウの苑グループホーム【認知症対応型共同生活介護】山口県下関市彦島田の首町一丁目１番３２号", "url": "https://www.kaigokensaku.mhlw.go.jp/35/index.php?action_kouhyou_detail_004_kani=true&JigyosyoCd=3570102271-00&ServiceCd=320&Type=search", "url2": "http://www.shoubikai.or.jp" }, "geometry": { "type": "Point", "coordinates": [ 130.916086800000016, 33.9196732 ] } },
{ "type": "Feature", "properties": { "内容": "グループホームケアタウン山の田【認知症対応型共同生活介護】山口県下関市武久町１丁目１９番３０号", "url": "https://www.kaigokensaku.mhlw.go.jp/35/index.php?action_kouhyou_detail_004_kani=true&JigyosyoCd=3590104026-00&ServiceCd=320&Type=search", "url2": "http://www.shoutoukai.or.jp/yamanota_caretown.html" }, "geometry": { "type": "Point", "coordinates": [ 130.926859799999988, 33.9842032 ] } },
{ "type": "Feature", "properties": { "内容": "グループホームたけひさ【認知症対応型共同生活介護】武久町1-48-32", "url": "https://www.kaigokensaku.mhlw.go.jp/35/index.php?action_kouhyou_detail_004_kani=true&JigyosyoCd=3590104190-00&ServiceCd=320&Type=search", "url2": null }, "geometry": { "type": "Point", "coordinates": [ 130.9234971, 33.9843296 ] } },
{ "type": "Feature", "properties": { "内容": "グループホーム　あいの家【認知症対応型共同生活介護】下関市豊浦町大字宇賀7378-19", "url": "https://www.kaigokensaku.mhlw.go.jp/35/index.php?action_kouhyou_detail_004_kani=true&JigyosyoCd=3577800398-00&ServiceCd=320&Type=search", "url2": null }, "geometry": { "type": "Point", "coordinates": [ 130.932964, 34.2070663 ] } },
{ "type": "Feature", "properties": { "内容": "グループホーム豊田【認知症対応型共同生活介護】山口県下関市豊田町大字中村7-1ハナミズキ館・ひまわり館", "url": "https://www.kaigokensaku.mhlw.go.jp/35/index.php?action_kouhyou_detail_004_kani=true&JigyosyoCd=3590104208-00&ServiceCd=320&Type=search", "url2": null }, "geometry": { "type": "Point", "coordinates": [ 131.078741700000023, 34.2001616 ] } },
{ "type": "Feature", "properties": { "内容": "グループホーム豊田喜楽園【認知症対応型共同生活介護】山口県下関市豊田町大字中村819-1グループホーム豊田喜楽園", "url": "https://www.kaigokensaku.mhlw.go.jp/35/index.php?action_kouhyou_detail_004_kani=true&JigyosyoCd=3590104117-00&ServiceCd=320&Type=search", "url2": "http://houyuukai.or.jp/" }, "geometry": { "type": "Point", "coordinates": [ 131.069002374868774, 34.184022487806487 ] } },
{ "type": "Feature", "properties": { "内容": "下関市社協グループホームしまど【認知症対応型共同生活介護】山口県下関市豊北町大字神田４６１１番地の２", "url": "https://www.kaigokensaku.mhlw.go.jp/35/index.php?action_kouhyou_detail_004_kani=true&JigyosyoCd=3570101943-00&ServiceCd=320&Type=search", "url2": null }, "geometry": { "type": "Point", "coordinates": [ 130.905916915166472, 34.354102660676965 ] } },
{ "type": "Feature", "properties": { "内容": "下関市社協グループホームそまじ【認知症対応型共同生活介護】山口県下関市豊北町大字田耕2790番地", "url": "https://www.kaigokensaku.mhlw.go.jp/35/index.php?action_kouhyou_detail_004_kani=true&JigyosyoCd=3570101927-00&ServiceCd=320&Type=search", "url2": null }, "geometry": { "type": "Point", "coordinates": [ 130.994097099999976, 34.2728948 ] } },
{ "type": "Feature", "properties": { "内容": "グループホーム　椋野【認知症対応型共同生活介護】山口県下関市椋野町３丁目２２番４３号", "url": "https://www.kaigokensaku.mhlw.go.jp/35/index.php?action_kouhyou_detail_004_kani=true&JigyosyoCd=3590104059-00&ServiceCd=320&Type=search", "url2": null }, "geometry": { "type": "Point", "coordinates": [ 130.943939, 33.9805507 ] } },
{ "type": "Feature", "properties": { "内容": "グループホーム椋野弐番館【認知症対応型共同生活介護】下関市椋野３丁目４－２６", "url": "https://www.kaigokensaku.mhlw.go.jp/35/index.php?action_kouhyou_detail_004_kani=true&JigyosyoCd=3590104141-00&ServiceCd=320&Type=search", "url2": "http://www.e-saving" }, "geometry": { "type": "Point", "coordinates": [ 130.947360900000035, 33.9802841 ] } },
{ "type": "Feature", "properties": { "内容": "地域密着型グループホームにじの丘【認知症対応型共同生活介護】山口県下関市菊川町田部223-9", "url": "https://www.kaigokensaku.mhlw.go.jp/35/index.php?action_kouhyou_detail_004_kani=true&JigyosyoCd=3590104091-00&ServiceCd=320&Type=search", "url2": "https:/kikusuikai.jp/" }, "geometry": { "type": "Point", "coordinates": [ 131.0398778, 34.1152957 ] } },
{ "type": "Feature", "properties": { "内容": "グループホームうぐいすの里【認知症対応型共同生活介護】山口県下関市菊川町大字下岡枝1062番地", "url": "https://www.kaigokensaku.mhlw.go.jp/35/index.php?action_kouhyou_detail_004_kani=true&JigyosyoCd=3577800331-00&ServiceCd=320&Type=search", "url2": "https://kikusuikai.jp" }, "geometry": { "type": "Point", "coordinates": [ 131.041999600000054, 34.1268085 ] } },
{ "type": "Feature", "properties": { "内容": "グループホーム　ほほえみ【認知症対応型共同生活介護】山口県下関市豊浦町涌田後地３１－１", "url": "https://www.kaigokensaku.mhlw.go.jp/35/index.php?action_kouhyou_detail_004_kani=true&JigyosyoCd=3577800489-00&ServiceCd=320&Type=search", "url2": null }, "geometry": { "type": "Point", "coordinates": [ 130.916825300000028, 34.1451832 ] } },
{ "type": "Feature", "properties": { "内容": "協立グループホームかいなん【認知症対応型共同生活介護】山口県宇部市海南町5番14号", "url": "https://www.kaigokensaku.mhlw.go.jp/35/index.php?action_kouhyou_detail_004_kani=true&JigyosyoCd=3590200303-00&ServiceCd=320&Type=search", "url2": "ghomekenbunkai@yahoo.co.jp" }, "geometry": { "type": "Point", "coordinates": [ 131.264031700000032, 33.9582332 ] } },
{ "type": "Feature", "properties": { "内容": "グループホームひらき【認知症対応型共同生活介護】宇部市開１丁目6-21", "url": "https://www.kaigokensaku.mhlw.go.jp/35/index.php?action_kouhyou_detail_004_kani=true&JigyosyoCd=3570200851-00&ServiceCd=320&Type=search", "url2": "http://www.mubekouei.com" }, "geometry": { "type": "Point", "coordinates": [ 131.2779557, 33.962538 ] } },
{ "type": "Feature", "properties": { "内容": "むべの里　グループホーム厚南【認知症対応型共同生活介護】宇部市黒石北4丁目5番39号", "url": "https://www.kaigokensaku.mhlw.go.jp/35/index.php?action_kouhyou_detail_004_kani=true&JigyosyoCd=3570200620-00&ServiceCd=320&Type=search", "url2": null }, "geometry": { "type": "Point", "coordinates": [ 131.205181389674408, 33.985917812512014 ] } },
{ "type": "Feature", "properties": { "内容": "グループホーム和らぎ・歓び【認知症対応型共同生活介護】宇部市大字妻崎開作467", "url": "https://www.kaigokensaku.mhlw.go.jp/35/index.php?action_kouhyou_detail_004_kani=true&JigyosyoCd=3570201008-00&ServiceCd=320&Type=search", "url2": null }, "geometry": { "type": "Point", "coordinates": [ 131.204704598811276, 33.983801104340323 ] } },
{ "type": "Feature", "properties": { "内容": "宇部西グループホーム【認知症対応型共同生活介護】山口県宇部市際波287-1", "url": "https://www.kaigokensaku.mhlw.go.jp/35/index.php?action_kouhyou_detail_004_kani=true&JigyosyoCd=3570200919-00&ServiceCd=320&Type=search", "url2": "http://www.wadokai.or.jp/ube-nishi/" }, "geometry": { "type": "Point", "coordinates": [ 131.224208, 33.9963591 ] } },
{ "type": "Feature", "properties": { "内容": "グループホームオアシスことしば【認知症対応型共同生活介護】山口県宇部市寿町3丁目2-5", "url": "https://www.kaigokensaku.mhlw.go.jp/35/index.php?action_kouhyou_detail_004_kani=true&JigyosyoCd=3570200992-00&ServiceCd=320&Type=search", "url2": "http://www.jinsinkai.or.jp/" }, "geometry": { "type": "Point", "coordinates": [ 131.253482599999984, 33.9514672 ] } },
{ "type": "Feature", "properties": { "内容": "医療法人仁心会　グループホームあっぷる【認知症対応型共同生活介護】宇部市昭和町１丁目９ー３", "url": "https://www.kaigokensaku.mhlw.go.jp/35/index.php?action_kouhyou_detail_004_kani=true&JigyosyoCd=3570200703-00&ServiceCd=320&Type=search", "url2": null }, "geometry": { "type": "Point", "coordinates": [ 131.2525273, 33.9434125 ] } },
{ "type": "Feature", "properties": { "内容": "グループホーム宇部【認知症対応型共同生活介護】宇部市大字西岐波229-3", "url": "https://www.kaigokensaku.mhlw.go.jp/35/index.php?action_kouhyou_detail_004_kani=true&JigyosyoCd=3570200828-00&ServiceCd=320&Type=search", "url2": "http://www.ubereha.jp/facility/gh_ube.html" }, "geometry": { "type": "Point", "coordinates": [ 131.303293, 33.966558 ] } },
{ "type": "Feature", "properties": { "内容": "グループホーム喜楽苑【認知症対応型共同生活介護】宇部市西岐波5224-3グループホーム　喜楽苑", "url": "https://www.kaigokensaku.mhlw.go.jp/35/index.php?action_kouhyou_detail_004_kani=true&JigyosyoCd=3570200869-00&ServiceCd=320&Type=search", "url2": "m-kirakuen.com/" }, "geometry": { "type": "Point", "coordinates": [ 131.304817899999989, 33.9680384 ] } },
{ "type": "Feature", "properties": { "内容": "グループホームふなき【認知症対応型共同生活介護】宇部市大字船木８３３", "url": "https://www.kaigokensaku.mhlw.go.jp/35/index.php?action_kouhyou_detail_004_kani=true&JigyosyoCd=3577700168-00&ServiceCd=320&Type=search", "url2": "http://www.furoukai.jp" }, "geometry": { "type": "Point", "coordinates": [ 131.191670400000021, 34.0490254 ] } },
{ "type": "Feature", "properties": { "内容": "グループホームオパール光栄【認知症対応型共同生活介護】山口県宇部市大字東岐波１１９６番地１６グループホームオパール光栄", "url": "https://www.kaigokensaku.mhlw.go.jp/35/index.php?action_kouhyou_detail_004_kani=true&JigyosyoCd=3590200584-00&ServiceCd=320&Type=search", "url2": null }, "geometry": { "type": "Point", "coordinates": [ 131.3516689, 33.9942143 ] } },
{ "type": "Feature", "properties": { "内容": "グループホーム「サンきらら」【認知症対応型共同生活介護】宇部市大字東岐波　4327-26グループホーム　サン　きらら", "url": "https://www.kaigokensaku.mhlw.go.jp/35/index.php?action_kouhyou_detail_004_kani=true&JigyosyoCd=3570200778-00&ServiceCd=320&Type=search", "url2": "s-kirara@c-able.ne.jp" }, "geometry": { "type": "Point", "coordinates": [ 131.350391493254051, 33.966645579148405 ] } },
{ "type": "Feature", "properties": { "内容": "神原苑東新川グループホーム【認知症対応型共同生活介護】山口県宇部市東新川町６番１０号", "url": "https://www.kaigokensaku.mhlw.go.jp/35/index.php?action_kouhyou_detail_004_kani=true&JigyosyoCd=3590200253-00&ServiceCd=320&Type=search", "url2": "http://www.kamiharaen.com" }, "geometry": { "type": "Point", "coordinates": [ 131.256001056483456, 33.946166903214099 ] } },
{ "type": "Feature", "properties": { "内容": "グループホームむべ【認知症対応型共同生活介護】宇部市大字東須恵310-5", "url": "https://www.kaigokensaku.mhlw.go.jp/35/index.php?action_kouhyou_detail_004_kani=true&JigyosyoCd=3570200604-00&ServiceCd=320&Type=search", "url2": null }, "geometry": { "type": "Point", "coordinates": [ 131.200415799999973, 33.9916594 ] } },
{ "type": "Feature", "properties": { "内容": "グループホームぬくもりの家【認知症対応型共同生活介護】宇部市大字木田字中山田４０番地２０", "url": "https://www.kaigokensaku.mhlw.go.jp/35/index.php?action_kouhyou_detail_004_kani=true&JigyosyoCd=3570201073-00&ServiceCd=320&Type=search", "url2": "http://www.senjinkai.jp" }, "geometry": { "type": "Point", "coordinates": [ 131.280394323139944, 34.062350302145965 ] } },
{ "type": "Feature", "properties": { "内容": "グループホーム　なのはなの家【認知症対応型共同生活介護】宇部市笹山町２丁目８番１６－４号", "url": "https://www.kaigokensaku.mhlw.go.jp/35/index.php?action_kouhyou_detail_004_kani=true&JigyosyoCd=3570200612-00&ServiceCd=320&Type=search", "url2": null }, "geometry": { "type": "Point", "coordinates": [ 131.262685199999964, 33.938641 ] } },
{ "type": "Feature", "properties": { "内容": "グループホーム藤山【認知症対応型共同生活介護】宇部市東藤曲1丁目5－28", "url": "https://www.kaigokensaku.mhlw.go.jp/35/index.php?action_kouhyou_detail_004_kani=true&JigyosyoCd=3570201057-00&ServiceCd=320&Type=search", "url2": "http://www.mubenosato.com/hugiyama-gh.html" }, "geometry": { "type": "Point", "coordinates": [ 131.235703100000023, 33.968605899999986 ] } },
{ "type": "Feature", "properties": { "内容": "グループホーム　らくや【認知症対応型共同生活介護】山口県宇部市浜町2丁目1-3", "url": "https://www.kaigokensaku.mhlw.go.jp/35/index.php?action_kouhyou_detail_004_kani=true&JigyosyoCd=3570201172-00&ServiceCd=320&Type=search", "url2": "https://familand.jp/" }, "geometry": { "type": "Point", "coordinates": [ 131.237383099999988, 33.9649627 ] } },
{ "type": "Feature", "properties": { "内容": "ハートホーム山口グループホーム【認知症対応型共同生活介護】山口県山口市吉敷中東一丁目1-2", "url": "https://www.kaigokensaku.mhlw.go.jp/35/index.php?action_kouhyou_detail_004_kani=true&JigyosyoCd=3570300651-00&ServiceCd=320&Type=search", "url2": "http://www.seirankai.or.jp" }, "geometry": { "type": "Point", "coordinates": [ 131.446727799999962, 34.1672851 ] } },
{ "type": "Feature", "properties": { "内容": "ハートホーム南山口グループホーム【認知症対応型共同生活介護】山口県山口市深溝803-1", "url": "https://www.kaigokensaku.mhlw.go.jp/35/index.php?action_kouhyou_detail_004_kani=true&JigyosyoCd=3570300768-00&ServiceCd=320&Type=search", "url2": "http://www.seirankai.or.jp" }, "geometry": { "type": "Point", "coordinates": [ 131.36716320000005, 34.0515201 ] } },
{ "type": "Feature", "properties": { "内容": "グループホーム　徳佐あいおい苑【認知症対応型共同生活介護】山口市阿東徳佐中987-5グループホーム　徳佐あいおい苑", "url": "https://www.kaigokensaku.mhlw.go.jp/35/index.php?action_kouhyou_detail_004_kani=true&JigyosyoCd=3597800022-00&ServiceCd=320&Type=search", "url2": "http://hitotsunokai.jp" }, "geometry": { "type": "Point", "coordinates": [ 131.730919299999982, 34.3987491 ] } },
{ "type": "Feature", "properties": { "内容": "グループホーム湯田あいおい苑【認知症対応型共同生活介護】山口市下市町２－１", "url": "https://www.kaigokensaku.mhlw.go.jp/35/index.php?action_kouhyou_detail_004_kani=true&JigyosyoCd=3590300061-00&ServiceCd=320&Type=search", "url2": "http:/hitotsunokai.jp/" }, "geometry": { "type": "Point", "coordinates": [ 131.460079, 34.1634128 ] } },
{ "type": "Feature", "properties": { "内容": "グループホーム山口あかり園【認知症対応型共同生活介護】山口県山口市黒川３３６３番地", "url": "https://www.kaigokensaku.mhlw.go.jp/35/index.php?action_kouhyou_detail_004_kani=true&JigyosyoCd=3570300529-00&ServiceCd=320&Type=search", "url2": "http://www.hakuaikai-yamaguchi.jp" }, "geometry": { "type": "Point", "coordinates": [ 131.438716399999947, 34.1310547 ] } },
{ "type": "Feature", "properties": { "内容": "グループホーム山口リハ【認知症対応型共同生活介護】山口市黒川3380", "url": "https://www.kaigokensaku.mhlw.go.jp/35/index.php?action_kouhyou_detail_004_kani=true&JigyosyoCd=3570300842-00&ServiceCd=320&Type=search", "url2": "http://www.wadokai.or.jp/yamariha" }, "geometry": { "type": "Point", "coordinates": [ 131.438966299999947, 34.1319796 ] } },
{ "type": "Feature", "properties": { "内容": "グループホームグッドスマイルズ【認知症対応型共同生活介護】山口市桜畠2丁目9番32号", "url": "https://www.kaigokensaku.mhlw.go.jp/35/index.php?action_kouhyou_detail_004_kani=true&JigyosyoCd=3590300020-00&ServiceCd=320&Type=search", "url2": null }, "geometry": { "type": "Point", "coordinates": [ 131.502309500000024, 34.1952505 ] } },
{ "type": "Feature", "properties": { "内容": "海の見えるグループホーム　しおさい【認知症対応型共同生活介護】山口市秋穂西３３１７－１", "url": "https://www.kaigokensaku.mhlw.go.jp/35/index.php?action_kouhyou_detail_004_kani=true&JigyosyoCd=3590300038-00&ServiceCd=320&Type=search", "url2": "http://www.shiosai-aio.com/" }, "geometry": { "type": "Point", "coordinates": [ 131.416034299999978, 34.0152861 ] } },
{ "type": "Feature", "properties": { "内容": "グループホーム　秋穂あかり園【認知症対応型共同生活介護】山口市秋穂東3980番地", "url": "https://www.kaigokensaku.mhlw.go.jp/35/index.php?action_kouhyou_detail_004_kani=true&JigyosyoCd=3577600269-00&ServiceCd=320&Type=search", "url2": "http://www.hakuaikai-yamaguchi.jp/" }, "geometry": { "type": "Point", "coordinates": [ 131.444992400000046, 34.0142506 ] } },
{ "type": "Feature", "properties": { "内容": "きらら苑グループホーム【認知症対応型共同生活介護】山口市秋穂二島３２７番地４４", "url": "https://www.kaigokensaku.mhlw.go.jp/35/index.php?action_kouhyou_detail_004_kani=true&JigyosyoCd=3570300917-00&ServiceCd=320&Type=search", "url2": "www.kiraraen.jp" }, "geometry": { "type": "Point", "coordinates": [ 131.395730500000013, 34.0331838 ] } },
{ "type": "Feature", "properties": { "内容": "グループホーム　はるひ苑【認知症対応型共同生活介護】山口市仁保中郷2321番地2", "url": "https://www.kaigokensaku.mhlw.go.jp/35/index.php?action_kouhyou_detail_004_kani=true&JigyosyoCd=3578100384-00&ServiceCd=320&Type=search", "url2": "http://www.haruhi-fs.com" }, "geometry": { "type": "Point", "coordinates": [ 131.556191756080239, 34.206543881138145 ] } },
{ "type": "Feature", "properties": { "内容": "有限会社　タカノホーム・スイート【認知症対応型共同生活介護】山口県山口市大内御堀五丁目１９番１０号", "url": "https://www.kaigokensaku.mhlw.go.jp/35/index.php?action_kouhyou_detail_004_kani=true&JigyosyoCd=3570300628-00&ServiceCd=320&Type=search", "url2": null }, "geometry": { "type": "Point", "coordinates": [ 131.491874075918531, 34.163812623526979 ] } },
{ "type": "Feature", "properties": { "内容": "グループホーム陶ヶ岳【認知症対応型共同生活介護】山口市鋳銭司12361－38", "url": "https://www.kaigokensaku.mhlw.go.jp/35/index.php?action_kouhyou_detail_004_kani=true&JigyosyoCd=3590300202-00&ServiceCd=320&Type=search", "url2": null }, "geometry": { "type": "Point", "coordinates": [ 131.439033800000061, 34.0707778 ] } },
{ "type": "Feature", "properties": { "内容": "社会福祉法人恩賜財団済生会支部山口県済生会　山口地域ケアセンター　グループホームあさくら【認知症対応型共同生活介護】山口市朝倉町４番５５－６号グループホームあさくら", "url": "https://www.kaigokensaku.mhlw.go.jp/35/index.php?action_kouhyou_detail_004_kani=true&JigyosyoCd=3570300909-00&ServiceCd=320&Type=search", "url2": "http://saiseikai-care-y.jp/" }, "geometry": { "type": "Point", "coordinates": [ 131.453639725795028, 34.17601941729518 ] } },
{ "type": "Feature", "properties": { "内容": "グループホームかじかの里【認知症対応型共同生活介護】山口県山口市徳地八坂1330", "url": "https://www.kaigokensaku.mhlw.go.jp/35/index.php?action_kouhyou_detail_004_kani=true&JigyosyoCd=3577500113-00&ServiceCd=320&Type=search", "url2": "www.tokudien.jp" }, "geometry": { "type": "Point", "coordinates": [ 131.659968299999946, 34.2341075 ] } },
{ "type": "Feature", "properties": { "内容": "グループホーム希望の里【認知症対応型共同生活介護】山口県山口市鋳銭司12361番地の3", "url": "https://www.kaigokensaku.mhlw.go.jp/35/index.php?action_kouhyou_detail_004_kani=true&JigyosyoCd=3570300453-00&ServiceCd=320&Type=search", "url2": "http://www.aikawaiin.or.jp/baikouen/grouphome/" }, "geometry": { "type": "Point", "coordinates": [ 131.4662707, 34.0856231 ] } },
{ "type": "Feature", "properties": { "内容": "グループホーム徳地あいおい苑【認知症対応型共同生活介護】山口市徳地掘１７８５番地１", "url": "https://www.kaigokensaku.mhlw.go.jp/35/index.php?action_kouhyou_detail_004_kani=true&JigyosyoCd=3590300103-00&ServiceCd=320&Type=search", "url2": "http://hitotsunokai.jp/yamaguchi/tokuji-aioien" }, "geometry": { "type": "Point", "coordinates": [ 131.655352499999907, 34.1875736 ] } },
{ "type": "Feature", "properties": { "内容": "グループホーム　白松苑【認知症対応型共同生活介護】山口県山口市阿知須４９００番地４", "url": "https://www.kaigokensaku.mhlw.go.jp/35/index.php?action_kouhyou_detail_004_kani=true&JigyosyoCd=3577600244-00&ServiceCd=320&Type=search", "url2": "http://www.hakusyoen.jp/" }, "geometry": { "type": "Point", "coordinates": [ 131.354618100000039, 34.014832 ] } },
{ "type": "Feature", "properties": { "内容": "グループホームぬくもり【認知症対応型共同生活介護】山口県萩市大字江崎55番地", "url": "https://www.kaigokensaku.mhlw.go.jp/35/index.php?action_kouhyou_detail_004_kani=true&JigyosyoCd=3590400028-00&ServiceCd=320&Type=search", "url2": "http://care-net.biz//35/nukumori/" }, "geometry": { "type": "Point", "coordinates": [ 131.655872100000011, 34.6449603 ] } },
{ "type": "Feature", "properties": { "内容": "グループホームほたるの里【認知症対応型共同生活介護】山口県萩市須佐1378-1", "url": "https://www.kaigokensaku.mhlw.go.jp/35/index.php?action_kouhyou_detail_004_kani=true&JigyosyoCd=3578100376-00&ServiceCd=320&Type=search", "url2": "https://susaen.or.jp" }, "geometry": { "type": "Point", "coordinates": [ 131.607869, 34.6128762 ] } },
{ "type": "Feature", "properties": { "内容": "グループホームオアシスはぎ園【認知症対応型共同生活介護】山口県萩市大井1689番地13", "url": "https://www.kaigokensaku.mhlw.go.jp/35/index.php?action_kouhyou_detail_004_kani=true&JigyosyoCd=3570400303-00&ServiceCd=320&Type=search", "url2": "https://jigyodan-yg.jp/hagien/publics/index/19/" }, "geometry": { "type": "Point", "coordinates": [ 131.4448913, 34.4733874 ] } },
{ "type": "Feature", "properties": { "内容": "萩市中津江認知症高齢者グループホームなごみ【認知症対応型共同生活介護】山口県萩市大字椿東315番地6", "url": "https://www.kaigokensaku.mhlw.go.jp/35/index.php?action_kouhyou_detail_004_kani=true&JigyosyoCd=3570400410-00&ServiceCd=320&Type=search", "url2": "http://hagi-kagayaki.or.jp/" }, "geometry": { "type": "Point", "coordinates": [ 131.41595940000002, 34.3949673 ] } },
{ "type": "Feature", "properties": { "内容": "グループホーム華房福栄【認知症対応型共同生活介護】山口県萩市大字福井下３５０７番地１", "url": "https://www.kaigokensaku.mhlw.go.jp/35/index.php?action_kouhyou_detail_004_kani=true&JigyosyoCd=3590400051-00&ServiceCd=320&Type=search", "url2": "http://www.hagi-jiseikai.or.jp" }, "geometry": { "type": "Point", "coordinates": [ 131.488499651590018, 34.431026947675761 ] } },
{ "type": "Feature", "properties": { "内容": "グループホーム　華房福栄　2号館【認知症対応型共同生活介護】山口県萩市大字福井下3507番地11", "url": "https://www.kaigokensaku.mhlw.go.jp/35/index.php?action_kouhyou_detail_004_kani=true&JigyosyoCd=3590400069-00&ServiceCd=320&Type=search", "url2": "http://www.hagi-jiseikai.or.jp" }, "geometry": { "type": "Point", "coordinates": [ 131.48844280000003, 34.4310226 ] } },
{ "type": "Feature", "properties": { "内容": "ヘスティア華城グループホーム【認知症対応型共同生活介護】山口県防府市大字伊佐江1598番地", "url": "https://www.kaigokensaku.mhlw.go.jp/35/index.php?action_kouhyou_detail_004_kani=true&JigyosyoCd=3570600704-00&ServiceCd=320&Type=search", "url2": "group-home@kaseikai.com" }, "geometry": { "type": "Point", "coordinates": [ 131.542565220493344, 34.040684990227106 ] } },
{ "type": "Feature", "properties": { "内容": "グループホームフィラージュ開出【認知症対応型共同生活介護】山口県防府市開出西町32-8フィラージュ開出", "url": "https://www.kaigokensaku.mhlw.go.jp/35/index.php?action_kouhyou_detail_004_kani=true&JigyosyoCd=3590600239-00&ServiceCd=320&Type=search", "url2": "http://hitotsunokai.jp/" }, "geometry": { "type": "Point", "coordinates": [ 131.542472299999986, 34.0511848 ] } },
{ "type": "Feature", "properties": { "内容": "グループホーム　あかつき防府【認知症対応型共同生活介護】山口県防府市大字江泊1790番地", "url": "https://www.kaigokensaku.mhlw.go.jp/35/index.php?action_kouhyou_detail_004_kani=true&JigyosyoCd=3590600213-00&ServiceCd=320&Type=search", "url2": "http://www.akatsukikai.com" }, "geometry": { "type": "Point", "coordinates": [ 131.607078993392946, 34.05431501080519 ] } },
{ "type": "Feature", "properties": { "内容": "グループホーム　笑生苑【認知症対応型共同生活介護】山口県防府市大字佐野152番地の1", "url": "https://www.kaigokensaku.mhlw.go.jp/35/index.php?action_kouhyou_detail_004_kani=true&JigyosyoCd=3570600829-00&ServiceCd=320&Type=search", "url2": "http://hitotsunokai.jp" }, "geometry": { "type": "Point", "coordinates": [ 131.529056699999956, 34.0574838 ] } },
{ "type": "Feature", "properties": { "内容": "２４時間宅老所　新田の楽さん家【認知症対応型共同生活介護】防府市新田966－1", "url": "https://www.kaigokensaku.mhlw.go.jp/35/index.php?action_kouhyou_detail_004_kani=true&JigyosyoCd=3570600472-00&ServiceCd=320&Type=search", "url2": "http://www.c-able.ne.jp/~s-raku/" }, "geometry": { "type": "Point", "coordinates": [ 131.565998700000023, 34.0283269 ] } },
{ "type": "Feature", "properties": { "内容": "グループホーム　和楽【認知症対応型共同生活介護】山口県防府市新田966-1", "url": "https://www.kaigokensaku.mhlw.go.jp/35/index.php?action_kouhyou_detail_004_kani=true&JigyosyoCd=3590600437-00&ServiceCd=320&Type=search", "url2": "http://www.c-able.ne.jp/~s-raku/" }, "geometry": { "type": "Point", "coordinates": [ 131.565963100000033, 34.028346499999984 ] } },
{ "type": "Feature", "properties": { "内容": "グループホーム　防府あかり園【認知症対応型共同生活介護】防府市大字台道1681番地", "url": "https://www.kaigokensaku.mhlw.go.jp/35/index.php?action_kouhyou_detail_004_kani=true&JigyosyoCd=3570600555-00&ServiceCd=320&Type=search", "url2": "hofuakri@aioros.ocn.ne.jp" }, "geometry": { "type": "Point", "coordinates": [ 131.491948500000035, 34.0697406 ] } },
{ "type": "Feature", "properties": { "内容": "24時間宅老所　楽さん家【認知症対応型共同生活介護】防府市東松崎町4-16", "url": "https://www.kaigokensaku.mhlw.go.jp/35/index.php?action_kouhyou_detail_004_kani=true&JigyosyoCd=3570600381-00&ServiceCd=320&Type=search", "url2": "http://c-able.ne.jp/~s-raku/index.html" }, "geometry": { "type": "Point", "coordinates": [ 131.5792609, 34.0599087 ] } },
{ "type": "Feature", "properties": { "内容": "㈱ニチイ学館　ニチイケアセンター防府ニチイのほほえみ【認知症対応型共同生活介護】防府市敷山町１４－１", "url": "https://www.kaigokensaku.mhlw.go.jp/35/index.php?action_kouhyou_detail_004_kani=true&JigyosyoCd=3590600114-00&ServiceCd=320&Type=search", "url2": null }, "geometry": { "type": "Point", "coordinates": [ 131.59807, 34.0649642 ] } },
{ "type": "Feature", "properties": { "内容": "防府あかり園グループホームいちえ【認知症対応型共同生活介護】防府市牟礼柳23番22号", "url": "https://www.kaigokensaku.mhlw.go.jp/35/index.php?action_kouhyou_detail_004_kani=true&JigyosyoCd=3590600056-00&ServiceCd=320&Type=search", "url2": "http://www.hakuaikai-yamaguchi.jp/" }, "geometry": { "type": "Point", "coordinates": [ 131.603108300000031, 34.0578211 ] } },
{ "type": "Feature", "properties": { "内容": "グループホームひごろもそう【認知症対応型共同生活介護】山口県防府市大字浜方8番地1", "url": "https://www.kaigokensaku.mhlw.go.jp/35/index.php?action_kouhyou_detail_004_kani=true&JigyosyoCd=3590600197-00&ServiceCd=320&Type=search", "url2": "http://www.higoromo.jp/" }, "geometry": { "type": "Point", "coordinates": [ 131.573173910450805, 34.025702753757486 ] } },
{ "type": "Feature", "properties": { "内容": "グループホーム自由の杜【認知症対応型共同生活介護】山口県防府市大字大崎801-1", "url": "https://www.kaigokensaku.mhlw.go.jp/35/index.php?action_kouhyou_detail_004_kani=true&JigyosyoCd=3590600155-00&ServiceCd=320&Type=search", "url2": "http://hitotsunokai.jp/" }, "geometry": { "type": "Point", "coordinates": [ 131.539211099999989, 34.0637358 ] } },
{ "type": "Feature", "properties": { "内容": "けあビジョンホーム防府【認知症対応型共同生活介護】山口県防府市桑山二丁目5番34号", "url": "https://www.kaigokensaku.mhlw.go.jp/35/index.php?action_kouhyou_detail_004_kani=true&JigyosyoCd=3590600510-00&ServiceCd=320&Type=search", "url2": null }, "geometry": { "type": "Point", "coordinates": [ 131.5623347, 34.0465984 ] } },
{ "type": "Feature", "properties": { "内容": "グループホーム　ニコニコ創【認知症対応型共同生活介護】防府市上右田2458-1", "url": "https://www.kaigokensaku.mhlw.go.jp/35/index.php?action_kouhyou_detail_004_kani=true&JigyosyoCd=3570600621-00&ServiceCd=320&Type=search", "url2": "http://sou3838.life/" }, "geometry": { "type": "Point", "coordinates": [ 131.571966699999962, 34.072906899999985 ] } },
{ "type": "Feature", "properties": { "内容": "グループホーム　のんびり村　米川【認知症対応型共同生活介護】下松市大字下谷179", "url": "https://www.kaigokensaku.mhlw.go.jp/35/index.php?action_kouhyou_detail_004_kani=true&JigyosyoCd=3590700062-00&ServiceCd=320&Type=search", "url2": "homecare-yamaguchi.co.jp" }, "geometry": { "type": "Point", "coordinates": [ 131.877451599999972, 34.0816489 ] } },
{ "type": "Feature", "properties": { "内容": "はぴね周南【認知症対応型共同生活介護】山口県下松市河内1070-1", "url": "https://www.kaigokensaku.mhlw.go.jp/35/index.php?action_kouhyou_detail_004_kani=true&JigyosyoCd=3590700096-00&ServiceCd=320&Type=search", "url2": "http://www.greenlife-inc.co.jp/" }, "geometry": { "type": "Point", "coordinates": [ 131.899593327100149, 34.022743630025623 ] } },
{ "type": "Feature", "properties": { "内容": "グループホーム笠戸【認知症対応型共同生活介護】山口県下松市大字笠戸島10032-38笠戸島福祉介護センター", "url": "https://www.kaigokensaku.mhlw.go.jp/35/index.php?action_kouhyou_detail_004_kani=true&JigyosyoCd=3590700161-00&ServiceCd=320&Type=search", "url2": null }, "geometry": { "type": "Point", "coordinates": [ 131.851144699999963, 33.951995 ] } },
{ "type": "Feature", "properties": { "内容": "グループホーム　元気【認知症対応型共同生活介護】山口県下松市山田256つどい建物２F", "url": "https://www.kaigokensaku.mhlw.go.jp/35/index.php?action_kouhyou_detail_004_kani=true&JigyosyoCd=3590700138-00&ServiceCd=320&Type=search", "url2": "http://genkinokai.jpn.org/" }, "geometry": { "type": "Point", "coordinates": [ 131.905605, 34.0347653 ] } },
{ "type": "Feature", "properties": { "内容": "グループホーム幸ヶ丘【認知症対応型共同生活介護】山口県下松市山田111-4", "url": "https://www.kaigokensaku.mhlw.go.jp/35/index.php?action_kouhyou_detail_004_kani=true&JigyosyoCd=3590700088-00&ServiceCd=320&Type=search", "url2": "http://ryokuzankai.jp/" }, "geometry": { "type": "Point", "coordinates": [ 131.898679957672158, 34.031865934926991 ] } },
{ "type": "Feature", "properties": { "内容": "グループホーム清瀬の里【認知症対応型共同生活介護】山口県下松市清瀬町3－1－10", "url": "https://www.kaigokensaku.mhlw.go.jp/35/index.php?action_kouhyou_detail_004_kani=true&JigyosyoCd=3570700306-00&ServiceCd=320&Type=search", "url2": "http://www.kvision.ne.jp/~kiyose/" }, "geometry": { "type": "Point", "coordinates": [ 131.854837500000031, 34.0303447 ] } },
{ "type": "Feature", "properties": { "内容": "グループホーム和み潮音【認知症対応型共同生活介護】山口県下松市潮音町4丁目5番17号", "url": "https://www.kaigokensaku.mhlw.go.jp/35/index.php?action_kouhyou_detail_004_kani=true&JigyosyoCd=3590700229-00&ServiceCd=320&Type=search", "url2": "https://www.shione-gh.jp/" }, "geometry": { "type": "Point", "coordinates": [ 131.847813300000013, 34.0224736 ] } },
{ "type": "Feature", "properties": { "内容": "グループホームふぁみりあ【認知症対応型共同生活介護】山口県下松市藤光町一丁目１２番１８号", "url": "https://www.kaigokensaku.mhlw.go.jp/35/index.php?action_kouhyou_detail_004_kani=true&JigyosyoCd=3590700179-00&ServiceCd=320&Type=search", "url2": null }, "geometry": { "type": "Point", "coordinates": [ 131.866653974205036, 34.023992326596606 ] } },
{ "type": "Feature", "properties": { "内容": "グループホーム　なのはな【認知症対応型共同生活介護】山口県岩国市玖珂町1020-3", "url": "https://www.kaigokensaku.mhlw.go.jp/35/index.php?action_kouhyou_detail_004_kani=true&JigyosyoCd=3577200904-00&ServiceCd=320&Type=search", "url2": "http://care-net.biz/35/nikonikoen/index.php" }, "geometry": { "type": "Point", "coordinates": [ 132.086911864417971, 34.097605204693259 ] } },
{ "type": "Feature", "properties": { "内容": "グループホーム　だんろの家【認知症対応型共同生活介護】岩国市由宇町港二丁目1-37", "url": "https://www.kaigokensaku.mhlw.go.jp/35/index.php?action_kouhyou_detail_004_kani=true&JigyosyoCd=3590800094-00&ServiceCd=320&Type=search", "url2": null }, "geometry": { "type": "Point", "coordinates": [ 132.2165314, 34.047512 ] } },
{ "type": "Feature", "properties": { "内容": "グループホーム装束門・みどりの家【認知症対応型共同生活介護】岩国市装束町4-10-13", "url": "https://www.kaigokensaku.mhlw.go.jp/35/index.php?action_kouhyou_detail_004_kani=true&JigyosyoCd=3590800185-00&ServiceCd=320&Type=search", "url2": "http://epocacs.co.jp" }, "geometry": { "type": "Point", "coordinates": [ 132.229210200000011, 34.2008529 ] } },
{ "type": "Feature", "properties": { "内容": "愛の家グループホーム岩国平田【認知症対応型共同生活介護】岩国市平田５丁目２７番５５号", "url": "https://www.kaigokensaku.mhlw.go.jp/35/index.php?action_kouhyou_detail_004_kani=true&JigyosyoCd=3590800086-00&ServiceCd=320&Type=search", "url2": "http://www.mcsg.co.jp/" }, "geometry": { "type": "Point", "coordinates": [ 132.190825300000029, 34.142745 ] } },
{ "type": "Feature", "properties": { "内容": "グループホーム　チェリーブラッサム【認知症対応型共同生活介護】山口県岩国市下342-1", "url": "https://www.kaigokensaku.mhlw.go.jp/35/index.php?action_kouhyou_detail_004_kani=true&JigyosyoCd=3570800353-00&ServiceCd=320&Type=search", "url2": "http://www.i-shinseikai.or.jp" }, "geometry": { "type": "Point", "coordinates": [ 132.093303231877144, 34.161128230732416 ] } },
{ "type": "Feature", "properties": { "内容": "クループホーム錦帯橋みどりの家【認知症対応型共同生活介護】岩国市岩国１丁目20-36", "url": "https://www.kaigokensaku.mhlw.go.jp/35/index.php?action_kouhyou_detail_004_kani=true&JigyosyoCd=3590800144-00&ServiceCd=320&Type=search", "url2": "http://www.epocaclub.com/midori/index.htm" }, "geometry": { "type": "Point", "coordinates": [ 132.181206, 34.1669447 ] } },
{ "type": "Feature", "properties": { "内容": "サンキ・ウエルビィグループホーム岩国【認知症対応型共同生活介護】山口県岩国市牛野谷町二丁目１６番３２号", "url": "https://www.kaigokensaku.mhlw.go.jp/35/index.php?action_kouhyou_detail_004_kani=true&JigyosyoCd=3590800169-00&ServiceCd=320&Type=search", "url2": null }, "geometry": { "type": "Point", "coordinates": [ 132.19669120000006, 34.156090599999985 ] } },
{ "type": "Feature", "properties": { "内容": "グループホームかなえ【認知症対応型共同生活介護】山口県岩国市錦見3丁目7番55号", "url": "https://www.kaigokensaku.mhlw.go.jp/35/index.php?action_kouhyou_detail_004_kani=true&JigyosyoCd=3570800577-00&ServiceCd=320&Type=search", "url2": "www.kanaekai.jp/" }, "geometry": { "type": "Point", "coordinates": [ 132.198668600000019, 34.1669171 ] } },
{ "type": "Feature", "properties": { "内容": "グループホームあかしあ【認知症対応型共同生活介護】岩国市今津町1丁目10－9", "url": "https://www.kaigokensaku.mhlw.go.jp/35/index.php?action_kouhyou_detail_004_kani=true&JigyosyoCd=3570801005-00&ServiceCd=320&Type=search", "url2": null }, "geometry": { "type": "Point", "coordinates": [ 132.220839399999932, 34.1671504 ] } },
{ "type": "Feature", "properties": { "内容": "グループホームひまわり【認知症対応型共同生活介護】山口県岩国市車町1丁目8-12", "url": "https://www.kaigokensaku.mhlw.go.jp/35/index.php?action_kouhyou_detail_004_kani=true&JigyosyoCd=3590800474-00&ServiceCd=320&Type=search", "url2": "https://iwakuni.co.jp/" }, "geometry": { "type": "Point", "coordinates": [ 132.2183229, 34.1585536 ] } },
{ "type": "Feature", "properties": { "内容": "グループホーム　秀東館　虹【認知症対応型共同生活介護】山口県岩国市周東町下久原１７３３", "url": "https://www.kaigokensaku.mhlw.go.jp/35/index.php?action_kouhyou_detail_004_kani=true&JigyosyoCd=3577200920-00&ServiceCd=320&Type=search", "url2": "http://www.shutoukan.com/group/niji.html" }, "geometry": { "type": "Point", "coordinates": [ 132.046549499999969, 34.0918923 ] } },
{ "type": "Feature", "properties": { "内容": "グループホーム　だんけぐーと有延【認知症対応型共同生活介護】山口県岩国市周東町下久原36番地の1", "url": "https://www.kaigokensaku.mhlw.go.jp/35/index.php?action_kouhyou_detail_004_kani=true&JigyosyoCd=3590800458-00&ServiceCd=320&Type=search", "url2": null }, "geometry": { "type": "Point", "coordinates": [ 132.073533, 34.088993 ] } },
{ "type": "Feature", "properties": { "内容": "グループホームだんけぐーと【認知症対応型共同生活介護】山口県岩国市周東町下久原407番地", "url": "https://www.kaigokensaku.mhlw.go.jp/35/index.php?action_kouhyou_detail_004_kani=true&JigyosyoCd=3590800441-00&ServiceCd=320&Type=search", "url2": null }, "geometry": { "type": "Point", "coordinates": [ 132.064346300000011, 34.090294 ] } },
{ "type": "Feature", "properties": { "内容": "グループホーム秀東館　蓮華【認知症対応型共同生活介護】岩国市周東町西長野265-1", "url": "https://www.kaigokensaku.mhlw.go.jp/35/index.php?action_kouhyou_detail_004_kani=true&JigyosyoCd=3577200532-00&ServiceCd=320&Type=search", "url2": "http://www.shutoukan.com/group/renge.html" }, "geometry": { "type": "Point", "coordinates": [ 132.036536599999977, 34.0908199 ] } },
{ "type": "Feature", "properties": { "内容": "グループホームかえで【認知症対応型共同生活介護】山口県岩国市南岩国町４丁目59番5-1号", "url": "https://www.kaigokensaku.mhlw.go.jp/35/index.php?action_kouhyou_detail_004_kani=true&JigyosyoCd=3570801187-00&ServiceCd=320&Type=search", "url2": "http://www.sansikai.com/kaede/" }, "geometry": { "type": "Point", "coordinates": [ 132.196739100000059, 34.1308991 ] } },
{ "type": "Feature", "properties": { "内容": "グループホームあかしあ保津【認知症対応型共同生活介護】岩国市保津町2丁目6－3", "url": "https://www.kaigokensaku.mhlw.go.jp/35/index.php?action_kouhyou_detail_004_kani=true&JigyosyoCd=3590800078-00&ServiceCd=320&Type=search", "url2": "akashia.hoz@orange.ocn.ne.jp" }, "geometry": { "type": "Point", "coordinates": [ 132.20888130000003, 34.0824799 ] } },
{ "type": "Feature", "properties": { "内容": "グループホーム　本郷【認知症対応型共同生活介護】山口県岩国市本郷町本郷２０８６番地", "url": "https://www.kaigokensaku.mhlw.go.jp/35/index.php?action_kouhyou_detail_004_kani=true&JigyosyoCd=3577200912-00&ServiceCd=320&Type=search", "url2": "http://hongo.tokuyou.jp/hongo_grouphome.html" }, "geometry": { "type": "Point", "coordinates": [ 132.0401041, 34.2935263 ] } },
{ "type": "Feature", "properties": { "内容": "グループホーム　いろりの家【認知症対応型共同生活介護】岩国市由宇町神東１６０３－３", "url": "https://www.kaigokensaku.mhlw.go.jp/35/index.php?action_kouhyou_detail_004_kani=true&JigyosyoCd=3577200649-00&ServiceCd=320&Type=search", "url2": null }, "geometry": { "type": "Point", "coordinates": [ 132.2095147, 34.0006149 ] } },
{ "type": "Feature", "properties": { "内容": "グループホーム　たんぽぽ【認知症対応型共同生活介護】山口県岩国市保津町2丁目3-3", "url": "https://www.kaigokensaku.mhlw.go.jp/35/index.php?action_kouhyou_detail_004_kani=true&JigyosyoCd=3570800734-00&ServiceCd=320&Type=search", "url2": null }, "geometry": { "type": "Point", "coordinates": [ 132.209309, 34.0853573 ] } },
{ "type": "Feature", "properties": { "内容": "グループホームやまとの里【認知症対応型共同生活介護】山口県光市大字岩田２６７番地", "url": "https://www.kaigokensaku.mhlw.go.jp/35/index.php?action_kouhyou_detail_004_kani=true&JigyosyoCd=3591000033-00&ServiceCd=320&Type=search", "url2": "http://www1.ocn.ne.jp/~yamatoen/" }, "geometry": { "type": "Point", "coordinates": [ 131.988627100000031, 33.974638 ] } },
{ "type": "Feature", "properties": { "内容": "ニチイケアセンター光岩田【認知症対応型共同生活介護】大字三輪2252番1", "url": "https://www.kaigokensaku.mhlw.go.jp/35/index.php?action_kouhyou_detail_004_kani=true&JigyosyoCd=3591000264-00&ServiceCd=320&Type=search", "url2": null }, "geometry": { "type": "Point", "coordinates": [ 131.988869099999988, 33.9719929 ] } },
{ "type": "Feature", "properties": { "内容": "グループホームよりさんせ【認知症対応型共同生活介護】光市三井6丁目18番1号", "url": "https://www.kaigokensaku.mhlw.go.jp/35/index.php?action_kouhyou_detail_004_kani=true&JigyosyoCd=3571000318-00&ServiceCd=320&Type=search", "url2": "http://www.yayoi-km.jp" }, "geometry": { "type": "Point", "coordinates": [ 131.9529688, 33.9879547 ] } },
{ "type": "Feature", "properties": { "内容": "グループホーム　浅江【認知症対応型共同生活介護】山口県光市浅江3-1-25兼清外科3階", "url": "https://www.kaigokensaku.mhlw.go.jp/35/index.php?action_kouhyou_detail_004_kani=true&JigyosyoCd=3591000124-00&ServiceCd=320&Type=search", "url2": "https://kanekiyo-ms.jp" }, "geometry": { "type": "Point", "coordinates": [ 131.924895309227395, 33.974924745423763 ] } },
{ "type": "Feature", "properties": { "内容": "グループホームのはら【認知症対応型共同生活介護】山口県光市中央3丁目2番13号", "url": "https://www.kaigokensaku.mhlw.go.jp/35/index.php?action_kouhyou_detail_004_kani=true&JigyosyoCd=3591000066-00&ServiceCd=320&Type=search", "url2": "https://kohjinkai-i.or.jp" }, "geometry": { "type": "Point", "coordinates": [ 131.945903700000031, 33.9590971 ] } },
{ "type": "Feature", "properties": { "内容": "グループホーム　アクア【認知症対応型共同生活介護】山口県光市木園１丁目４番５号", "url": "https://www.kaigokensaku.mhlw.go.jp/35/index.php?action_kouhyou_detail_004_kani=true&JigyosyoCd=3591000041-00&ServiceCd=320&Type=search", "url2": null }, "geometry": { "type": "Point", "coordinates": [ 131.9308823, 33.9761944 ] } },
{ "type": "Feature", "properties": { "内容": "グループホーム室積なかよかん【認知症対応型共同生活介護】光市室積松原８－１", "url": "https://www.kaigokensaku.mhlw.go.jp/35/index.php?action_kouhyou_detail_004_kani=true&JigyosyoCd=3571000276-00&ServiceCd=320&Type=search", "url2": "nakayokan.tkc.best-hp.jp" }, "geometry": { "type": "Point", "coordinates": [ 131.969016099999976, 33.9352871 ] } },
{ "type": "Feature", "properties": { "内容": "グループホームはまゆう【認知症対応型共同生活介護】山口県光市室積村1529-1", "url": "https://www.kaigokensaku.mhlw.go.jp/35/index.php?action_kouhyou_detail_004_kani=true&JigyosyoCd=3571000268-00&ServiceCd=320&Type=search", "url2": "gh-hamayu@mvg.biglobe.ne.jp" }, "geometry": { "type": "Point", "coordinates": [ 131.998799299999973, 33.9164416 ] } },
{ "type": "Feature", "properties": { "内容": "グループホーム兼清【認知症対応型共同生活介護】山口県光市光ケ丘3-6", "url": "https://www.kaigokensaku.mhlw.go.jp/35/index.php?action_kouhyou_detail_004_kani=true&JigyosyoCd=3591000025-00&ServiceCd=320&Type=search", "url2": "https://kanekiyo-ms.jp" }, "geometry": { "type": "Point", "coordinates": [ 131.920330299999932, 33.9804879 ] } },
{ "type": "Feature", "properties": { "内容": "グループホームひまわり日置【認知症対応型共同生活介護】山口県長門市日置上字反所１５４０番地の1", "url": "https://www.kaigokensaku.mhlw.go.jp/35/index.php?action_kouhyou_detail_004_kani=true&JigyosyoCd=3591100080-00&ServiceCd=320&Type=search", "url2": null }, "geometry": { "type": "Point", "coordinates": [ 131.106285022923316, 34.384499113541551 ] } },
{ "type": "Feature", "properties": { "内容": "グループホーム　ノア【認知症対応型共同生活介護】三隅上字山新開5109番１", "url": "https://www.kaigokensaku.mhlw.go.jp/35/index.php?action_kouhyou_detail_004_kani=true&JigyosyoCd=3591100122-00&ServiceCd=320&Type=search", "url2": null }, "geometry": { "type": "Point", "coordinates": [ 131.29951, 34.350723 ] } },
{ "type": "Feature", "properties": { "内容": "グループホーム　　きららの里【認知症対応型共同生活介護】長門市深川湯本10600-1", "url": "https://www.kaigokensaku.mhlw.go.jp/35/index.php?action_kouhyou_detail_004_kani=true&JigyosyoCd=3571100126-00&ServiceCd=320&Type=search", "url2": "https://www.fukushoukai.or.jp" }, "geometry": { "type": "Point", "coordinates": [ 131.178746799999971, 34.3398958 ] } },
{ "type": "Feature", "properties": { "内容": "グループホームゆうなぎ【認知症対応型共同生活介護】長門市仙崎１００４０番地１", "url": "https://www.kaigokensaku.mhlw.go.jp/35/index.php?action_kouhyou_detail_004_kani=true&JigyosyoCd=3591100056-00&ServiceCd=320&Type=search", "url2": null }, "geometry": { "type": "Point", "coordinates": [ 131.205462, 34.376581 ] } },
{ "type": "Feature", "properties": { "内容": "（NPO）グループホームひまわり【認知症対応型共同生活介護】山口県長門市油谷伊上字上り野２２３８番", "url": "https://www.kaigokensaku.mhlw.go.jp/35/index.php?action_kouhyou_detail_004_kani=true&JigyosyoCd=3591100031-00&ServiceCd=320&Type=search", "url2": null }, "geometry": { "type": "Point", "coordinates": [ 131.013778499999944, 34.371991 ] } },
{ "type": "Feature", "properties": { "内容": "グループホームやすらぎの里【認知症対応型共同生活介護】山口県長門市油谷河原2016番地１１", "url": "https://www.kaigokensaku.mhlw.go.jp/35/index.php?action_kouhyou_detail_004_kani=true&JigyosyoCd=3591100114-00&ServiceCd=320&Type=search", "url2": null }, "geometry": { "type": "Point", "coordinates": [ 131.038537200000064, 34.3765271 ] } },
{ "type": "Feature", "properties": { "内容": "グループホームゆうわ苑【認知症対応型共同生活介護】柳井市伊保庄字近長浜１番４", "url": "https://www.kaigokensaku.mhlw.go.jp/35/index.php?action_kouhyou_detail_004_kani=true&JigyosyoCd=3571200231-00&ServiceCd=320&Type=search", "url2": "http://www.yuwaen.net" }, "geometry": { "type": "Point", "coordinates": [ 132.128089025678236, 33.909944485055689 ] } },
{ "type": "Feature", "properties": { "内容": "もみの木グループホーム【認知症対応型共同生活介護】山口県柳井市中央1－8－1", "url": "https://www.kaigokensaku.mhlw.go.jp/35/index.php?action_kouhyou_detail_004_kani=true&JigyosyoCd=3591200013-00&ServiceCd=320&Type=search", "url2": "https://mominoki-yanai.sakura.ne.jp/" }, "geometry": { "type": "Point", "coordinates": [ 132.109629600000062, 33.9656528 ] } },
{ "type": "Feature", "properties": { "内容": "グループホーム　あそか【認知症対応型共同生活介護】山口県柳井市日積3213", "url": "https://www.kaigokensaku.mhlw.go.jp/35/index.php?action_kouhyou_detail_004_kani=true&JigyosyoCd=3571200306-00&ServiceCd=320&Type=search", "url2": "www.saisyokai.or.jp" }, "geometry": { "type": "Point", "coordinates": [ 132.174211499999956, 34.0053805 ] } },
{ "type": "Feature", "properties": { "内容": "サンキ・ウエルビィ　グループホーム柳井【認知症対応型共同生活介護】山口県柳井市柳井1013-1", "url": "https://www.kaigokensaku.mhlw.go.jp/35/index.php?action_kouhyou_detail_004_kani=true&JigyosyoCd=3591200088-00&ServiceCd=320&Type=search", "url2": null }, "geometry": { "type": "Point", "coordinates": [ 132.130146521394209, 33.960088589865997 ] } },
{ "type": "Feature", "properties": { "内容": "グループホームつくし【認知症対応型共同生活介護】山口県柳井市南町６丁目６番６号", "url": "https://www.kaigokensaku.mhlw.go.jp/35/index.php?action_kouhyou_detail_004_kani=true&JigyosyoCd=3591200047-00&ServiceCd=320&Type=search", "url2": null }, "geometry": { "type": "Point", "coordinates": [ 132.101058100000046, 33.9615086 ] } },
{ "type": "Feature", "properties": { "内容": "けあビジョンホーム柳井【認知症対応型共同生活介護】山口県柳井市新庄2391-1", "url": "https://www.kaigokensaku.mhlw.go.jp/35/index.php?action_kouhyou_detail_004_kani=true&JigyosyoCd=3591200104-00&ServiceCd=320&Type=search", "url2": null }, "geometry": { "type": "Point", "coordinates": [ 132.0855142, 33.9675729 ] } },
{ "type": "Feature", "properties": { "内容": "グループホームひかりの園【認知症対応型共同生活介護】山口県美祢市於福町下３２６７－１番地", "url": "https://www.kaigokensaku.mhlw.go.jp/35/index.php?action_kouhyou_detail_004_kani=true&JigyosyoCd=3571300148-00&ServiceCd=320&Type=search", "url2": "http://f-doho.com/hikari/index.html" }, "geometry": { "type": "Point", "coordinates": [ 131.213539200000014, 34.2478506 ] } },
{ "type": "Feature", "properties": { "内容": "グループホームありがとう【認知症対応型共同生活介護】美祢市大嶺町東分１０２０－２", "url": "https://www.kaigokensaku.mhlw.go.jp/35/index.php?action_kouhyou_detail_004_kani=true&JigyosyoCd=3591300011-00&ServiceCd=320&Type=search", "url2": "https://fuki-arigatou.com" }, "geometry": { "type": "Point", "coordinates": [ 131.213142804146401, 34.181339582353978 ] } },
{ "type": "Feature", "properties": { "内容": "認知症対応型グループホームゆいしん【認知症対応型共同生活介護】美祢市大嶺町東分1707-2", "url": "https://www.kaigokensaku.mhlw.go.jp/35/index.php?action_kouhyou_detail_004_kani=true&JigyosyoCd=3591300060-00&ServiceCd=320&Type=search", "url2": "f-doho.com" }, "geometry": { "type": "Point", "coordinates": [ 131.206821778326429, 34.178956404164126 ] } },
{ "type": "Feature", "properties": { "内容": "グループホームのぞみ苑【認知症対応型共同生活介護】美祢市美東町大田３８３８番地１", "url": "https://www.kaigokensaku.mhlw.go.jp/35/index.php?action_kouhyou_detail_004_kani=true&JigyosyoCd=3597910011-00&ServiceCd=320&Type=search", "url2": "seiwakai-nozomien.com" }, "geometry": { "type": "Point", "coordinates": [ 131.33927719999997, 34.219711 ] } },
{ "type": "Feature", "properties": { "内容": "グループホームせせらぎ【認知症対応型共同生活介護】山口県周南市大字鹿野上２７５５番地の1", "url": "https://www.kaigokensaku.mhlw.go.jp/35/index.php?action_kouhyou_detail_004_kani=true&JigyosyoCd=3577400066-00&ServiceCd=320&Type=search", "url2": "https://www.kanofukushikai.or.jp" }, "geometry": { "type": "Point", "coordinates": [ 131.809668099999953, 34.2296147 ] } },
{ "type": "Feature", "properties": { "内容": "サンキ・ウエルビィ　グループホーム周南【認知症対応型共同生活介護】山口県周南市遠石１丁目10－57", "url": "https://www.kaigokensaku.mhlw.go.jp/35/index.php?action_kouhyou_detail_004_kani=true&JigyosyoCd=3591500032-00&ServiceCd=320&Type=search", "url2": null }, "geometry": { "type": "Point", "coordinates": [ 131.8218124, 34.0400623 ] } },
{ "type": "Feature", "properties": { "内容": "グループホーム和み　福谷の森【認知症対応型共同生活介護】山口県周南市岡田町３番３０号", "url": "https://www.kaigokensaku.mhlw.go.jp/35/index.php?action_kouhyou_detail_004_kani=true&JigyosyoCd=3591500149-00&ServiceCd=320&Type=search", "url2": "https://www.fukuya-gh.jp/" }, "geometry": { "type": "Point", "coordinates": [ 131.80683010000007, 34.0603767 ] } },
{ "type": "Feature", "properties": { "内容": "グループホーム心音【認知症対応型共同生活介護】山口県周南市大字久米３１４６番地の５", "url": "https://www.kaigokensaku.mhlw.go.jp/35/index.php?action_kouhyou_detail_004_kani=true&JigyosyoCd=3591500156-00&ServiceCd=320&Type=search", "url2": null }, "geometry": { "type": "Point", "coordinates": [ 131.83277567979701, 34.030002328032488 ] } },
{ "type": "Feature", "properties": { "内容": "グループホームこころ【認知症対応型共同生活介護】周南市櫛ヶ浜西浜田517-11グループホームこころ", "url": "https://www.kaigokensaku.mhlw.go.jp/35/index.php?action_kouhyou_detail_004_kani=true&JigyosyoCd=3571500200-00&ServiceCd=320&Type=search", "url2": null }, "geometry": { "type": "Point", "coordinates": [ 131.831645327969312, 34.028754869108049 ] } },
{ "type": "Feature", "properties": { "内容": "サンキ・ウエルビィ　グループホーム熊毛【認知症対応型共同生活介護】山口県周南市呼坂本町9番7号", "url": "https://www.kaigokensaku.mhlw.go.jp/35/index.php?action_kouhyou_detail_004_kani=true&JigyosyoCd=3591500230-00&ServiceCd=320&Type=search", "url2": null }, "geometry": { "type": "Point", "coordinates": [ 131.968274899999983, 34.0487376 ] } },
{ "type": "Feature", "properties": { "内容": "グループホーム　のんた【認知症対応型共同生活介護】山口県周南市大字戸田2806-1", "url": "https://www.kaigokensaku.mhlw.go.jp/35/index.php?action_kouhyou_detail_004_kani=true&JigyosyoCd=3570500490-00&ServiceCd=320&Type=search", "url2": "http://www.ccsnet.ne.jp/~gh.nonta/" }, "geometry": { "type": "Point", "coordinates": [ 131.684630800000036, 34.0771198 ] } },
{ "type": "Feature", "properties": { "内容": "医療法人田中医院　グループホーム万年青【認知症対応型共同生活介護】山口県周南市上村709-1", "url": "https://www.kaigokensaku.mhlw.go.jp/35/index.php?action_kouhyou_detail_004_kani=true&JigyosyoCd=3591500222-00&ServiceCd=320&Type=search", "url2": "http://www.omoton.jp/" }, "geometry": { "type": "Point", "coordinates": [ 131.788386288885505, 34.094885770858284 ] } },
{ "type": "Feature", "properties": { "内容": "グループホームこもれび城ヶ丘【認知症対応型共同生活介護】山口県周南市城ヶ丘４丁目3536‐1", "url": "https://www.kaigokensaku.mhlw.go.jp/35/index.php?action_kouhyou_detail_004_kani=true&JigyosyoCd=3591500131-00&ServiceCd=320&Type=search", "url2": "http://komorebinomori.jp" }, "geometry": { "type": "Point", "coordinates": [ 131.84625189999997, 34.0472763 ] } },
{ "type": "Feature", "properties": { "内容": "サンキ・ウエルビィグループホーム新南陽【認知症対応型共同生活介護】山口県周南市政所2丁目７－２０", "url": "https://www.kaigokensaku.mhlw.go.jp/35/index.php?action_kouhyou_detail_004_kani=true&JigyosyoCd=3591500172-00&ServiceCd=320&Type=search", "url2": null }, "geometry": { "type": "Point", "coordinates": [ 131.76801660000001, 34.0735299 ] } },
{ "type": "Feature", "properties": { "内容": "グループホーム　とーか【認知症対応型共同生活介護】周南市政所四丁目11番13号", "url": "https://www.kaigokensaku.mhlw.go.jp/35/index.php?action_kouhyou_detail_004_kani=true&JigyosyoCd=3571500168-00&ServiceCd=320&Type=search", "url2": "http://www.to-ka.co.jp/" }, "geometry": { "type": "Point", "coordinates": [ 131.772115052778616, 34.074561590579478 ] } },
{ "type": "Feature", "properties": { "内容": "グループホーム　和み【認知症対応型共同生活介護】山口県周南市大字湯野4298番地1", "url": "https://www.kaigokensaku.mhlw.go.jp/35/index.php?action_kouhyou_detail_004_kani=true&JigyosyoCd=3571500291-00&ServiceCd=320&Type=search", "url2": "https://www.nagomi-gh.jp/" }, "geometry": { "type": "Point", "coordinates": [ 131.672947799999946, 34.0906071 ] } },
{ "type": "Feature", "properties": { "内容": "グループホーム香雪【認知症対応型共同生活介護】山口県周南市大字徳山750-8", "url": "https://www.kaigokensaku.mhlw.go.jp/35/index.php?action_kouhyou_detail_004_kani=true&JigyosyoCd=3591500024-00&ServiceCd=320&Type=search", "url2": null }, "geometry": { "type": "Point", "coordinates": [ 131.829427900000042, 34.0602274 ] } },
{ "type": "Feature", "properties": { "内容": "グループホームおかでら荘【認知症対応型共同生活介護】山口県周南市大字樋口262番地１", "url": "https://www.kaigokensaku.mhlw.go.jp/35/index.php?action_kouhyou_detail_004_kani=true&JigyosyoCd=3591500081-00&ServiceCd=320&Type=search", "url2": "https://okadera.grupo.jp/" }, "geometry": { "type": "Point", "coordinates": [ 131.978501635952711, 34.061791828358878 ] } },
{ "type": "Feature", "properties": { "内容": "グループホーム夜市のんた【認知症対応型共同生活介護】山口県周南市夜市720-1", "url": "https://www.kaigokensaku.mhlw.go.jp/35/index.php?action_kouhyou_detail_004_kani=true&JigyosyoCd=3571500366-00&ServiceCd=320&Type=search", "url2": null }, "geometry": { "type": "Point", "coordinates": [ 131.716750199999979, 34.0812476 ] } },
{ "type": "Feature", "properties": { "内容": "愛の家グループホーム周南須々万【認知症対応型共同生活介護】山口県周南市須々万本郷404番地1", "url": "https://www.kaigokensaku.mhlw.go.jp/35/index.php?action_kouhyou_detail_004_kani=true&JigyosyoCd=3591500354-00&ServiceCd=320&Type=search", "url2": "http://mcs-ainoie.com/gh256.html" }, "geometry": { "type": "Point", "coordinates": [ 131.866028520649621, 34.118608220924315 ] } },
{ "type": "Feature", "properties": { "内容": "白鳩老人グループホーム【認知症対応型共同生活介護】山口県周南市大字大島６３７の２", "url": "https://www.kaigokensaku.mhlw.go.jp/35/index.php?action_kouhyou_detail_004_kani=true&JigyosyoCd=3570500425-00&ServiceCd=320&Type=search", "url2": "http://shirohatogakuen.or.jp/publics/index/27/" }, "geometry": { "type": "Point", "coordinates": [ 131.801656699999967, 33.9889808 ] } },
{ "type": "Feature", "properties": { "内容": "グループホームくめの里【認知症対応型共同生活介護】山口県周南市大字久米字沢田1416-1", "url": "https://www.kaigokensaku.mhlw.go.jp/35/index.php?action_kouhyou_detail_004_kani=true&JigyosyoCd=3591500206-00&ServiceCd=320&Type=search", "url2": null }, "geometry": { "type": "Point", "coordinates": [ 131.846616665606689, 34.03484809516673 ] } },
{ "type": "Feature", "properties": { "内容": "グループホームさるびあ【認知症対応型共同生活介護】山口県周南市城ケ丘三丁目6番1号", "url": "https://www.kaigokensaku.mhlw.go.jp/35/index.php?action_kouhyou_detail_004_kani=true&JigyosyoCd=3591500271-00&ServiceCd=320&Type=search", "url2": "https://www.kohjinkai-s.or.jp/group-home/" }, "geometry": { "type": "Point", "coordinates": [ 131.8415245, 34.0431182 ] } },
{ "type": "Feature", "properties": { "内容": "グループホーム　天王園【認知症対応型共同生活介護】山口県周南市大字大河内１１０９番２", "url": "https://www.kaigokensaku.mhlw.go.jp/35/index.php?action_kouhyou_detail_004_kani=true&JigyosyoCd=3577300407-00&ServiceCd=320&Type=search", "url2": "http://www.tennoen.com" }, "geometry": { "type": "Point", "coordinates": [ 131.942091299999987, 34.0259033 ] } },
{ "type": "Feature", "properties": { "内容": "グループホーム　ねたろう【認知症対応型共同生活介護】山陽小野田市大字福田９４９－１", "url": "https://www.kaigokensaku.mhlw.go.jp/35/index.php?action_kouhyou_detail_004_kani=true&JigyosyoCd=3577700184-00&ServiceCd=320&Type=search", "url2": null }, "geometry": { "type": "Point", "coordinates": [ 131.111176181536848, 34.071669631253542 ] } },
{ "type": "Feature", "properties": { "内容": "グループホーム　野の花【認知症対応型共同生活介護】山口県山陽小野田市大字郡字浜３２３３番７", "url": "https://www.kaigokensaku.mhlw.go.jp/35/index.php?action_kouhyou_detail_004_kani=true&JigyosyoCd=3591600048-00&ServiceCd=320&Type=search", "url2": "http://asashion.wixsite.com/kenjinkai" }, "geometry": { "type": "Point", "coordinates": [ 131.146089672216817, 34.0198187843434 ] } },
{ "type": "Feature", "properties": { "内容": "グループホーム咲花【認知症対応型共同生活介護】山陽小野田市大字厚狭字埴生田503番1", "url": "https://www.kaigokensaku.mhlw.go.jp/35/index.php?action_kouhyou_detail_004_kani=true&JigyosyoCd=3591600170-00&ServiceCd=320&Type=search", "url2": "http://asashion.wixsite.com/kenjinkai" }, "geometry": { "type": "Point", "coordinates": [ 131.161956300000043, 34.054105 ] } },
{ "type": "Feature", "properties": { "内容": "グループホーム彩花【認知症対応型共同生活介護】山口県山陽小野田市大字厚狭字埴生田498番1", "url": "https://www.kaigokensaku.mhlw.go.jp/35/index.php?action_kouhyou_detail_004_kani=true&JigyosyoCd=3591600261-00&ServiceCd=320&Type=search", "url2": "http://asashion.wixsite.com/kenjinkai" }, "geometry": { "type": "Point", "coordinates": [ 131.161978500000032, 34.0540994 ] } },
{ "type": "Feature", "properties": { "内容": "グループホーム　風花【認知症対応型共同生活介護】山陽小野田市桜1丁目3番1号", "url": "https://www.kaigokensaku.mhlw.go.jp/35/index.php?action_kouhyou_detail_004_kani=true&JigyosyoCd=3577700226-00&ServiceCd=320&Type=search", "url2": "http://asashion.wixsite.com/kenjinkai" }, "geometry": { "type": "Point", "coordinates": [ 131.155706799999962, 34.0532217 ] } },
{ "type": "Feature", "properties": { "内容": "グループホームいつは【認知症対応型共同生活介護】山陽小野田市住吉本町二丁目７番２０号", "url": "https://www.kaigokensaku.mhlw.go.jp/35/index.php?action_kouhyou_detail_004_kani=true&JigyosyoCd=3591600139-00&ServiceCd=320&Type=search", "url2": "http://hayakawanaika.com/" }, "geometry": { "type": "Point", "coordinates": [ 131.180289899999906, 33.9797797 ] } },
{ "type": "Feature", "properties": { "内容": "グループホーム　なみおと【認知症対応型共同生活介護】山陽小野田市大字小野田１１４７－１３", "url": "https://www.kaigokensaku.mhlw.go.jp/35/index.php?action_kouhyou_detail_004_kani=true&JigyosyoCd=3591600089-00&ServiceCd=320&Type=search", "url2": "http://hayakawanaika.com/" }, "geometry": { "type": "Point", "coordinates": [ 131.171974, 33.9432715 ] } },
{ "type": "Feature", "properties": { "内容": "グループホーム花【認知症対応型共同生活介護】山陽小野田市有帆662-11", "url": "https://www.kaigokensaku.mhlw.go.jp/35/index.php?action_kouhyou_detail_004_kani=true&JigyosyoCd=3570900229-00&ServiceCd=320&Type=search", "url2": "kirara7530@celery.ocn.ne.jp" }, "geometry": { "type": "Point", "coordinates": [ 131.1956318, 34.0267611 ] } },
{ "type": "Feature", "properties": { "内容": "グループホーム　こもれび【認知症対応型共同生活介護】山陽小野田市大字有帆真土５３５－１１８", "url": "https://www.kaigokensaku.mhlw.go.jp/35/index.php?action_kouhyou_detail_004_kani=true&JigyosyoCd=3570900369-00&ServiceCd=320&Type=search", "url2": "http://murashige.byoinnavi.jp/pc/free170286.html" }, "geometry": { "type": "Point", "coordinates": [ 131.213053199999962, 34.0248711 ] } },
{ "type": "Feature", "properties": { "内容": "グループホームそらり【認知症対応型共同生活介護】山口県山陽小野田市大字西高泊1334－1", "url": "https://www.kaigokensaku.mhlw.go.jp/35/index.php?action_kouhyou_detail_004_kani=true&JigyosyoCd=3591600212-00&ServiceCd=320&Type=search", "url2": "http://hayakawanaika.com/" }, "geometry": { "type": "Point", "coordinates": [ 131.170653663754251, 34.002030762773991 ] } },
{ "type": "Feature", "properties": { "内容": "グループホーム太陽の家【認知症対応型共同生活介護】周防大島町大字久賀5377-1", "url": "https://www.kaigokensaku.mhlw.go.jp/35/index.php?action_kouhyou_detail_004_kani=true&JigyosyoCd=3577100302-00&ServiceCd=320&Type=search", "url2": null }, "geometry": { "type": "Point", "coordinates": [ 132.258919800000058, 33.9467026 ] } },
{ "type": "Feature", "properties": { "内容": "グループホーム　ほうばいの絆【認知症対応型共同生活介護】大島郡周防大島町小松91-4おげんきハグニティ　山棟３階", "url": "https://www.kaigokensaku.mhlw.go.jp/35/index.php?action_kouhyou_detail_004_kani=true&JigyosyoCd=3597100076-00&ServiceCd=320&Type=search", "url2": "https://www.okaharakai.com/" }, "geometry": { "type": "Point", "coordinates": [ 132.190190199999961, 33.9274335 ] } },
{ "type": "Feature", "properties": { "内容": "グループホーム　しらき【認知症対応型共同生活介護】山口県大島郡周防大島町大字西方１４番地", "url": "https://www.kaigokensaku.mhlw.go.jp/35/index.php?action_kouhyou_detail_004_kani=true&JigyosyoCd=3597100084-00&ServiceCd=320&Type=search", "url2": null }, "geometry": { "type": "Point", "coordinates": [ 132.327347851469739, 33.904041999760089 ] } },
{ "type": "Feature", "properties": { "内容": "グループホーム　みかん畑【認知症対応型共同生活介護】大島郡周防大島町大字西方463番地", "url": "https://www.kaigokensaku.mhlw.go.jp/35/index.php?action_kouhyou_detail_004_kani=true&JigyosyoCd=3597100027-00&ServiceCd=320&Type=search", "url2": null }, "geometry": { "type": "Point", "coordinates": [ 132.335051900000053, 33.899034 ] } },
{ "type": "Feature", "properties": { "内容": "グループホーム　すこやか【認知症対応型共同生活介護】大島郡周防大島町椋野1338-5", "url": "https://www.kaigokensaku.mhlw.go.jp/35/index.php?action_kouhyou_detail_004_kani=true&JigyosyoCd=3597100050-00&ServiceCd=320&Type=search", "url2": null }, "geometry": { "type": "Point", "coordinates": [ 132.230651800000032, 33.9560996 ] } },
{ "type": "Feature", "properties": { "内容": "グループホームひまわり【認知症対応型共同生活介護】大島郡周防大島町小松開作143-25", "url": "https://www.kaigokensaku.mhlw.go.jp/35/index.php?action_kouhyou_detail_004_kani=true&JigyosyoCd=3577100385-00&ServiceCd=320&Type=search", "url2": null }, "geometry": { "type": "Point", "coordinates": [ 132.188768, 33.9299638 ] } },
{ "type": "Feature", "properties": { "内容": "グループホーム　こすもす【認知症対応型共同生活介護】大島郡周防大島町小松開作１４３－２７", "url": "https://www.kaigokensaku.mhlw.go.jp/35/index.php?action_kouhyou_detail_004_kani=true&JigyosyoCd=3597100035-00&ServiceCd=320&Type=search", "url2": null }, "geometry": { "type": "Point", "coordinates": [ 132.18899579999993, 33.9299194 ] } },
{ "type": "Feature", "properties": { "内容": "グループホームわきあいあい苑【認知症対応型共同生活介護】玖珂郡和木町瀬田４丁目１－１", "url": "https://www.kaigokensaku.mhlw.go.jp/35/index.php?action_kouhyou_detail_004_kani=true&JigyosyoCd=3597200017-00&ServiceCd=320&Type=search", "url2": "https://wakiaiaien.tkc.best-hp.jp" }, "geometry": { "type": "Point", "coordinates": [ 132.2245524, 34.1919204 ] } },
{ "type": "Feature", "properties": { "内容": "グループホーム　みずき【認知症対応型共同生活介護】山口県熊毛郡田布施町大字宿井416-4", "url": "https://www.kaigokensaku.mhlw.go.jp/35/index.php?action_kouhyou_detail_004_kani=true&JigyosyoCd=3597330020-00&ServiceCd=320&Type=search", "url2": null }, "geometry": { "type": "Point", "coordinates": [ 132.027737800000068, 33.9653346 ] } },
{ "type": "Feature", "properties": { "内容": "ぐるーぷほーむ　あっぱれ【認知症対応型共同生活介護】田布施町大字下田布施３８４－３", "url": "https://www.kaigokensaku.mhlw.go.jp/35/index.php?action_kouhyou_detail_004_kani=true&JigyosyoCd=3597330061-00&ServiceCd=320&Type=search", "url2": "https://www.nagominoki.jp" }, "geometry": { "type": "Point", "coordinates": [ 132.053112676587176, 33.954803245716839 ] } },
{ "type": "Feature", "properties": { "内容": "グループホームさくら【認知症対応型共同生活介護】山口県熊毛郡田布施町大字下田布施806", "url": "https://www.kaigokensaku.mhlw.go.jp/35/index.php?action_kouhyou_detail_004_kani=true&JigyosyoCd=3577300449-00&ServiceCd=320&Type=search", "url2": "http://koujinkai-ichikawaiin.jimdo.com/" }, "geometry": { "type": "Point", "coordinates": [ 132.0475394, 33.9525224 ] } },
{ "type": "Feature", "properties": { "内容": "グループホームなでしこ【認知症対応型共同生活介護】山口県熊毛郡平生町大字平生村８９５", "url": "https://www.kaigokensaku.mhlw.go.jp/35/index.php?action_kouhyou_detail_004_kani=true&JigyosyoCd=3597340037-00&ServiceCd=320&Type=search", "url2": "http://www.shoueikai-sakamoto.com/" }, "geometry": { "type": "Point", "coordinates": [ 132.075371, 33.9382801 ] } },
{ "type": "Feature", "properties": { "内容": "グループホームさんぽみち【認知症対応型共同生活介護】山口県熊毛郡平生町大字平生村８６２－２", "url": "https://www.kaigokensaku.mhlw.go.jp/35/index.php?action_kouhyou_detail_004_kani=true&JigyosyoCd=3597340029-00&ServiceCd=320&Type=search", "url2": null }, "geometry": { "type": "Point", "coordinates": [ 132.072766374204946, 33.943923404319939 ] } },
{ "type": "Feature", "properties": { "内容": "ひらお・みんなの家【認知症対応型共同生活介護】熊毛郡平生町大字平生村６１８－２", "url": "https://www.kaigokensaku.mhlw.go.jp/35/index.php?action_kouhyou_detail_004_kani=true&JigyosyoCd=3577300308-00&ServiceCd=320&Type=search", "url2": null }, "geometry": { "type": "Point", "coordinates": [ 132.0759266, 33.9404798 ] } },
{ "type": "Feature", "properties": { "内容": "グループホームであい【認知症対応型共同生活介護】山口県阿武郡阿武町大字木与10039番地5", "url": "https://www.kaigokensaku.mhlw.go.jp/35/index.php?action_kouhyou_detail_004_kani=true&JigyosyoCd=3578100442-00&ServiceCd=320&Type=search", "url2": "http://abufukushi.com" }, "geometry": { "type": "Point", "coordinates": [ 131.497906612572933, 34.526749352543995 ] } },
{ "type": "Feature", "properties": { "内容": "ひだまりの里グループホーム【認知症対応型共同生活介護】山口県阿武郡阿武町大字宇田2251番地", "url": "https://www.kaigokensaku.mhlw.go.jp/35/index.php?action_kouhyou_detail_004_kani=true&JigyosyoCd=3597820012-00&ServiceCd=320&Type=search", "url2": "http://abufukushi.com" }, "geometry": { "type": "Point", "coordinates": [ 131.54541, 34.5677241 ] } },
{ "type": "Feature", "properties": { "内容": "グループホームいらお苑【認知症対応型共同生活介護】山口県阿武郡阿武町大字福田下1358番地1", "url": "https://www.kaigokensaku.mhlw.go.jp/35/index.php?action_kouhyou_detail_004_kani=true&JigyosyoCd=3597820038-00&ServiceCd=320&Type=search", "url2": "http://abufukushi.com" }, "geometry": { "type": "Point", "coordinates": [ 131.5974856, 34.5157602 ] } }
]
}
